<kml xmlns="http://www.opengis.net/kml/2.2" xmlns:gx="http://www.google.com/kml/ext/2.2" xmlns:xsi="http://www.w3.org/2001/XMLSchema-instance" xsi:schemaLocation="http://www.opengis.net/kml/2.2 https://developers.google.com/kml/schema/kml22gx.xsd"><Document><name>Drawing</name><Placemark id="drawing_feature_1768409830442"><name></name><description>Flurstrasse_South_SN</description><Style><LineStyle><color>ff0000ff</color><width>3</width></LineStyle></Style><ExtendedData><Data name="type"><value>linepolygon</value></Data></ExtendedData><LineString><coordinates>8.496086997952128,47.38583558746804,0 8.49645924312203,47.3863330238673,0</coordinates></LineString></Placemark><Placemark id="drawing_feature_1768409858869"><name></name><description>Flurstrasse_South_NS</description><Style><LineStyle><color>ff0000ff</color><width>3</width></LineStyle></Style><ExtendedData><Data name="type"><value>linepolygon</value></Data></ExtendedData><LineString><coordinates>8.496404762772848,47.38635079313315,0 8.496019912606531,47.38585886894682,0</coordinates></LineString></Placemark><Placemark id="drawing_feature_1768409923369"><name></name><description>Baslerstrasse_East_EW</description><Style><LineStyle><color>ff0000ff</color><width>3</width></LineStyle></Style><ExtendedData><Data name="type"><value>linepolygon</value></Data></ExtendedData><LineString><coordinates>8.49787209560522,47.38608854751558,0 8.497753773559294,47.38613280840248,0 8.496741578857113,47.38642434678933,0</coordinates></LineString></Placemark><Placemark id="drawing_feature_1768409965574"><name></name><description>Baslerstrasse_West_EW</description><Style><LineStyle><color>ff0000ff</color><width>3</width></LineStyle></Style><ExtendedData><Data name="type"><value>linepolygon</value></Data></ExtendedData><LineString><coordinates>8.496378738508886,47.38652103755797,0 8.495120064526063,47.386887137840915,0</coordinates></LineString></Placemark><Placemark id="drawing_feature_1768409999180"><name></name><description>Baslerstrasse_West_WE</description><Style><LineStyle><color>ff0000ff</color><width>3</width></LineStyle></Style><ExtendedData><Data name="type"><value>linepolygon</value></Data></ExtendedData><LineString><coordinates>8.495098678957966,47.38685063361493,0 8.496347817657567,47.38648462087227,0</coordinates></LineString></Placemark><Placemark id="drawing_feature_1768410043105"><name></name><description>Flurstrasse_North_SN</description><Style><LineStyle><color>ff0000ff</color><width>3</width></LineStyle></Style><ExtendedData><Data name="type"><value>linepolygon</value></Data></ExtendedData><LineString><coordinates>8.496656662290798,47.38657952900003,0 8.497186856846943,47.38723737761881,0</coordinates></LineString></Placemark><Placemark id="drawing_feature_1768410073578"><name></name><description>Flurstrasse_North_NS</description><Style><LineStyle><color>ff0000ff</color><width>3</width></LineStyle></Style><ExtendedData><Data name="type"><value>linepolygon</value></Data></ExtendedData><LineString><coordinates>8.497129885080215,47.387249773003745,0 8.496963638800882,47.38704189137649,0 8.496820712605206,47.38688776617297,0 8.496601248683817,47.38660103513898,0</coordinates></LineString></Placemark><Placemark id="drawing_feature_1768410121975"><name></name><description>Baslerstrasse_East_WE</description><Style><LineStyle><color>ff0000ff</color><width>3</width></LineStyle></Style><ExtendedData><Data name="type"><value>linepolygon</value></Data></ExtendedData><LineString><coordinates>8.496692976068074,47.3863619625046,0 8.497839425261821,47.38602817646512,0</coordinates></LineString></Placemark></Document></kml>