<kml xmlns="http://www.opengis.net/kml/2.2" xmlns:gx="http://www.google.com/kml/ext/2.2" xmlns:xsi="http://www.w3.org/2001/XMLSchema-instance" xsi:schemaLocation="http://www.opengis.net/kml/2.2 https://developers.google.com/kml/schema/kml22gx.xsd"><Document><name>Drawing</name><Placemark id="drawing_feature_1764684598045"><name></name><description>Intersection_MA</description><Style><LineStyle><color>ff0000ff</color><width>3</width></LineStyle><PolyStyle><color>660000ff</color></PolyStyle></Style><ExtendedData><Data name="type"><value>linepolygon</value></Data></ExtendedData><Polygon><outerBoundaryIs><LinearRing><coordinates>8.53549819417938,47.37606447709614,0 8.535670649809852,47.37622091888481,0 8.53583648147762,47.37617132657081,0 8.535903870509049,47.37616421220937,0 8.53604189783739,47.3761920351022,0 8.536081055734103,47.37620299302182,0 8.536143575351606,47.37611228154369,0 8.536170426957584,47.37606726382839,0 8.536112687551235,47.3760413758937,0 8.536131263945476,47.376017460538435,0 8.536160444810449,47.37600693237952,0 8.536104183525493,47.37589848378988,0 8.535744780577032,47.37596232411777,0 8.535689202474547,47.37592562509407,0 8.535680470440132,47.37588740204604,0 8.535474330869945,47.375985933744836,0 8.535509155193767,47.37601797429157,0 8.53549819417938,47.37606447709614,0</coordinates></LinearRing></outerBoundaryIs></Polygon></Placemark><Placemark id="drawing_feature_1764752111489"><name></name><description>Observed_Area</description><Style><LineStyle><color>ffffffff</color><width>3</width></LineStyle><PolyStyle><color>66ffffff</color></PolyStyle></Style><ExtendedData><Data name="type"><value>linepolygon</value></Data></ExtendedData><Polygon><outerBoundaryIs><LinearRing><coordinates>8.535244162700048,47.3761973218624,0 8.535418802328953,47.37634408348218,0 8.535653968229777,47.37622743235787,0 8.535790056789722,47.37618521000602,0 8.535903870509049,47.37616421220937,0 8.535994702906699,47.37618252179435,0 8.536094538407903,47.37620813567799,0 8.536182181485321,47.37625857522693,0 8.536381542698594,47.376139564260725,0 8.536147210693514,47.37605685463317,0 8.536112687551235,47.3760413758937,0 8.536131263945476,47.376017460538435,0 8.536160444810449,47.37600693237952,0 8.536636985642833,47.37588887083068,0 8.536625886808784,47.37586166936153,0 8.536602941157177,47.375802689559876,0 8.53659004412227,47.37577004152812,0 8.536104183525493,47.37589848378988,0 8.535843512481879,47.375944786611065,0 8.535744780577032,47.37596232411777,0 8.535712734875833,47.375941163888,0 8.535689202474547,47.37592562509407,0 8.535680470440132,47.37588740204604,0 8.535544570331522,47.37577619609269,0 8.535308556326516,47.375890156498315,0 8.535474330869945,47.375985933744836,0 8.535509155193767,47.37601797429157,0 8.53549819417938,47.37606447709614,0 8.535244162700048,47.3761973218624,0</coordinates></LinearRing></outerBoundaryIs></Polygon></Placemark><Placemark id="drawing_feature_1764759197689"><name></name><description>Gessnerbrucke_WE</description><Style><LineStyle><color>ff0000ff</color><width>3</width></LineStyle></Style><ExtendedData><Data name="type"><value>linepolygon</value></Data></ExtendedData><LineString><coordinates>8.535106303910878,47.37634052182823,0 8.535518506958061,47.37613961513885,0</coordinates></LineString></Placemark><Placemark id="drawing_feature_1764759278477"><name></name><description>Gessnerbrucke_EW</description><Style><LineStyle><color>ff0000ff</color><width>3</width></LineStyle></Style><ExtendedData><Data name="type"><value>linepolygon</value></Data></ExtendedData><LineString><coordinates>8.535623891180563,47.376225195016715,0 8.53550274355383,47.37628229319218,0 8.535428989509366,47.37631745593146,0 8.53534224327907,47.376358812663106,0 8.535269244719153,47.37639361501819,0 8.535197422119834,47.37642785663966,0</coordinates></LineString></Placemark><Placemark id="drawing_feature_1764759345576"><name></name><description>Gessnerallee_NS</description><Style><LineStyle><color>ff0000ff</color><width>3</width></LineStyle></Style><ExtendedData><Data name="type"><value>linepolygon</value></Data></ExtendedData><LineString><coordinates>8.536413616218926,47.37642102555817,0 8.536370341274324,47.37632590850828,0 8.53630023531102,47.37623968176133,0 8.53622690200891,47.37618964601964,0 8.5361228453137,47.37614235937914,0 8.536048355473637,47.376123339222,0</coordinates></LineString></Placemark><Placemark id="drawing_feature_1764759457683"><name></name><description>Usteristrasse_WE</description><Style><LineStyle><color>ff0000ff</color><width>3</width></LineStyle></Style><ExtendedData><Data name="type"><value>linepolygon</value></Data></ExtendedData><LineString><coordinates>8.535827127972997,47.376003646245564,0 8.536005390891013,47.37594042624333,0 8.536278317278695,47.375882782933246,0 8.536602991740063,47.37580281760723,0</coordinates></LineString></Placemark><Placemark id="drawing_feature_1764759510303"><name></name><description>Usteristrasse_EW</description><Style><LineStyle><color>ff0000ff</color><width>3</width></LineStyle></Style><ExtendedData><Data name="type"><value>linepolygon</value></Data></ExtendedData><LineString><coordinates>8.536757072842962,47.37583354477131,0 8.536730430939189,47.37583911709679,0 8.536267404638783,47.37593648816169,0 8.536184607328602,47.3759532780018,0 8.536059646344409,47.375988224876075,0 8.535979914045457,47.376013269187006,0 8.535889932776834,47.37604218876191,0</coordinates></LineString></Placemark><Placemark id="drawing_feature_1764767558011"><name></name><description>Gessnerallee_S_V</description><Style><LineStyle><color>ff0000ff</color><width>3</width></LineStyle></Style><ExtendedData><Data name="type"><value>linepolygon</value></Data></ExtendedData><LineString><coordinates>8.535645615942203,47.375981688249716,0 8.535578570922427,47.375931756849255,0 8.535502723576823,47.37587186538544,0 8.53527969012396,47.3756899425906,0 8.5351285449291,47.375565085808304,0</coordinates></LineString></Placemark><Placemark id="drawing_feature_1768320792800"><name></name><description>Gessnerallee_S_B</description><Style><LineStyle><color>ff0000ff</color><width>3</width></LineStyle></Style><ExtendedData><Data name="type"><value>linepolygon</value></Data></ExtendedData><LineString><coordinates>8.535544631604843,47.376015134592116,0 8.535162974058654,47.37573109388699,0 8.535021738797028,47.37562449287443,0</coordinates></LineString></Placemark><Placemark id="drawing_feature_1768405594402"><name></name><description>Freihofstrasse_North_SN</description><Style><LineStyle><color>ff0000ff</color><width>3</width></LineStyle></Style><ExtendedData><Data name="type"><value>linepolygon</value></Data></ExtendedData><LineString><coordinates>8.501043665364461,47.3852590807394,0 8.501451392611939,47.38570058583324,0</coordinates></LineString></Placemark><Placemark id="drawing_feature_1768405611872"><name></name><description>Freihofstrasse_North_NS</description><Style><LineStyle><color>ff0000ff</color><width>3</width></LineStyle></Style><ExtendedData><Data name="type"><value>linepolygon</value></Data></ExtendedData><LineString><coordinates>8.501397806080801,47.38572320657924,0 8.50098931672373,47.38528332737986,0</coordinates></LineString></Placemark><Placemark id="drawing_feature_1768405702799"><name></name><description>Freihofstrasse_South_SN</description><Style><LineStyle><color>ff0000ff</color><width>3</width></LineStyle></Style><ExtendedData><Data name="type"><value>linepolygon</value></Data></ExtendedData><LineString><coordinates>8.500830016256156,47.385021834530036,0 8.500320545369801,47.38445874960096,0</coordinates></LineString></Placemark><Placemark id="drawing_feature_1768405747832"><name></name><description>Freihofstrasse_South_NS</description><Style><LineStyle><color>ff0000ff</color><width>3</width></LineStyle></Style><ExtendedData><Data name="type"><value>linepolygon</value></Data></ExtendedData><LineString><coordinates>8.500773241288506,47.38504394459904,0 8.500267549768271,47.38447111005452,0</coordinates></LineString></Placemark><Placemark id="drawing_feature_1768405818297"><name></name><description>Baslerstrasse_East_EW</description><Style><LineStyle><color>ff0000ff</color><width>3</width></LineStyle></Style><ExtendedData><Data name="type"><value>linepolygon</value></Data></ExtendedData><LineString><coordinates>8.501105305536152,47.385122317437855,0 8.502412081755052,47.38474167580417,0</coordinates></LineString></Placemark><Placemark id="drawing_feature_1768405859586"><name></name><description>Baslerstrasse_West_EW</description><Style><LineStyle><color>ff0000ff</color><width>3</width></LineStyle></Style><ExtendedData><Data name="type"><value>linepolygon</value></Data></ExtendedData><LineString><coordinates>8.500703347536552,47.38524906536915,0 8.50053352570892,47.38530081867582,0 8.50042345278735,47.38532018021406,0 8.500324589120344,47.38534375625723,0 8.499672825947744,47.38553648068851,0</coordinates></LineString></Placemark><Placemark id="drawing_feature_1768405903742"><name></name><description>Baslerstrasse_West_WE</description><Style><LineStyle><color>ff0000ff</color><width>3</width></LineStyle></Style><ExtendedData><Data name="type"><value>linepolygon</value></Data></ExtendedData><LineString><coordinates>8.499649730561908,47.38549405623165,0 8.500670512968401,47.385196476280576,0</coordinates></LineString></Placemark><Placemark id="drawing_feature_1768405934727"><name></name><description>Baslerstrasse_East_WE</description><Style><LineStyle><color>ff0000ff</color><width>3</width></LineStyle></Style><ExtendedData><Data name="type"><value>linepolygon</value></Data></ExtendedData><LineString><coordinates>8.501086375494658,47.385089569567,0 8.502390767525702,47.38470895008906,0</coordinates></LineString></Placemark></Document></kml>