<kml xmlns="http://www.opengis.net/kml/2.2" xmlns:gx="http://www.google.com/kml/ext/2.2" xmlns:xsi="http://www.w3.org/2001/XMLSchema-instance" xsi:schemaLocation="http://www.opengis.net/kml/2.2 https://developers.google.com/kml/schema/kml22gx.xsd"><Document><name>Drawing</name><Placemark id="drawing_feature_1765562717714"><name></name><description>Birmensdorferstrasse_West_WE</description><Style><LineStyle><color>ffff0000</color><width>3</width></LineStyle></Style><ExtendedData><Data name="type"><value>linepolygon</value></Data></ExtendedData><LineString><coordinates>8.508539898135767,47.36962322429133 8.50987129963979,47.369782982188205</coordinates></LineString></Placemark><Placemark id="drawing_feature_1765563073425"><name></name><description>Birmensdorferstrasse_West_EW</description><Style><LineStyle><color>ffff0000</color><width>3</width></LineStyle></Style><ExtendedData><Data name="type"><value>linepolygon</value></Data></ExtendedData><LineString><coordinates>8.509695808094415,47.36992309819534 8.508536678518844,47.369784561118486 8.508481756391756,47.36977487801414</coordinates></LineString></Placemark><Placemark id="drawing_feature_1765563165002"><name></name><description>Birmensdorferstrasse_East_EW</description><Style><LineStyle><color>ffff0000</color><width>3</width></LineStyle></Style><ExtendedData><Data name="type"><value>linepolygon</value></Data></ExtendedData><LineString><coordinates>8.510842180625447,47.36999759371274 8.510683807053429,47.369979279688586 8.510608670191589,47.36997398185448 8.510414498004591,47.36997518429714</coordinates></LineString></Placemark><Placemark id="drawing_feature_1765563250287"><name></name><description>Birmensdorferstrasse_East_WE</description><Style><LineStyle><color>ffff0000</color><width>3</width></LineStyle></Style><ExtendedData><Data name="type"><value>linepolygon</value></Data></ExtendedData><LineString><coordinates>8.510348074616825,47.3698325159008 8.510894860764516,47.369895786183335</coordinates></LineString></Placemark><Placemark id="drawing_feature_1765563383429"><name></name><description>Gutstrasse_North_NS</description><Style><LineStyle><color>ffff0000</color><width>3</width></LineStyle></Style><ExtendedData><Data name="type"><value>linepolygon</value></Data></ExtendedData><LineString><coordinates>8.50955529806747,47.37024378896199 8.50965836416187,47.3701875206575 8.509868958724445,47.37005867388959</coordinates></LineString></Placemark><Placemark id="drawing_feature_1765563435238"><name></name><description>Gutstrasse_North_SN</description><Style><LineStyle><color>ffff0000</color><width>3</width></LineStyle></Style><ExtendedData><Data name="type"><value>linepolygon</value></Data></ExtendedData><LineString><coordinates>8.510219103996974,47.37002044878523 8.510171451925448,47.370033092196415 8.510069404228618,47.37008040390609 8.509874986141789,47.370179817827555 8.509620004192218,47.37030500909239</coordinates></LineString></Placemark><Placemark id="drawing_feature_1765563531005"><name></name><description>Talwiesenstrasse_South_SN</description><Style><LineStyle><color>ffff0000</color><width>3</width></LineStyle></Style><ExtendedData><Data name="type"><value>linepolygon</value></Data></ExtendedData><LineString><coordinates>8.510648327914803,47.36944788381271 8.510585269843192,47.369528184403826 8.510399424940314,47.36975604042616</coordinates></LineString></Placemark><Placemark id="drawing_feature_1765563615924"><name></name><description>Talwiesenstrasse_South_NS</description><Style><LineStyle><color>ffff0000</color><width>3</width></LineStyle></Style><ExtendedData><Data name="type"><value>linepolygon</value></Data></ExtendedData><LineString><coordinates>8.510345034046619,47.369731329002896 8.510493444317717,47.36954774533548 8.510591574795692,47.369424821323676</coordinates></LineString></Placemark></Document></kml>