<kml xmlns="http://www.opengis.net/kml/2.2" xmlns:gx="http://www.google.com/kml/ext/2.2" xmlns:xsi="http://www.w3.org/2001/XMLSchema-instance" xsi:schemaLocation="http://www.opengis.net/kml/2.2 https://developers.google.com/kml/schema/kml22gx.xsd"><Document><name>Drawing</name><Placemark id="drawing_feature_1765560340364"><name></name><description>Birmensdorferstrasse_West_WE</description><Style><LineStyle><color>ffff0000</color><width>3</width></LineStyle></Style><ExtendedData><Data name="type"><value>linepolygon</value></Data></ExtendedData><LineString><coordinates>8.500140698097667,47.36863289538285 8.500296717081229,47.36864935668751 8.500348286525742,47.368652949743 8.500977185494746,47.36872037496488</coordinates></LineString></Placemark><Placemark id="drawing_feature_1765560517302"><name></name><description>Birmensdorferstrasse_West_EW</description><Style><LineStyle><color>ffff0000</color><width>3</width></LineStyle></Style><ExtendedData><Data name="type"><value>linepolygon</value></Data></ExtendedData><LineString><coordinates>8.50116227220137,47.368919426602844 8.50053283683537,47.368839153410974 8.500375247342182,47.36880399820163 8.500275230811681,47.36877319413474 8.500191072124812,47.368756885812616 8.500090182210057,47.36874235800651</coordinates></LineString></Placemark><Placemark id="drawing_feature_1765560609997"><name></name><description>Schweighofstrasse_South_SN</description><Style><LineStyle><color>ffff0000</color><width>3</width></LineStyle></Style><ExtendedData><Data name="type"><value>linepolygon</value></Data></ExtendedData><LineString><coordinates>8.501408837452606,47.368385341620595 8.501358697183939,47.368513510038156 8.501346206608504,47.36854778864908 8.501332907778666,47.36860159680072 8.501327569389558,47.368634182785605</coordinates></LineString></Placemark><Placemark id="drawing_feature_1765560681330"><name></name><description>Schweighofstrasse_South_NS</description><Style><LineStyle><color>ffff0000</color><width>3</width></LineStyle></Style><ExtendedData><Data name="type"><value>linepolygon</value></Data></ExtendedData><LineString><coordinates>8.501238993794718,47.368636624598516 8.50126473681223,47.36860629115798 8.501348643181272,47.36836962707982</coordinates></LineString></Placemark><Placemark id="drawing_feature_1765560765085"><name></name><description>Birmensdorferstrasse_East_EW</description><Style><LineStyle><color>ffff0000</color><width>3</width></LineStyle></Style><ExtendedData><Data name="type"><value>linepolygon</value></Data></ExtendedData><LineString><coordinates>8.502572120209004,47.36906522659596 8.502332036892465,47.36903734123993 8.502248120662529,47.369033233493255 8.502136712539274,47.36903181908707 8.502057618359547,47.36902929361973 8.50162185453944,47.36897799223984</coordinates></LineString></Placemark><Placemark id="drawing_feature_1765560842936"><name></name><description>Birmensdorferstrasse_East_WE</description><Style><LineStyle><color>ffff0000</color><width>3</width></LineStyle></Style><ExtendedData><Data name="type"><value>linepolygon</value></Data></ExtendedData><LineString><coordinates>8.501464467256316,47.368772831675976 8.50264096207778,47.36891410948049</coordinates></LineString></Placemark><Placemark id="drawing_feature_1765560924240"><name></name><description>Schaufelbergerstrasse_North_SN</description><Style><LineStyle><color>ffff0000</color><width>3</width></LineStyle></Style><ExtendedData><Data name="type"><value>linepolygon</value></Data></ExtendedData><LineString><coordinates>8.501418057208518,47.36903239099402 8.50140658554205,47.369057712549576 8.501404628622005,47.369079692922114 8.50141624846104,47.36912188391961 8.501500820823685,47.36933910254763</coordinates></LineString></Placemark><Placemark id="drawing_feature_1765560995866"><name></name><description>Schaufelbergerstrasse_North_NS</description><Style><LineStyle><color>ffff0000</color><width>3</width></LineStyle></Style><ExtendedData><Data name="type"><value>linepolygon</value></Data></ExtendedData><LineString><coordinates>8.501460303173538,47.3693492364371 8.50134041980163,47.36904286639161</coordinates></LineString></Placemark></Document></kml>