<kml xmlns="http://www.opengis.net/kml/2.2" xmlns:gx="http://www.google.com/kml/ext/2.2" xmlns:xsi="http://www.w3.org/2001/XMLSchema-instance" xsi:schemaLocation="http://www.opengis.net/kml/2.2 https://developers.google.com/kml/schema/kml22gx.xsd"><Document><name>Drawing</name><Placemark id="drawing_feature_1764684598045"><name></name><description>Intersection_MA</description><Style><LineStyle><color>ff0000ff</color><width>3</width></LineStyle><PolyStyle><color>660000ff</color></PolyStyle></Style><ExtendedData><Data name="type"><value>linepolygon</value></Data></ExtendedData><Polygon><outerBoundaryIs><LinearRing><coordinates>8.535498160635681,47.376064441688975,0 8.535670616265682,47.376220883477565,0 8.53583644793275,47.37617129116381,0 8.535903836963914,47.376164176802554,0 8.536041864291734,47.37619199969539,0 8.53608102218832,47.37620295761508,0 8.536143541805469,47.37611224613718,0 8.536170393411288,47.37606722842202,0 8.536112654005134,47.37604134048726,0 8.536131230399263,47.37601742513204,0 8.536160411264117,47.376006896973145,0 8.536104149979245,47.375898448383694,0 8.535744747032261,47.37596228871101,0 8.53568916892994,47.375925589687334,0 8.53568043689551,47.375887366639354,0 8.535474297326243,47.375985898337795,0 8.535509121649978,47.37601793888448,0 8.535498160635681,47.376064441688975,0</coordinates></LinearRing></outerBoundaryIs></Polygon></Placemark><Placemark id="drawing_feature_1764752111489"><name></name><description>Observed_Area</description><Style><LineStyle><color>ffffffff</color><width>3</width></LineStyle><PolyStyle><color>66ffffff</color></PolyStyle></Style><ExtendedData><Data name="type"><value>linepolygon</value></Data></ExtendedData><Polygon><outerBoundaryIs><LinearRing><coordinates>8.535244129157503,47.37619728645466,0 8.535418768785915,47.3763440480744,0 8.53565393468568,47.37622739695057,0 8.535790023245049,47.37618517459905,0 8.535903836963914,47.376164176802554,0 8.535994669361225,47.376182486387506,0 8.536094504862074,47.37620810027119,0 8.536182147939211,47.376258539820185,0 8.536381509151564,47.37613952885447,0 8.536147177147296,47.37605681922682,0 8.536112654005134,47.37604134048726,0 8.536131230399263,47.37601742513204,0 8.536160411264117,47.376006896973145,0 8.536636952094506,47.37588883542519,0 8.536625853260462,47.3758616339561,0 8.536602907608867,47.37580265415444,0 8.536590010573974,47.37577000612275,0 8.536104149979245,47.375898448383694,0 8.535843478936693,47.375944751204536,0 8.535744747032261,47.37596228871101,0 8.53571270133115,47.37594112848123,0 8.53568916892994,47.375925589687334,0 8.53568043689551,47.375887366639354,0 8.535544536787292,47.375776160685994,0 8.535308522783335,47.3758901210912,0 8.535474297326243,47.375985898337795,0 8.535509121649978,47.37601793888448,0 8.535498160635681,47.376064441688975,0 8.535244129157503,47.37619728645466,0</coordinates></LinearRing></outerBoundaryIs></Polygon></Placemark><Placemark id="drawing_feature_1764759197689"><name></name><description>Gessnerbrucke_WE</description><Style><LineStyle><color>ff0000ff</color><width>3</width></LineStyle></Style><ExtendedData><Data name="type"><value>linepolygon</value></Data></ExtendedData><LineString><coordinates>8.53510627036906,47.37634048642011,0 8.535518473414385,47.3761395797316,0</coordinates></LineString></Placemark><Placemark id="drawing_feature_1764759278477"><name></name><description>Gessnerbrucke_EW</description><Style><LineStyle><color>ff0000ff</color><width>3</width></LineStyle></Style><ExtendedData><Data name="type"><value>linepolygon</value></Data></ExtendedData><LineString><coordinates>8.535623857636592,47.376225159609355,0 8.535502710010382,47.37628225778461,0 8.535428955966262,47.376317420523804,0 8.535342209736353,47.376358777255206,0 8.535269211176773,47.37639357961019,0 8.535197388577764,47.376427821231474,0</coordinates></LineString></Placemark><Placemark id="drawing_feature_1764759345576"><name></name><description>Gessnerallee_NS</description><Style><LineStyle><color>ff0000ff</color><width>3</width></LineStyle></Style><ExtendedData><Data name="type"><value>linepolygon</value></Data></ExtendedData><LineString><coordinates>8.536413582672113,47.37642099015142,0 8.536370307727577,47.37632587310164,0 8.53630020176443,47.37623964635476,0 8.53622686846254,47.3761896106131,0 8.53612281176768,47.37614232397257,0 8.536048321927876,47.376123303815326,0</coordinates></LineString></Placemark><Placemark id="drawing_feature_1764759457683"><name></name><description>Usteristrasse_WE</description><Style><LineStyle><color>ff0000ff</color><width>3</width></LineStyle></Style><ExtendedData><Data name="type"><value>linepolygon</value></Data></ExtendedData><LineString><coordinates>8.535827094427948,47.376003610838794,0 8.536005357345202,47.375940390836966,0 8.536278283731749,47.375882747527335,0 8.536602958191764,47.375802782201774,0</coordinates></LineString></Placemark><Placemark id="drawing_feature_1764759510303"><name></name><description>Usteristrasse_EW</description><Style><LineStyle><color>ff0000ff</color><width>3</width></LineStyle></Style><ExtendedData><Data name="type"><value>linepolygon</value></Data></ExtendedData><LineString><coordinates>8.536757039294098,47.375833509366004,0 8.536730397390437,47.37583908169144,0 8.53626737109195,47.37593645275565,0 8.536184573782101,47.37595324259558,0 8.536059612798443,47.375988189469716,0 8.535979880499836,47.376013233780434,0 8.5358898992316,47.37604215335518,0</coordinates></LineString></Placemark><Placemark id="drawing_feature_1764767558011"><name></name><description><![CDATA[Gessnerallee_S
]]></description><Style><LineStyle><color>ff0000ff</color><width>3</width></LineStyle></Style><ExtendedData><Data name="type"><value>linepolygon</value></Data></ExtendedData><LineString><coordinates>8.535645582397832,47.37598165284279 8.53550269003288,47.37587182997858 8.535279656580661,47.375689907183805 8.535128511386223,47.375565050401526</coordinates></LineString></Placemark></Document></kml>