<kml xmlns="http://www.opengis.net/kml/2.2" xmlns:gx="http://www.google.com/kml/ext/2.2" xmlns:xsi="http://www.w3.org/2001/XMLSchema-instance" xsi:schemaLocation="http://www.opengis.net/kml/2.2 https://developers.google.com/kml/schema/kml22gx.xsd"><Document><name>Lines-GessnerBrucke</name><Placemark id="drawing_feature_1761684035441"><name></name><description>Gessnerbrucke_Centerline</description><Style><LineStyle><color>ffff0000</color><width>3</width></LineStyle></Style><ExtendedData><Data name="type"><value>linepolygon</value></Data></ExtendedData><LineString><coordinates>8.535015886457096,47.37652100287453,0 8.535060133929946,47.37649944647099,0 8.535179861087263,47.376440172234716,0 8.535285601289797,47.37638762358397,0 8.535400106047355,47.37633199484337,0 8.535434187592228,47.37631491028974,0 8.535492729443028,47.37628556411213,0 8.535560909892943,47.376252551325464,0 8.535605104610772,47.37623131316493,0 8.535671982482206,47.376199174350695,0 8.535717906095654,47.37617706532582,0</coordinates></LineString></Placemark><Placemark id="drawing_feature_1761684178689"><name></name><description>Stadttunnel_Centerline</description><Style><LineStyle><color>ffff0000</color><width>3</width></LineStyle></Style><ExtendedData><Data name="type"><value>linepolygon</value></Data></ExtendedData><LineString><coordinates>8.53488547515832,47.37644297861106,0 8.534905985666521,47.37645297306708,0 8.534932736300606,47.37646590507224,0 8.53496936862863,47.376487134315155,0 8.535005204674375,47.37651256663241,0 8.535059946141953,47.37655580022659,0 8.535134696790232,47.37662584436166,0 8.535166120342708,47.37665422877493,0 8.535217530379114,47.376700666588604,0 8.535303697605789,47.37678298909739,0 8.535328034808884,47.3768073317547,0 8.535344206191873,47.376820963452516,0 8.535388319389785,47.37686249974865,0 8.53542429153022,47.376894523570314,0 8.535442289907412,47.37691113470959,0 8.53547918179252,47.376944947857154,0</coordinates></LineString></Placemark><Placemark id="drawing_feature_1761685368685"><name></name><description>Observed_Area</description><Style><LineStyle><color>ff808080</color><width>3</width></LineStyle><PolyStyle><color>66808080</color></PolyStyle></Style><ExtendedData><Data name="type"><value>linepolygon</value></Data></ExtendedData><Polygon><outerBoundaryIs><LinearRing><coordinates>8.534220645959886,47.37631373195543,0 8.534472917505967,47.37613153140731,0 8.53460933828136,47.3762186426787,0 8.534678698384953,47.376264434804106,0 8.53475029590332,47.37631170423757,0 8.534823915369287,47.37634996392042,0 8.534872676749998,47.3763599900103,0 8.53494531032094,47.376350310312816,0 8.535048004407026,47.376299888531456,0 8.535238007482477,47.376202187490236,0 8.535312402279551,47.37616713602847,0 8.535345114362675,47.37615172354537,0 8.53555938897487,47.37605379158905,0 8.535680827505086,47.3761635197729,0 8.535718278731546,47.37620005205599,0 8.535593195173867,47.37625638092924,0 8.535446390432325,47.376329697967606,0 8.535318793967628,47.37639264337685,0 8.535165993420922,47.37646748965093,0 8.535136279264998,47.376482156314886,0 8.53511473075618,47.37650753391643,0 8.535111057184269,47.37654353029949,0 8.535140924325077,47.37657920830901,0 8.53518496319338,47.37661714920939,0 8.53530924058977,47.37672374655525,0 8.535358970701251,47.376766905208456,0 8.535454196277811,47.376846888092615,0 8.535358973224499,47.376895740868065,0 8.535269009032344,47.37694274556317,0 8.53522838790775,47.376961995152435,0 8.535181827894888,47.37698405903466,0 8.535136373463132,47.37700606740975,0 8.535054436698056,47.37692832916943,0 8.534970722561887,47.37685000839056,0 8.534886959371901,47.376769290592236,0 8.534828662676203,47.37672489192944,0 8.534813144119852,47.376710804419254,0 8.534694520358602,47.3767808562436,0 8.53461256120195,47.37683078128509,0 8.534570818727838,47.37685655935597,0 8.534342611645094,47.37699748796117,0 8.534140582268632,47.377121195683735,0 8.534069175025065,47.3771688801003,0 8.534010134885943,47.37720576379492,0 8.533892809907302,47.37711765270801,0 8.533796776880656,47.377041245970034,0 8.533924044172995,47.37696212276049,0 8.534069502147016,47.37686604485239,0 8.534190663949007,47.3767905753853,0 8.534349890407325,47.3767201389185,0 8.534450397588177,47.37667063748903,0 8.534524585276827,47.37662917734219,0 8.534554139587083,47.37660672067668,0 8.534571287333279,47.3765819842844,0 8.534567276246669,47.37655864735777,0 8.534517083848202,47.37652196330242,0 8.534459867389684,47.37648714394789,0 8.534341719211742,47.376408549990614,0 8.534250506556631,47.37635187672673,0 8.534208467788252,47.37632530430798,0 8.534220645959886,47.37631373195543,0</coordinates></LinearRing></outerBoundaryIs></Polygon></Placemark><Placemark id="drawing_feature_1761687021587"><name></name><description>Measurement_Area_South</description><Style><LineStyle><color>ff0000ff</color><width>3</width></LineStyle><PolyStyle><color>660000ff</color></PolyStyle></Style><ExtendedData><Data name="type"><value>linepolygon</value></Data></ExtendedData><Polygon><outerBoundaryIs><LinearRing><coordinates>8.534536274404546,47.37653598908887 8.534604780149904,47.37648710589227 8.534660456396699,47.37644701997982 8.534723977891167,47.37640206474831 8.534786542659806,47.37635352235262 8.534802543093177,47.376338856861686 8.534773646100748,47.37632383923406 8.534735716881464,47.3763020790247 8.53470528985846,47.3762819907892 8.534633244596536,47.37623442584327 8.534555370805737,47.376184181885684 8.534472917505967,47.37613153140731 8.53441250987434,47.37617516036704 8.534310354057737,47.37624894140492 8.534228996126188,47.37630770116201 8.534208467788252,47.37632530430798 8.534282174456076,47.37637155300104 8.534390038310935,47.376440692630055 8.534459867389684,47.37648714394789 8.534536274404546,47.37653598908887</coordinates></LinearRing></outerBoundaryIs></Polygon></Placemark><Placemark id="drawing_feature_1761687076541"><name></name><description>Measurement_Area_West</description><Style><LineStyle><color>ff0000ff</color><width>3</width></LineStyle><PolyStyle><color>660000ff</color></PolyStyle></Style><ExtendedData><Data name="type"><value>linepolygon</value></Data></ExtendedData><Polygon><outerBoundaryIs><LinearRing><coordinates>8.534813144119852,47.376710804419254 8.534752188756336,47.376657723220056 8.534676998515474,47.37660749117818 8.534625139296857,47.376575617861505 8.534611702377944,47.376566155593494 8.534554139587083,47.37660672067668 8.534450397588177,47.37667063748903 8.534331133606615,47.37672843632182 8.534190663949007,47.3767905753853 8.534006425562636,47.3769077082664 8.533796776880656,47.377041245970034 8.533892809907302,47.37711765270801 8.534010134885943,47.37720576379492 8.534266304272943,47.377044213014415 8.534448073543434,47.37693236042901 8.534645329254916,47.376810820795356 8.534745538540358,47.37675072811248 8.534813144119852,47.376710804419254</coordinates></LinearRing></outerBoundaryIs></Polygon></Placemark><Placemark id="drawing_feature_1761687140508"><name></name><description>Measurement_Area_North</description><Style><LineStyle><color>ff0000ff</color><width>3</width></LineStyle><PolyStyle><color>660000ff</color></PolyStyle></Style><ExtendedData><Data name="type"><value>linepolygon</value></Data></ExtendedData><Polygon><outerBoundaryIs><LinearRing><coordinates>8.534813144119852,47.376710804419254 8.534874167512656,47.376664956712396 8.534963995999904,47.376611360696124 8.535012795901897,47.37658033025338 8.535068595208749,47.376546236524156 8.535091248323688,47.37653163690104 8.535140924325077,47.37657920830901 8.535264372863804,47.37668526190272 8.535380558154332,47.37678503720096 8.535454196277811,47.376846888092615 8.535358973224499,47.376895740868065 8.53522838790775,47.376961995152435 8.535136373463132,47.37700606740975 8.535054436698056,47.37692832916943 8.534955660646666,47.37683549410647 8.534886959371901,47.376769290592236 8.534828662676203,47.37672489192944 8.534813144119852,47.376710804419254</coordinates></LinearRing></outerBoundaryIs></Polygon></Placemark><Placemark id="drawing_feature_1761687198794"><name></name><description>Measurement_Area_East</description><Style><LineStyle><color>ff0000ff</color><width>3</width></LineStyle><PolyStyle><color>660000ff</color></PolyStyle></Style><ExtendedData><Data name="type"><value>linepolygon</value></Data></ExtendedData><Polygon><outerBoundaryIs><LinearRing><coordinates>8.53494531032094,47.376350310312816 8.535015535910071,47.37640881569622 8.535074838503759,47.3764591982959 8.535122010110147,47.37649896105057 8.535136279264998,47.376482156314886 8.535203078481548,47.37644932431808 8.535378570333538,47.3763631547605 8.535513670058144,47.37629609731042 8.535654498376383,47.37622877429258 8.535718278731546,47.37620005205599 8.535611385788426,47.37610077440895 8.535578191420548,47.3760707809486 8.53555938897487,47.37605379158905 8.535459751771745,47.37609932981873 8.535312402279551,47.37616713602847 8.535165007446569,47.376239724749304 8.53505885835893,47.376294307364184 8.53494531032094,47.376350310312816</coordinates></LinearRing></outerBoundaryIs></Polygon></Placemark><Placemark id="drawing_feature_1761687283490"><name></name><description>Measurement_Area_Intersection</description><Style><LineStyle><color>ff0000ff</color><width>3</width></LineStyle><PolyStyle><color>660000ff</color></PolyStyle></Style><ExtendedData><Data name="type"><value>linepolygon</value></Data></ExtendedData><Polygon><outerBoundaryIs><LinearRing><coordinates>8.534611702377944,47.376566155593494 8.534608386334718,47.37655686068099 8.53460373895184,47.37654551694401 8.534592900709919,47.3765336326211 8.534583006757595,47.37652473611246 8.534566472067453,47.376514441156246 8.534604780149904,47.37648710589227 8.534660456396699,47.37644701997982 8.534723977891167,47.37640206474831 8.534786542659806,47.37635352235262 8.534802543093177,47.376338856861686 8.534823915369287,47.37634996392042 8.534872676749998,47.3763599900103 8.53494531032094,47.376350310312816 8.535015535910071,47.37640881569622 8.535074838503759,47.3764591982959 8.535122010110147,47.37649896105057 8.53511376249186,47.376517021693374 8.535091248323688,47.37653163690104 8.534963995999904,47.376611360696124 8.534874167512656,47.376664956712396 8.534862019162453,47.376674083942405 8.534836822231373,47.37667516416346 8.534813064550718,47.37667898576355 8.534785331453133,47.376686584587446 8.534760000742615,47.376664526068055 8.534726784829637,47.37664075173704 8.534676998515474,47.37660749117818 8.534611702377944,47.376566155593494</coordinates></LinearRing></outerBoundaryIs></Polygon></Placemark></Document></kml>