<kml xmlns="http://www.opengis.net/kml/2.2" xmlns:gx="http://www.google.com/kml/ext/2.2" xmlns:xsi="http://www.w3.org/2001/XMLSchema-instance" xsi:schemaLocation="http://www.opengis.net/kml/2.2 https://developers.google.com/kml/schema/kml22gx.xsd"><Document><name>Drawing</name><Placemark id="drawing_feature_1765550338019"><name></name><description>Baslerstrasse_West_WE</description><Style><LineStyle><color>ffff0000</color><width>3</width></LineStyle></Style><ExtendedData><Data name="type"><value>linepolygon</value></Data></ExtendedData><LineString><coordinates>8.50455845850481,47.38385665449314 8.50581550296642,47.38331447968434 8.505887169629188,47.383277846799075</coordinates></LineString></Placemark><Placemark id="drawing_feature_1765550440960"><name></name><description>Baslerstrasse_West_EW</description><Style><LineStyle><color>ffff0000</color><width>3</width></LineStyle></Style><ExtendedData><Data name="type"><value>linepolygon</value></Data></ExtendedData><LineString><coordinates>8.50595224048214,47.38334649561669 8.505841947956608,47.383394276606005 8.50579287308927,47.38341271534877 8.505510481227565,47.38350824813541 8.50540010398399,47.38355183285576 8.50459996471322,47.38389494616746</coordinates></LineString></Placemark><Placemark id="drawing_feature_1765550549086"><name></name><description>Herdenstrasse_North_NS</description><Style><LineStyle><color>ffff0000</color><width>3</width></LineStyle></Style><ExtendedData><Data name="type"><value>linepolygon</value></Data></ExtendedData><LineString><coordinates>8.506611070672722,47.38368604704456 8.50618322784606,47.383352474437054</coordinates></LineString></Placemark><Placemark id="drawing_feature_1765550610085"><name></name><description>Herdenstrasse_North_SN</description><Style><LineStyle><color>ffff0000</color><width>3</width></LineStyle></Style><ExtendedData><Data name="type"><value>linepolygon</value></Data></ExtendedData><LineString><coordinates>8.506246793920123,47.383312622758034 8.506275074794935,47.383348965233736 8.506302930914948,47.3833777481294 8.506317331345766,47.383391403870206 8.506660801195691,47.38365621232947</coordinates></LineString></Placemark><Placemark id="drawing_feature_1765550698291"><name></name><description>Bullingerstrasse_East_EW</description><Style><LineStyle><color>ffff0000</color><width>3</width></LineStyle></Style><ExtendedData><Data name="type"><value>linepolygon</value></Data></ExtendedData><LineString><coordinates>8.5068177966051,47.38293341481335 8.5062976874087,47.38315045070758</coordinates></LineString></Placemark><Placemark id="drawing_feature_1765550734358"><name></name><description>Bullingerstrasse_East_WE</description><Style><LineStyle><color>ffff0000</color><width>3</width></LineStyle></Style><ExtendedData><Data name="type"><value>linepolygon</value></Data></ExtendedData><LineString><coordinates>8.50626055757286,47.38310403167855 8.506778997162714,47.38289180753702</coordinates></LineString></Placemark><Placemark id="drawing_feature_1765550776430"><name></name><description>Herdenstrasse_South_SN</description><Style><LineStyle><color>ffff0000</color><width>3</width></LineStyle></Style><ExtendedData><Data name="type"><value>linepolygon</value></Data></ExtendedData><LineString><coordinates>8.50551572438798,47.3827616414415 8.505832331225601,47.38300811545892 8.50593278506382,47.38308632344266 8.505964041971296,47.38310402012605</coordinates></LineString></Placemark><Placemark id="drawing_feature_1765550850023"><name></name><description>Herdenstrasse_South_NS</description><Style><LineStyle><color>ffff0000</color><width>3</width></LineStyle></Style><ExtendedData><Data name="type"><value>linepolygon</value></Data></ExtendedData><LineString><coordinates>8.505894505349444,47.38314320572427 8.505861653309958,47.3831055655127 8.505783520598637,47.38303974110345 8.505472282344796,47.38279681452394</coordinates></LineString></Placemark></Document></kml>