<kml xmlns="http://www.opengis.net/kml/2.2" xmlns:gx="http://www.google.com/kml/ext/2.2" xmlns:xsi="http://www.w3.org/2001/XMLSchema-instance" xsi:schemaLocation="http://www.opengis.net/kml/2.2 https://developers.google.com/kml/schema/kml22gx.xsd"><Document><name>Drawing</name><Placemark id="drawing_feature_1764778353129"><name></name><description>LangstrN_SB</description><Style><LineStyle><color>ffff0000</color><width>3</width></LineStyle></Style><ExtendedData><Data name="type"><value>linepolygon</value></Data></ExtendedData><LineString><coordinates>8.529595414592652,47.38237907262363,0 8.529528530360128,47.382299046172385,0 8.529461420700065,47.38221874971624,0 8.529287687200252,47.382010876921164,0</coordinates></LineString></Placemark><Placemark id="drawing_feature_1764778412310"><name></name><description>LangstrN_NB</description><Style><LineStyle><color>ffff0000</color><width>3</width></LineStyle></Style><ExtendedData><Data name="type"><value>linepolygon</value></Data></ExtendedData><LineString><coordinates>8.529335796347535,47.381988840108406,0 8.52938408114932,47.38204578981227,0 8.529472388177425,47.38214994352232,0 8.52964793773811,47.38235699400284,0</coordinates></LineString></Placemark><Placemark id="drawing_feature_1764778448456"><name></name><description>Zollstr_WB</description><Style><LineStyle><color>ffff0000</color><width>3</width></LineStyle></Style><ExtendedData><Data name="type"><value>linepolygon</value></Data></ExtendedData><LineString><coordinates>8.530686017360944,47.381483880886634,0 8.530249692952445,47.381604910464446,0 8.530219018149735,47.38161599162161,0 8.530183120741407,47.38163071922081,0 8.53015294775075,47.381646862479016,0 8.530127227068292,47.38166062363379,0 8.530077242539758,47.38167728284511,0 8.530008075806752,47.38169593339931,0 8.52997116660604,47.3817043776657,0 8.529923664548638,47.381712921982285,0 8.529890653981427,47.38171773135333,0 8.529856282474107,47.381720754548496,0 8.529833809502364,47.381722765837445,0 8.529810067663016,47.38172748763825,0 8.529779778940133,47.38173586931111,0 8.52973630437961,47.38174707404222,0 8.52970470993883,47.381756367537605,0 8.529667837470006,47.381766610380126,0 8.529633594791175,47.3817759288653,0 8.529594074080089,47.38178619669306,0 8.529561155483503,47.381795502652814,0 8.529521653152434,47.381806669792326,0 8.529427973289131,47.381833542226296,0</coordinates></LineString></Placemark><Placemark id="drawing_feature_1764778599313"><name></name><description>Zollstr_EB</description><Style><LineStyle><color>ffff0000</color><width>3</width></LineStyle></Style><ExtendedData><Data name="type"><value>linepolygon</value></Data></ExtendedData><LineString><coordinates>8.529417987198524,47.38182019923583,0 8.529711925067346,47.38173914045468,0 8.529980754282107,47.381665004974344,0 8.53005801766492,47.38164389145525,0 8.530676000350923,47.38146898756246,0</coordinates></LineString></Placemark><Placemark id="drawing_feature_1764778715474"><name></name><description>LangstrS_NB</description><Style><LineStyle><color>ffff0000</color><width>3</width></LineStyle></Style><ExtendedData><Data name="type"><value>linepolygon</value></Data></ExtendedData><LineString><coordinates>8.52896015716011,47.381457272636645,0 8.529190789079662,47.38176878623119,0</coordinates></LineString></Placemark><Placemark id="drawing_feature_1764778800324"><name></name><description>LangstrS_SB</description><Style><LineStyle><color>ffff0000</color><width>3</width></LineStyle></Style><ExtendedData><Data name="type"><value>linepolygon</value></Data></ExtendedData><LineString><coordinates>8.529089412245257,47.38185687409938,0 8.528847933007299,47.38148985044576,0</coordinates></LineString></Placemark><Placemark id="drawing_feature_1764778839005"><name></name><description>Roentgenstr_EB</description><Style><LineStyle><color>ffff0000</color><width>3</width></LineStyle></Style><ExtendedData><Data name="type"><value>linepolygon</value></Data></ExtendedData><LineString><coordinates>8.528590232623985,47.382146139905,0 8.528641530005935,47.38210728683333,0 8.528796463726279,47.382041676549925,0 8.528850404283528,47.38202159403059,0 8.528957495601695,47.38198172292003,0 8.528981889764598,47.38197264072011,0 8.529012894600742,47.38196109728611,0</coordinates></LineString></Placemark><Placemark id="drawing_feature_1764778904115"><name></name><description>Roentgenstr_WB</description><Style><LineStyle><color>ffff0000</color><width>3</width></LineStyle></Style><ExtendedData><Data name="type"><value>linepolygon</value></Data></ExtendedData><LineString><coordinates>8.529058797414315,47.38200382928209,0 8.528931768610072,47.38205239007126,0 8.52890542884342,47.38205889100914,0 8.528891358684486,47.38206236367252,0 8.528729350753068,47.38212744129857,0 8.528700563475645,47.382144499424996,0 8.528666688124215,47.38217179732569,0</coordinates></LineString></Placemark><Placemark id="drawing_feature_1776367565638"><name></name><description>Roentgenstr_Stop</description><Style><LineStyle><color>ff0000ff</color><width>3</width></LineStyle></Style><ExtendedData><Data name="type"><value>linepolygon</value></Data></ExtendedData><LineString><coordinates>8.5290025870237,47.38195089845911,0 8.52906357051455,47.38201868565973,0</coordinates></LineString></Placemark><Placemark id="drawing_feature_1776367706580"><name></name><description>Zollstr_Stop</description><Style><LineStyle><color>ff0000ff</color><width>3</width></LineStyle></Style><ExtendedData><Data name="type"><value>linepolygon</value></Data></ExtendedData><LineString><coordinates>8.529451220360434,47.381870204939325,0 8.52941153271366,47.38180761393308,0</coordinates></LineString></Placemark><Placemark id="drawing_feature_1776367853618"><name></name><description>LangstrS_Stop</description><Style><LineStyle><color>ff0000ff</color><width>3</width></LineStyle></Style><ExtendedData><Data name="type"><value>linepolygon</value></Data></ExtendedData><LineString><coordinates>8.529231802638934,47.381753381336175,0 8.529023130251948,47.381829798534675,0</coordinates></LineString></Placemark><Placemark id="drawing_feature_1776367896681"><name></name><description>LangstrN_Stop</description><Style><LineStyle><color>ff0000ff</color><width>3</width></LineStyle></Style><ExtendedData><Data name="type"><value>linepolygon</value></Data></ExtendedData><LineString><coordinates>8.529262422766614,47.382020370963055,0 8.529355094159172,47.38198288255499,0 8.529355094159172,47.38198288255499,0</coordinates></LineString></Placemark><Placemark id="drawing_feature_1776368672973"><name></name><description>Roentgenstr_Yield</description><Style><LineStyle><color>ff008000</color><width>3</width></LineStyle></Style><ExtendedData><Data name="type"><value>linepolygon</value></Data></ExtendedData><LineString><coordinates>8.529225647977547,47.382002842517444,0 8.529037262865439,47.38185710996478,0</coordinates></LineString></Placemark><Placemark id="drawing_feature_1776368726314"><name></name><description>Zollstr_Yield</description><Style><LineStyle><color>ff008000</color><width>3</width></LineStyle></Style><ExtendedData><Data name="type"><value>linepolygon</value></Data></ExtendedData><LineString><coordinates>8.52927838861709,47.38179725625746,0 8.529322168298847,47.38192997942338,0</coordinates></LineString></Placemark><Placemark id="drawing_feature_1776368745128"><name></name><description>LangstrN_Yield</description><Style><LineStyle><color>ff008000</color><width>3</width></LineStyle></Style><ExtendedData><Data name="type"><value>linepolygon</value></Data></ExtendedData><LineString><coordinates>8.52918439804282,47.38199333729761,0 8.529334266150686,47.381935707352724,0</coordinates></LineString></Placemark><Placemark id="drawing_feature_1776368784289"><name></name><description>LangstrS_Yield</description><Style><LineStyle><color>ff008000</color><width>3</width></LineStyle></Style><ExtendedData><Data name="type"><value>linepolygon</value></Data></ExtendedData><LineString><coordinates>8.529035434282893,47.38189759625559,0 8.52930367550024,47.38180331410577,0</coordinates></LineString></Placemark><Placemark id="drawing_feature_1776368970229"><name></name><description>Intersection_Area</description><Style><LineStyle><color>ffffffff</color><width>3</width></LineStyle><PolyStyle><color>66ffffff</color></PolyStyle></Style><ExtendedData><Data name="type"><value>linepolygon</value></Data></ExtendedData><Polygon><outerBoundaryIs><LinearRing><coordinates>8.5290025870237,47.38195089845911,0 8.529023130251948,47.381829798534675,0 8.529231802638934,47.381753381336175,0 8.52941153271366,47.38180761393308,0 8.529451220360434,47.381870204939325,0 8.529355094159172,47.38198288255499,0 8.529262422766614,47.382020370963055,0 8.52906357051455,47.38201868565973,0 8.5290025870237,47.38195089845911,0</coordinates></LinearRing></outerBoundaryIs></Polygon></Placemark><Placemark id="drawing_feature_1780010232675"><name></name><description>Matteng_NB</description><Style><LineStyle><color>ffff0000</color><width>3</width></LineStyle></Style><ExtendedData><Data name="type"><value>linepolygon</value></Data></ExtendedData><LineString><coordinates>8.529977347003605,47.38174749578931,0 8.52999360461031,47.38176533242014,0 8.530011223168767,47.381784955213064,0 8.530026175107452,47.3818037036843,0 8.530073660787291,47.38185902473063,0 8.530123850043097,47.38191701874604,0 8.530157763257764,47.381956276797865,0</coordinates></LineString></Placemark><Placemark id="drawing_feature_1780010315820"><name></name><description>Matteng_Yield</description><Style><LineStyle><color>ff0000ff</color><width>3</width></LineStyle></Style><ExtendedData><Data name="type"><value>linepolygon</value></Data></ExtendedData><LineString><coordinates>8.529909064332259,47.381776025636015,0 8.530032793720716,47.38173887639714,0</coordinates></LineString></Placemark><Placemark id="drawing_feature_1780010376295"><name></name><description>ZollstrE_Stop</description><Style><LineStyle><color>ff0000ff</color><width>3</width></LineStyle></Style><ExtendedData><Data name="type"><value>linepolygon</value></Data></ExtendedData><LineString><coordinates>8.530048498821765,47.381729732922786,0 8.529963697104028,47.381598305977114,0</coordinates></LineString></Placemark><Placemark id="drawing_feature_1780010691186"><name></name><description>ZollstrW_Yield</description><Style><LineStyle><color>ff0000ff</color><width>3</width></LineStyle></Style><ExtendedData><Data name="type"><value>linepolygon</value></Data></ExtendedData><LineString><coordinates>8.529865681837721,47.38179172709875,0 8.529777937659155,47.38164593564698,0</coordinates></LineString></Placemark><Placemark id="drawing_feature_1780010764177"><name></name><description>Matteng_Stop</description><Style><LineStyle><color>ff0000ff</color><width>3</width></LineStyle></Style><ExtendedData><Data name="type"><value>linepolygon</value></Data></ExtendedData><LineString><coordinates>8.529914729063734,47.38179396233767,0 8.53004634787793,47.381754040028746,0</coordinates></LineString></Placemark></Document></kml>