<kml xmlns="http://www.opengis.net/kml/2.2" xmlns:gx="http://www.google.com/kml/ext/2.2" xmlns:xsi="http://www.w3.org/2001/XMLSchema-instance" xsi:schemaLocation="http://www.opengis.net/kml/2.2 https://developers.google.com/kml/schema/kml22gx.xsd"><Document><name>Drawing</name><Placemark id="drawing_feature_1787372743533"><name></name><description>Zollstr_EB_CarL1</description><Style><LineStyle><color>ffffffff</color><width>3</width></LineStyle><PolyStyle><color>66ffffff</color></PolyStyle></Style><ExtendedData><Data name="type"><value>linepolygon</value></Data></ExtendedData><Polygon><outerBoundaryIs><LinearRing><coordinates>8.5293957399731,47.38184267655706 8.529510293159625,47.38181011207358 8.52965252358418,47.38177098952649 8.529789457375252,47.38173191682844 8.529830283700438,47.381720737090575 8.52989106366522,47.3817138664131 8.529941250770538,47.38170709576731 8.52997823364253,47.38170224885694 8.530013818735455,47.381693817097116 8.530037523707295,47.38168729658117 8.530099406693243,47.38166962124568 8.530124435748165,47.381663088202096 8.530162411130137,47.38164204066397 8.530189922594026,47.38162738855586 8.530228026867226,47.381612636352095 8.530299086313555,47.381590376647466 8.530379432836742,47.38156892864536 8.530455806991073,47.381547518128656 8.53053218108399,47.38152610756133 8.530601971467386,47.381506558194026 8.530670456127499,47.38148792063729 8.530694160927288,47.3814813999861 8.530802165768382,47.38145249414591 8.53087984525282,47.381430171493584 8.530911457726726,47.381421777012314 8.53094547876511,47.38140166610862 8.531004307388603,47.38136422992144 8.531061904005403,47.38133130290729 8.53111275612933,47.38130759348898 8.531140667635686,47.38129727618289 8.531206503649074,47.381278663350244 8.531278614912889,47.381258350843964 8.531358546251088,47.38123739811078 8.531428335952723,47.381217848242265 8.531500773788013,47.3811982732798 8.531645649298824,47.38115912321824 8.5317944599746,47.381118136714015 8.531943288870469,47.38107804935394 8.532161888260356,47.38101751215182 8.532362060682834,47.38096254605417 8.532571464367441,47.380905693169524 8.532729523747106,47.380863718353474 8.532714404961926,47.38083687619934 8.532543234021874,47.38088527172823 8.53212181503537,47.381000800753796 8.531789934306246,47.38109119420708 8.531336899781587,47.38121511508255 8.531185440294681,47.38125612604012 8.531130141750838,47.3812719406794 8.531065740420335,47.38129593696699 8.531022506127515,47.381318833558936 8.53096628889447,47.381354446043495 8.53093361042328,47.381375443770885 8.530910034722623,47.38138825982724 8.530864004643805,47.38140398670488 8.530808687420858,47.38141890185291 8.530671736754767,47.381457076427075 8.530403131237692,47.38153337503388 8.530075179746406,47.38162192733012 8.529764422124533,47.38170941678058 8.529526047604701,47.38177463366231 8.529379899971069,47.38181649156803 8.5293957399731,47.38184267655706</coordinates></LinearRing></outerBoundaryIs></Polygon></Placemark><Placemark id="drawing_feature_1787373020760"><name></name><description>AckerstrS_NB_CarL1</description><Style><LineStyle><color>ffffffff</color><width>3</width></LineStyle><PolyStyle><color>66ffffff</color></PolyStyle></Style><ExtendedData><Data name="type"><value>linepolygon</value></Data></ExtendedData><Polygon><outerBoundaryIs><LinearRing><coordinates>8.530767832415503,47.38150364435948 8.530792182255311,47.3815286004668 8.530780578652223,47.38154400184604 8.53083749947802,47.38160732898786 8.530932214219384,47.38170537968869 8.530986284418981,47.381758839091766 8.531025620502305,47.38173957742327 8.530999927917774,47.38171373455045 8.530855060076172,47.38155948889743 8.530857173781051,47.38153338310195 8.530816437087445,47.38148429513867 8.530767832415503,47.38150364435948</coordinates></LinearRing></outerBoundaryIs></Polygon></Placemark><Placemark id="drawing_feature_1787373081483"><name></name><description>AckerstrN_NB_CarL1</description><Style><LineStyle><color>ffffffff</color><width>3</width></LineStyle><PolyStyle><color>66ffffff</color></PolyStyle></Style><ExtendedData><Data name="type"><value>linepolygon</value></Data></ExtendedData><Polygon><outerBoundaryIs><LinearRing><coordinates>8.53106740523877,47.381850260042306 8.531173140860448,47.38195856254885 8.531242182427118,47.38203166948367 8.531346462508889,47.382144021552044 8.531404653445215,47.38220463786971 8.531541340149554,47.38234726658983 8.531588547415444,47.382324332230404 8.531549336433836,47.38228512470905 8.531369150268445,47.3820983698266 8.5311973187315,47.381920992359724 8.531144480084922,47.381863023854656 8.531151926965686,47.38183866664201 8.531130261902533,47.38181548424272 8.53106740523877,47.381850260042306</coordinates></LinearRing></outerBoundaryIs></Polygon></Placemark><Placemark id="drawing_feature_1787373205844"><name></name><description>NeugE_WB_CarL1</description><Style><LineStyle><color>ff0000ff</color><width>3</width></LineStyle><PolyStyle><color>660000ff</color></PolyStyle></Style><ExtendedData><Data name="type"><value>linepolygon</value></Data></ExtendedData><Polygon><outerBoundaryIs><LinearRing><coordinates>8.532200961630556,47.38107120078462 8.532127716799407,47.38111597014003 8.532071500519638,47.38115158316497 8.53201660825674,47.38118718363047 8.531995717984989,47.38120177351866 8.531949854431804,47.381225594857845 8.531815133080457,47.381307825743434 8.531647696213055,47.38140925572615 8.531469631763422,47.38151986883899 8.531245957768448,47.38165601159513 8.531160960310292,47.381708987062055 8.531117817900284,47.38173638036882 8.531098195967813,47.3817482595615 8.531130564457953,47.3817767378138 8.531260065384526,47.3816981551767 8.531612860258848,47.381482500276185 8.532006891121183,47.38123898492216 8.532235747054319,47.38109739451921 8.532200961630556,47.38107120078462</coordinates></LinearRing></outerBoundaryIs></Polygon></Placemark><Placemark id="drawing_feature_1787373297232"><name></name><description>NeugW_WB_CarL1</description><Style><LineStyle><color>ff0000ff</color><width>3</width></LineStyle><PolyStyle><color>660000ff</color></PolyStyle></Style><ExtendedData><Data name="type"><value>linepolygon</value></Data></ExtendedData><Polygon><outerBoundaryIs><LinearRing><coordinates>8.530972849955335,47.38182168786706 8.530860377423771,47.38189111407632 8.5308119751302,47.38192035601377 8.530785345479643,47.38191341167722 8.530743508392717,47.381939892988434 8.530746525199637,47.381957854682476 8.53063276482686,47.38202909185705 8.530520254562942,47.382096719057785 8.530390677882213,47.38217170350981 8.530431083077127,47.382204603557895 8.530483384489646,47.38217172689475 8.530666531064565,47.38206115506677 8.530845722975924,47.38195151983573 8.53100788507426,47.38185104044999 8.530972849955335,47.38182168786706</coordinates></LinearRing></outerBoundaryIs></Polygon></Placemark></Document></kml>