<kml xmlns="http://www.opengis.net/kml/2.2" xmlns:gx="http://www.google.com/kml/ext/2.2" xmlns:xsi="http://www.w3.org/2001/XMLSchema-instance" xsi:schemaLocation="http://www.opengis.net/kml/2.2 https://developers.google.com/kml/schema/kml22gx.xsd"><Document><name>Drawing</name><Placemark id="drawing_feature_1788485510447"><name></name><description>LangstrS_NB_CarL1</description><Style><LineStyle><color>ffffffff</color><width>3</width></LineStyle><PolyStyle><color>66ffffff</color></PolyStyle></Style><ExtendedData><Data name="type"><value>linepolygon</value></Data></ExtendedData><Polygon><outerBoundaryIs><LinearRing><coordinates>8.528933570879449,47.38147791770476 8.52896444714286,47.381521433856534 8.52900584574289,47.38157977977313 8.529034516705284,47.38162178615793 8.529075362267188,47.38167627076854 8.529109384964691,47.3817209251517 8.529128437700217,47.38174593160165 8.529156453223813,47.38178038772976 8.529181421258283,47.381811095725276 8.529216914533334,47.38179816752783 8.529189751467815,47.381765142058505 8.529146275911348,47.38171158182421 8.529109549775047,47.381664254438306 8.529076832816184,47.38161868821966 8.52901138066662,47.38152665641583 8.528973146686408,47.38147034811281 8.528933570879449,47.38147791770476</coordinates></LinearRing></outerBoundaryIs></Polygon></Placemark><Placemark id="drawing_feature_1788485595534"><name></name><description>LangstrS_NB_CarL2</description><Style><LineStyle><color>ff0000ff</color><width>3</width></LineStyle><PolyStyle><color>660000ff</color></PolyStyle></Style><ExtendedData><Data name="type"><value>linepolygon</value></Data></ExtendedData><Polygon><outerBoundaryIs><LinearRing><coordinates>8.529143279748865,47.38182404890931 8.529111978778294,47.38178296688771 8.529076631932519,47.38173832500416 8.529033156511723,47.38168476472682 8.529008678626212,47.381653512892235 8.52899369028885,47.38163296561471 8.528971805459026,47.38159899076737 8.528951207961711,47.38156320474532 8.52893318510067,47.38152379637931 8.52891525425708,47.38148888469414 8.528933570879449,47.38147791770476 8.52896444714286,47.381521433856534 8.52900584574289,47.38157977977313 8.529034516705284,47.38162178615793 8.529075362267188,47.38167627076854 8.529128437700217,47.38174593160165 8.529156453223813,47.38178038772976 8.529181421258283,47.381811095725276 8.529143279748865,47.38182404890931</coordinates></LinearRing></outerBoundaryIs></Polygon></Placemark><Placemark id="drawing_feature_1788485679138"><name></name><description>Roentgenstr_WB_CarL1</description><Style><LineStyle><color>ffffffff</color><width>3</width></LineStyle><PolyStyle><color>66ffffff</color></PolyStyle></Style><ExtendedData><Data name="type"><value>linepolygon</value></Data></ExtendedData><Polygon><outerBoundaryIs><LinearRing><coordinates>8.528683925833782,47.38215760477355 8.52870869776315,47.382138481324226 8.528728375558119,47.382129300549174 8.528763813967783,47.38211367448219 8.528803224703026,47.38209801091978 8.52885446046391,47.38207773820206 8.528903103151375,47.38206018846356 8.528924160193666,47.38205369316893 8.52896623746442,47.38203890389476 8.528989869119734,47.3820287862479 8.529052948158878,47.38200480362141 8.529083181945534,47.38199372412996 8.529061499319017,47.38196964200684 8.529031283941809,47.38198162082938 8.528986613707222,47.38199913313153 8.528930100016968,47.3820203552304 8.528867039301609,47.382045237126306 8.528800006183022,47.382070156472096 8.528747427897883,47.38208954232321 8.528722472054024,47.38209967241419 8.52867927288993,47.38212436679633 8.528655806679183,47.382142578409535 8.528683925833782,47.38215760477355</coordinates></LinearRing></outerBoundaryIs></Polygon></Placemark><Placemark id="drawing_feature_1788485783505"><name></name><description>Roentgenstr_EB_CarL1</description><Style><LineStyle><color>ff0000ff</color><width>3</width></LineStyle><PolyStyle><color>660000ff</color></PolyStyle></Style><ExtendedData><Data name="type"><value>linepolygon</value></Data></ExtendedData><Polygon><outerBoundaryIs><LinearRing><coordinates>8.528618326759982,47.38212314280466 8.528640487253044,47.382105843028626 8.528671971721256,47.38209115380531 8.528728430403913,47.38206723382317 8.528788879774366,47.382044175665904 8.528862459843085,47.382015596502114 8.528930798577937,47.38198976528668 8.529041196025048,47.3819482453919 8.529061499319017,47.38196964200684 8.529031283941809,47.38198162082938 8.528986613707222,47.38199913313153 8.528949730092783,47.382012983722326 8.528910389651339,47.38202813236473 8.528879451850637,47.382040339505615 8.528842520888938,47.38205435177444 8.528817579736398,47.38206362356632 8.528774476995954,47.38207956920339 8.528747427897883,47.38208954232321 8.528722472054024,47.38209967241419 8.52867927288993,47.38212436679633 8.528655806679183,47.382142578409535 8.528618326759982,47.38212314280466</coordinates></LinearRing></outerBoundaryIs></Polygon></Placemark><Placemark id="drawing_feature_1788485852943"><name></name><description>Zollstr_EB_CarL1</description><Style><LineStyle><color>ff0000ff</color><width>3</width></LineStyle><PolyStyle><color>660000ff</color></PolyStyle></Style><ExtendedData><Data name="type"><value>linepolygon</value></Data></ExtendedData><Polygon><outerBoundaryIs><LinearRing><coordinates>8.529360415139548,47.381821099572925 8.529378143919729,47.38184611848211 8.529428183959396,47.38183215336633 8.52956644218006,47.38179306843151 8.52972183993722,47.381750223415395 8.52979821461598,47.38172881333493 8.5298869665488,47.38172977405426 8.530027872376971,47.38169066355103 8.53011079369607,47.381665593372304 8.530135785910046,47.38165726165304 8.530160612343014,47.381640835899105 8.530201272741136,47.381621562000326 8.530238052904114,47.38160682230412 8.530309167603681,47.381587260603006 8.53038028225099,47.38156769885797 8.530447461389965,47.38154997328337 8.530529076617055,47.38152581465339 8.530597561327458,47.38150717713998 8.530582461860416,47.38148123404844 8.530442862670471,47.381519433380845 8.529929299310997,47.381662810396186 8.529636949830468,47.381743829036004 8.529423622613761,47.38180341209916 8.529360415139548,47.381821099572925</coordinates></LinearRing></outerBoundaryIs></Polygon></Placemark><Placemark id="drawing_feature_1788485923244"><name></name><description>Matteng_SB_CarL1</description><Style><LineStyle><color>ff0000ff</color><width>3</width></LineStyle><PolyStyle><color>660000ff</color></PolyStyle></Style><ExtendedData><Data name="type"><value>linepolygon</value></Data></ExtendedData><Polygon><outerBoundaryIs><LinearRing><coordinates>8.529939251227834,47.38176076303966 8.52997867977234,47.38174599841086 8.530013953712073,47.381787042671746 8.530043802351003,47.38182184160189 8.53007091072166,47.381852168860014 8.530102855103666,47.3818599626591 8.530168014837514,47.381937604450385 8.530211454765642,47.38198936562314 8.530253533822615,47.382039340617254 8.530195678060482,47.382059676510444 8.530091105880881,47.38193293401505 8.529989421828198,47.38181785777864 8.529939251227834,47.38176076303966</coordinates></LinearRing></outerBoundaryIs></Polygon></Placemark><Placemark id="drawing_feature_1788486017401"><name></name><description>LangstrN_SB_CarL1</description><Style><LineStyle><color>ffffffff</color><width>3</width></LineStyle><PolyStyle><color>66ffffff</color></PolyStyle></Style><ExtendedData><Data name="type"><value>linepolygon</value></Data></ExtendedData><Polygon><outerBoundaryIs><LinearRing><coordinates>8.529313228918241,47.3820392265789 8.52934344426471,47.38202724768273 8.529381439755275,47.38207186447764 8.529563399804584,47.382291425931115 8.529517405364617,47.38230895094053 8.529452264532331,47.38223220812736 8.529346369667595,47.38210547746635 8.529324705281834,47.382082294730104 8.529332263457988,47.382063333656106 8.529313228918241,47.3820392265789</coordinates></LinearRing></outerBoundaryIs></Polygon></Placemark><Placemark id="drawing_feature_1788486071389"><name></name><description>LangstrN_NB_CarL1</description><Style><LineStyle><color>ff0000ff</color><width>3</width></LineStyle><PolyStyle><color>660000ff</color></PolyStyle></Style><ExtendedData><Data name="type"><value>linepolygon</value></Data></ExtendedData><Polygon><outerBoundaryIs><LinearRing><coordinates>8.52934344426471,47.38202724768273 8.529378882425958,47.38201162142644 8.529449356157672,47.38209011295052 8.52953614290582,47.38218913913217 8.529608051684514,47.38227301407086 8.529563399804584,47.382291425931115 8.52950399225273,47.382219742249866 8.52943540710548,47.382136984211286 8.52934344426471,47.38202724768273</coordinates></LinearRing></outerBoundaryIs></Polygon></Placemark><Placemark id="drawing_feature_1788486340128"><name></name><description>LangstrS_SB_CarL1</description><Style><LineStyle><color>ffffffff</color><width>3</width></LineStyle><PolyStyle><color>66ffffff</color></PolyStyle></Style><ExtendedData><Data name="type"><value>linepolygon</value></Data></ExtendedData><Polygon><outerBoundaryIs><LinearRing><coordinates>8.529112389236358,47.38188758179568 8.529082357158094,47.381843789258326 8.529049584910583,47.381795525024316 8.529015415016039,47.381743675930565 8.528982606092072,47.38169361300253 8.528951158131557,47.38164533624143 8.52892105272934,47.3815979463116 8.528889568085653,47.381547870858675 8.52885949958778,47.38150227958504 8.52891525425708,47.38148888469414 8.52893318510067,47.38152379637931 8.528951207961711,47.38156320474532 8.528971805459026,47.38159899076737 8.52899369028885,47.38163296561471 8.529008678626212,47.381653512892235 8.529021829491517,47.38167030310049 8.529033156511723,47.38168476472682 8.529051402057087,47.38170724264913 8.529076631932519,47.38173832500416 8.529097458882156,47.38176462875514 8.529097013576498,47.38178338372065 8.529101243518793,47.38179593694003 8.52912846175076,47.381831660439985 8.529161013262682,47.38186913261078 8.529112389236358,47.38188758179568</coordinates></LinearRing></outerBoundaryIs></Polygon></Placemark></Document></kml>