<kml xmlns="http://www.opengis.net/kml/2.2" xmlns:gx="http://www.google.com/kml/ext/2.2" xmlns:xsi="http://www.w3.org/2001/XMLSchema-instance" xsi:schemaLocation="http://www.opengis.net/kml/2.2 https://developers.google.com/kml/schema/kml22gx.xsd"><Document><name>Drawing</name><Placemark id="drawing_feature_1788486610379"><name></name><description>KasernenstrS_NB_CarL1</description><Style><LineStyle><color>ff0000ff</color><width>3</width></LineStyle><PolyStyle><color>660000ff</color></PolyStyle></Style><ExtendedData><Data name="type"><value>linepolygon</value></Data></ExtendedData><Polygon><outerBoundaryIs><LinearRing><coordinates>8.533993966458123,47.3759438556835 8.534128100097679,47.37602713789333 8.534354881931174,47.37617250706311 8.534592478672401,47.376328567339286 8.53463137312892,47.37635248516412 8.534698422415131,47.37639322657583 8.5347335963316,47.37636500792673 8.534689368948545,47.37633934171141 8.534619616319272,47.37629592740493 8.534470677216731,47.376201092546566 8.534370011507999,47.37613548352492 8.53421976782083,47.37604156023435 8.534119139690926,47.375977749665694 8.5340265110126,47.37591656169232 8.533993966458123,47.3759438556835</coordinates></LinearRing></outerBoundaryIs></Polygon></Placemark><Placemark id="drawing_feature_1788486662891"><name></name><description>KasernenstrS_SB_CarL1</description><Style><LineStyle><color>ff0000ff</color><width>3</width></LineStyle><PolyStyle><color>660000ff</color></PolyStyle></Style><ExtendedData><Data name="type"><value>linepolygon</value></Data></ExtendedData><Polygon><outerBoundaryIs><LinearRing><coordinates>8.534561439417027,47.3764934726578 8.534501065450366,47.376455366378806 8.534397732790161,47.37638888316953 8.534282336756876,47.37631531818732 8.534160228774896,47.37623731918256 8.53404483339805,47.37616375395943 8.53391332899321,47.376079547211894 8.53388247124339,47.37606005051225 8.533911191880579,47.37603998891417 8.534023901908698,47.37611178070826 8.534175487901438,47.37620659103277 8.53453114702347,47.3764370907433 8.534590197016644,47.37647520956802 8.534561439417027,47.3764934726578</coordinates></LinearRing></outerBoundaryIs></Polygon></Placemark><Placemark id="drawing_feature_1788486724323"><name></name><description>Lagerstr_EB_CarL1</description><Style><LineStyle><color>ffffffff</color><width>3</width></LineStyle><PolyStyle><color>66ffffff</color></PolyStyle></Style><ExtendedData><Data name="type"><value>linepolygon</value></Data></ExtendedData><Polygon><outerBoundaryIs><LinearRing><coordinates>8.533911914560637,47.37706521476372 8.534039983524837,47.37698214476264 8.534164154075501,47.37690270963559 8.534328831578648,47.376796804294216 8.534514451718254,47.376679006366096 8.534604622770608,47.37662058208 8.534635518095683,47.376641877257704 8.534617222803416,47.37665374450515 8.534582316411969,47.37667495134827 8.534557059450927,47.376690295810654 8.534537483716585,47.37670294992008 8.534469499210012,47.376746896264194 8.534453623955802,47.376756798499024 8.53438484844095,47.376799697353555 8.534359671430291,47.37681540153282 8.534298257684474,47.37685556260922 8.534283861533186,47.37686457924747 8.534208531592599,47.37691176002987 8.534184512960385,47.37692680339421 8.534162750322215,47.37694067564488 8.534090454774631,47.37698675922025 8.534079943424882,47.376993459492105 8.534038148806985,47.377021740711385 8.533992419143216,47.37705185825301 8.533940124924467,47.37708473655708 8.533911914560637,47.37706521476372</coordinates></LinearRing></outerBoundaryIs></Polygon></Placemark><Placemark id="drawing_feature_1788486788667"><name></name><description>Lagerstr_EB_CarL2</description><Style><LineStyle><color>ff0000ff</color><width>3</width></LineStyle><PolyStyle><color>660000ff</color></PolyStyle></Style><ExtendedData><Data name="type"><value>linepolygon</value></Data></ExtendedData><Polygon><outerBoundaryIs><LinearRing><coordinates>8.534663728500457,47.37666139887669 8.534616675520175,47.37669152923098 8.534504255553808,47.3767627577731 8.534384002320454,47.376839457581106 8.534326468078843,47.3768750843094 8.534279451693266,47.3769070131987 8.534254536303546,47.3769189431759 8.534220408461143,47.376933659058736 8.534192845073562,47.376945614136545 8.53414950474669,47.37696311590638 8.534090454774631,47.37698675922025 8.534162750322215,47.37694067564488 8.534208531592599,47.37691176002987 8.534283861533186,47.37686457924747 8.53438484844095,47.376799697353555 8.534453623955802,47.376756798499024 8.534537483716585,47.37670294992008 8.534582316411969,47.37667495134827 8.534635518095683,47.376641877257704 8.534663728500457,47.37666139887669</coordinates></LinearRing></outerBoundaryIs></Polygon></Placemark><Placemark id="drawing_feature_1788486834434"><name></name><description>Lagerstr_WB_CarL1</description><Style><LineStyle><color>ffffffff</color><width>3</width></LineStyle><PolyStyle><color>66ffffff</color></PolyStyle></Style><ExtendedData><Data name="type"><value>linepolygon</value></Data></ExtendedData><Polygon><outerBoundaryIs><LinearRing><coordinates>8.534708067104448,47.376692461122644 8.534683114923336,47.376702592518676 8.534628007075675,47.376727402227445 8.534580109611424,47.37675330591088 8.5345351139384,47.37678225430225 8.534471033906836,47.376821541254905 8.534412249716445,47.37686077793487 8.534297199635446,47.37693293072723 8.534234443233833,47.37697220498889 8.53418608423421,47.377003247059164 8.534128586652558,47.377040672361446 8.534015413343964,47.377112170447376 8.533990590210836,47.37712859705292 8.533959713343059,47.37710820104306 8.534018535105522,47.37707076327094 8.534124391888096,47.377002295999915 8.534183194932291,47.3769639588055 8.534254536303546,47.3769189431759 8.534279451693266,47.3769070131987 8.534316624255633,47.376881769267435 8.534397165289475,47.37683106200514 8.534462436783382,47.3767894306227 8.534541300878386,47.37673928613542 8.534616675520175,47.37669152923098 8.534663728500457,47.37666139887669 8.534708067104448,47.376692461122644</coordinates></LinearRing></outerBoundaryIs></Polygon></Placemark><Placemark id="drawing_feature_1788486936679"><name></name><description>KasernenstrN_SB_CarL2</description><Style><LineStyle><color>ffffffff</color><width>3</width></LineStyle><PolyStyle><color>66ffffff</color></PolyStyle></Style><ExtendedData><Data name="type"><value>linepolygon</value></Data></ExtendedData><Polygon><outerBoundaryIs><LinearRing><coordinates>8.535371378466158,47.377021641290035 8.535322871856483,47.37697839325816 8.535271552981252,47.376932637737816 8.535244444595826,47.37690791830195 8.5351733738376,47.376843110574825 8.535133897733298,47.37680711317047 8.535089355277002,47.37676615838064 8.53503426981721,47.37671619182031 8.53502458318984,47.37670740532492 8.534980077898775,47.376668249166045 8.535014168362272,47.376651734383 8.53518150559299,47.37680396272007 8.535343566341135,47.37695714042413 8.53539886760417,47.37700608858306 8.535371378466158,47.377021641290035</coordinates></LinearRing></outerBoundaryIs></Polygon></Placemark><Placemark id="drawing_feature_1788487069647"><name></name><description>KasernenstrN_SB_CarL1</description><Style><LineStyle><color>ff0000ff</color><width>3</width></LineStyle><PolyStyle><color>660000ff</color></PolyStyle></Style><ExtendedData><Data name="type"><value>linepolygon</value></Data></ExtendedData><Polygon><outerBoundaryIs><LinearRing><coordinates>8.535342602334284,47.377039005234366 8.535294013544934,47.37699449088784 8.535244063843976,47.37694819041483 8.535150951137274,47.37686362059785 8.535053811280543,47.37677639039184 8.534979549371705,47.37670693323058 8.53495251481909,47.376680204426144 8.534980077898775,47.376668249166045 8.53503426981721,47.37671619182031 8.535089355277002,47.37676615838064 8.535133897733298,47.37680711317047 8.5351733738376,47.376843110574825 8.535244444595826,47.37690791830195 8.535322871856483,47.37697839325816 8.535371378466158,47.377021641290035 8.535342602334284,47.377039005234366</coordinates></LinearRing></outerBoundaryIs></Polygon></Placemark><Placemark id="drawing_feature_1788487151825"><name></name><description>Gessnerbr_EB_CarL1</description><Style><LineStyle><color>ff0000ff</color><width>3</width></LineStyle><PolyStyle><color>660000ff</color></PolyStyle></Style><ExtendedData><Data name="type"><value>linepolygon</value></Data></ExtendedData><Polygon><outerBoundaryIs><LinearRing><coordinates>8.535021107783018,47.376409699575724 8.535057920013035,47.37639675699509 8.535123508083881,47.37636645051675 8.535182513230971,47.3763380055157 8.535337205875818,47.37626187739146 8.53545519714023,47.3762040878014 8.535490930221387,47.37618645947521 8.535557448625553,47.37615364365681 8.535573188148584,47.37614629808978 8.535545753640358,47.37611984879415 8.535471778684174,47.37615536906292 8.535359027900688,47.376210410378896 8.535292208707782,47.37624522624809 8.535224009949602,47.376277356634986 8.535163717925645,47.37630761290015 8.535098203953217,47.37634151675092 8.535052290472871,47.37636264134609 8.53502211662316,47.37637642043153 8.534997737824442,47.3763877091396 8.535021107783018,47.376409699575724</coordinates></LinearRing></outerBoundaryIs></Polygon></Placemark></Document></kml>