<kml xmlns="http://www.opengis.net/kml/2.2" xmlns:gx="http://www.google.com/kml/ext/2.2" xmlns:xsi="http://www.w3.org/2001/XMLSchema-instance" xsi:schemaLocation="http://www.opengis.net/kml/2.2 https://developers.google.com/kml/schema/kml22gx.xsd"><Document><name>Drawing</name><Placemark id="drawing_feature_1785215258287"><name></name><description>Gessnerbr_WB</description><Style><LineStyle><color>ffff0000</color><width>3</width></LineStyle></Style><ExtendedData><Data name="type"><value>linepolygon</value></Data></ExtendedData><LineString><coordinates>8.53577225967774,47.37612623059306 8.535710036122927,47.376153891059865 8.535621364757917,47.37619229423346 8.53553282492011,47.37623708943523 8.535445412436415,47.37627947638528 8.535396492294181,47.37630471517103 8.535299746501504,47.3763511864553 8.535220522686066,47.376391097938516 8.535144780097731,47.37642857884341 8.535071341919778,47.37646364027395 8.535013088349418,47.37649296335082</coordinates></LineString></Placemark><Placemark id="drawing_feature_1785215325027"><name></name><description>GessnerallS_SB</description><Style><LineStyle><color>ffff0000</color><width>3</width></LineStyle></Style><ExtendedData><Data name="type"><value>linepolygon</value></Data></ExtendedData><LineString><coordinates>8.535626580583463,47.376022021216485 8.535573777713202,47.375972974007546 8.53550556019782,47.37591847895817 8.535427812526322,47.375858480168795 8.535306907978804,47.3757605308292 8.53519798637204,47.37567285682892 8.535138057176189,47.37562068039821 8.535100981944602,47.37559226215192</coordinates></LineString></Placemark><Placemark id="drawing_feature_1785215381137"><name></name><description>GessnerallS_NB</description><Style><LineStyle><color>ffff0000</color><width>3</width></LineStyle></Style><ExtendedData><Data name="type"><value>linepolygon</value></Data></ExtendedData><LineString><coordinates>8.53516967855865,47.37555564733678 8.535263053728498,47.3756314813826 8.535348075827976,47.37570180043491 8.535462915038897,47.37579101646216 8.53553481101093,47.37585266915061 8.535616253811007,47.37592062451773 8.535653329546106,47.3759490425956 8.535691582142839,47.375977449484914</coordinates></LineString></Placemark><Placemark id="drawing_feature_1785215476344"><name></name><description>Usteristr_WB</description><Style><LineStyle><color>ffff0000</color><width>3</width></LineStyle></Style><ExtendedData><Data name="type"><value>linepolygon</value></Data></ExtendedData><LineString><coordinates>8.536010527918812,47.37603196027929 8.536026049016305,47.37602734005557 8.536160282099058,47.37598738226591 8.53635109549434,47.375936020496695 8.536633311142003,47.37586460955147 8.53674104186629,47.375837212818354 8.536844098025016,47.37581145874451</coordinates></LineString></Placemark><Placemark id="drawing_feature_1785215565894"><name></name><description>GessnerallN_Stop</description><Style><LineStyle><color>ff0000ff</color><width>3</width></LineStyle></Style><ExtendedData><Data name="type"><value>linepolygon</value></Data></ExtendedData><LineString><coordinates>8.536081246857446,47.37620790538905 8.536189127684942,47.37607341875909</coordinates></LineString></Placemark><Placemark id="drawing_feature_1785215586921"><name></name><description>GessnerallS_Stop</description><Style><LineStyle><color>ff0000ff</color><width>3</width></LineStyle></Style><ExtendedData><Data name="type"><value>linepolygon</value></Data></ExtendedData><LineString><coordinates>8.535505689338127,47.3760391526491 8.535739869613575,47.37592514696998</coordinates></LineString></Placemark><Placemark id="drawing_feature_1785215615496"><name></name><description>GessnerallN_Yield</description><Style><LineStyle><color>ff008000</color><width>3</width></LineStyle></Style><ExtendedData><Data name="type"><value>linepolygon</value></Data></ExtendedData><LineString><coordinates>8.535792036631538,47.37611485437679 8.536024330849695,47.37601994390163</coordinates></LineString></Placemark><Placemark id="drawing_feature_1785215668167"><name></name><description>GessnerallS_Yield</description><Style><LineStyle><color>ff008000</color><width>3</width></LineStyle></Style><ExtendedData><Data name="type"><value>linepolygon</value></Data></ExtendedData><LineString><coordinates>8.535575727174134,47.376071355909495 8.535792935746674,47.375986978372815</coordinates></LineString></Placemark><Placemark id="drawing_feature_1785215699314"><name></name><description>Gessnerbr_Stop</description><Style><LineStyle><color>ff0000ff</color><width>3</width></LineStyle></Style><ExtendedData><Data name="type"><value>linepolygon</value></Data></ExtendedData><LineString><coordinates>8.535478087041879,47.37607603817947 8.535648445966695,47.37623185723433</coordinates></LineString></Placemark><Placemark id="drawing_feature_1785215716144"><name></name><description>Gessnerbr_Yield</description><Style><LineStyle><color>ff008000</color><width>3</width></LineStyle></Style><ExtendedData><Data name="type"><value>linepolygon</value></Data></ExtendedData><LineString><coordinates>8.53555752401854,47.376046513702136 8.53572654173688,47.37619435367811</coordinates></LineString></Placemark><Placemark id="drawing_feature_1785215742197"><name></name><description>Usteristr_Stop</description><Style><LineStyle><color>ff0000ff</color><width>3</width></LineStyle></Style><ExtendedData><Data name="type"><value>linepolygon</value></Data></ExtendedData><LineString><coordinates>8.53611880449106,47.37603638743252 8.536024308740453,47.37590622103738</coordinates></LineString></Placemark><Placemark id="drawing_feature_1785215761130"><name></name><description>Usteristr_Yield</description><Style><LineStyle><color>ff008000</color><width>3</width></LineStyle></Style><ExtendedData><Data name="type"><value>linepolygon</value></Data></ExtendedData><LineString><coordinates>8.536036619207518,47.376046758291864 8.535951867736328,47.37593248267358</coordinates></LineString></Placemark><Placemark id="drawing_feature_1785215873823"><name></name><description>Gessner_Usteri_CL</description><Style><LineStyle><color>ff00ffff</color><width>3</width></LineStyle></Style><ExtendedData><Data name="type"><value>linepolygon</value></Data></ExtendedData><LineString><coordinates>8.535120392889175,47.37636953327633 8.5352509073193,47.37630515981661 8.535414062163166,47.37622529201747 8.5355364033368,47.376164192501456 8.53566230781004,47.37610465733033 8.535789388934607,47.37604511091552 8.53583955137474,47.3760230568312 8.53589208397472,47.37600177937002 8.535941168098853,47.37598453051254 8.53600783979279,47.375963917844274 8.536085070569865,47.37594160650127 8.536202996375566,47.37591313333957 8.536294349699581,47.37589068766699 8.536359942946678,47.37587488006994 8.536422021938636,47.37585990502901 8.536549710596953,47.37582992128819 8.536641210638097,47.375808228494776 8.536734917448191,47.37578576009843 8.536806378383341,47.37576909734202 8.536878999842086,47.37575162431107 8.536946799582655,47.375735040846784</coordinates></LineString></Placemark></Document></kml>