<?xml version="1.0" encoding="UTF-8"?>
<kml xmlns="http://www.opengis.net/kml/2.2">
  <Document id="root_doc">
    <Document id="gb3">
      <name>gb3</name>
      <Placemark id="gb3.1">
        <Style>
          <LineStyle>
            <color>ff0000ff</color>
            <width>2</width>
          </LineStyle>
        </Style>
        <LineString>
          <coordinates>
            8.53502116735863,47.3763793582597,0
            8.53509128099755,47.3763440013838,0
            8.53515813478854,47.3763103540236,0
            8.53523560282594,47.3762721295533,0
            8.53530003176929,47.376240743282,0
            8.53536607324107,47.3762076630483,0
            8.53543620944868,47.3761734248196,0
            8.53550225075241,47.3761403445073,0
            8.53555688867664,47.3761135273673,0
          </coordinates>
        </LineString>
      </Placemark>
      <Placemark id="gb3.2">
        <Style>
          <LineStyle>
            <color>ffff0000</color>
            <width>2</width>
          </LineStyle>
        </Style>
        <LineString>
          <coordinates>
            8.53568001968165,47.3771385953167,0
            8.53563231734293,47.3770949723188,0
            8.53558569347929,47.3770520616178,0
            8.53553802103012,47.3770098834126,0
            8.53550439751442,47.3769784101524,0
            8.5354762106049,47.3769526657218,0
            8.53545888198139,47.3769376565491,0
            8.53542850859965,47.3769090426373,0
            8.53538730674631,47.376871138279,0
            8.53533852649779,47.3768268028373,0
            8.53528326114188,47.3767774710385,0
            8.53523448106578,47.3767331355515,0
            8.5351997943822,47.376701672296,0
            8.53516943613654,47.3766737807303,0
            8.53510439135227,47.3766144258714,0
            8.53507077577296,47.3765833136893,0
            8.5350339548154,47.3765515093634,0
          </coordinates>
        </LineString>
      </Placemark>
      <Placemark id="gb3.3">
        <Style>
          <LineStyle>
            <color>ff00ff00</color>
            <width>2</width>
          </LineStyle>
        </Style>
        <LineString>
          <coordinates>
            8.53494159428656,47.3764570083518,0
            8.53497001670247,47.3764425132504,0
            8.53499843910291,47.376428018142,0
            8.53503107561575,47.3764115411551,0
            8.53507530118373,47.3763896252965,0
            8.53510899930704,47.3763730478907,0
            8.53517008871316,47.3763435657054,0
            8.53523432400516,47.3763118859497,0
            8.53531013895702,47.3762743157613,0
            8.53539649973705,47.3762323100478,0
            8.53549337656562,47.3761844239526,0
            8.5355997504757,47.3761328347977,0
            8.53570718768919,47.3760812354436,0
            8.53579043166977,47.3760428718172,0
            8.53584419473322,47.376019239313,0
            8.53590646581099,47.3759955259656,0
            8.53595294782427,47.3759799107083,0
            8.53599733254271,47.3759657604715,0
            8.53605128879919,47.3759515192854,0
            8.5361359825902,47.375931928135,0
            8.53622064656623,47.3759108920892,0
            8.5363222521758,47.375886082202,0
            8.53642387256979,47.3758619946418,0
            8.5365128052194,47.3758416403696,0
            8.53661758619117,47.3758160774817,0
            8.53670651869007,47.3757957230599,0
            8.53678060672802,47.3757776773646,0
            8.53684200710506,47.3757633650356,0
            8.53689278730809,47.3757498762045,0
            8.53694564983177,47.3757341998778,0
            8.53695409830548,47.3757312293168,0
          </coordinates>
        </LineString>
      </Placemark>
    </Document>
  </Document>
</kml>
