<kml xmlns="http://www.opengis.net/kml/2.2" xmlns:gx="http://www.google.com/kml/ext/2.2" xmlns:xsi="http://www.w3.org/2001/XMLSchema-instance" xsi:schemaLocation="http://www.opengis.net/kml/2.2 https://developers.google.com/kml/schema/kml22gx.xsd"><Document><name>Drawing</name><Placemark id="drawing_feature_1787352798333"><name></name><description>Zollstr_WB</description><Style><LineStyle><color>ffff0000</color><width>3</width></LineStyle></Style><ExtendedData><Data name="type"><value>linepolygon</value></Data></ExtendedData><LineString><coordinates>8.532502979818002,47.380925175417985 8.532431872753214,47.38094502813134 8.532349327084464,47.38096678713856 8.53215529012844,47.38101956938127 8.53207978150187,47.38104006291385 8.531937542110954,47.38107856928274 8.531789172563675,47.38111953090055 8.531638166975345,47.38116111661315 8.531426572277883,47.38121885856884 8.531279955173932,47.38125920359813 8.531206199018087,47.38127908060104 8.531181617687995,47.381285905984086 8.531135103280956,47.38129953174546 8.531110534216312,47.38130695637276 8.531076414820452,47.38132226294013 8.531009218400529,47.381360657850045 8.530958707758463,47.38139469943476 8.530939508706226,47.3814056693935 8.530888752354196,47.381427726143755 8.530829070444721,47.3814450724147 8.530802735831944,47.381452513666666 8.530667482583135,47.381487356257864 8.530593130044481,47.38150837756138 8.530522009212048,47.38152762986282 8.530450030118507,47.381548088899706 8.530372766838322,47.38156919722999 8.530306929979707,47.381587800087594 8.530242858599498,47.3816063862254 8.53022094974853,47.381614384871874 8.53017633525773,47.38163458519845 8.530157148230623,47.3816461542583 8.530129182978756,47.381660203698054 8.530092316687572,47.381670741082296 8.530038776533452,47.38168623081463 8.53000718208438,47.38169551964402 8.529949287769606,47.3817065495269 8.529892461722907,47.381712483376454 8.529850200827038,47.381718279623506 8.529810624960533,47.381725849515526 8.529786919943744,47.38173236998482 8.529721082873232,47.38175098200531 8.529644708131658,47.38177239203457 8.529573592940762,47.381791953325255 8.529470883177888,47.38182080800316 8.52941556513173,47.38183572248176</coordinates></LineString></Placemark><Placemark id="drawing_feature_1787353013136"><name></name><description>NeugE_EB</description><Style><LineStyle><color>ffff0000</color><width>3</width></LineStyle></Style><ExtendedData><Data name="type"><value>linepolygon</value></Data></ExtendedData><LineString><coordinates>8.531992403819185,47.381205445174864,0 8.53202025726478,47.381182196915375,0 8.532072569337704,47.3811499358775,0 8.532128326216078,47.38111344668865,0 8.532186694671468,47.38107893985291,0 8.532219807959944,47.38105764891075,0</coordinates></LineString></Placemark><Placemark id="drawing_feature_1787353250733"><name></name><description>ZollstrW_T1_Stop</description><Style><LineStyle><color>ff0000ff</color><width>3</width></LineStyle></Style><ExtendedData><Data name="type"><value>linepolygon</value></Data></ExtendedData><LineString><coordinates>8.53069747314362,47.38151914995768 8.53064835666175,47.38144889010292</coordinates></LineString></Placemark><Placemark id="drawing_feature_1787353281957"><name></name><description>ZollstrE_T1_Yield</description><Style><LineStyle><color>ff008000</color><width>3</width></LineStyle></Style><ExtendedData><Data name="type"><value>linepolygon</value></Data></ExtendedData><LineString><coordinates>8.530842313684815,47.381478223130244 8.530791333372168,47.381403186088214</coordinates></LineString></Placemark><Placemark id="drawing_feature_1787353320082"><name></name><description>AckerstrS_T1_Stop</description><Style><LineStyle><color>ff0000ff</color><width>3</width></LineStyle></Style><ExtendedData><Data name="type"><value>linepolygon</value></Data></ExtendedData><LineString><coordinates>8.530718070694844,47.381533339821544 8.5308496211369,47.381490141197254</coordinates></LineString></Placemark><Placemark id="drawing_feature_1787353351917"><name></name><description>AckerstrS_T1_Yield</description><Style><LineStyle><color>ff008000</color><width>3</width></LineStyle></Style><ExtendedData><Data name="type"><value>linepolygon</value></Data></ExtendedData><LineString><coordinates>8.530678310829156,47.38153191759592 8.530862456866704,47.38147024105734</coordinates></LineString></Placemark><Placemark id="drawing_feature_1787353422362"><name></name><description>AckerstrS_Stop</description><Style><LineStyle><color>ff0000ff</color><width>3</width></LineStyle></Style><ExtendedData><Data name="type"><value>linepolygon</value></Data></ExtendedData><LineString><coordinates>8.530935783775396,47.381774021268754 8.531057243776019,47.38171233772827</coordinates></LineString></Placemark><Placemark id="drawing_feature_1787353447389"><name></name><description>AckerstrN_Stop</description><Style><LineStyle><color>ff0000ff</color><width>3</width></LineStyle></Style><ExtendedData><Data name="type"><value>linepolygon</value></Data></ExtendedData><LineString><coordinates>8.531032521396792,47.381884587012294 8.531167222537286,47.381822778153975</coordinates></LineString></Placemark><Placemark id="drawing_feature_1787353459067"><name></name><description>AckerstrS_Yield</description><Style><LineStyle><color>ff008000</color><width>3</width></LineStyle></Style><ExtendedData><Data name="type"><value>linepolygon</value></Data></ExtendedData><LineString><coordinates>8.53094952840316,47.38179846496591 8.53108567558097,47.38172105923194</coordinates></LineString></Placemark><Placemark id="drawing_feature_1787353480678"><name></name><description>AckerstrN_Yield</description><Style><LineStyle><color>ff008000</color><width>3</width></LineStyle></Style><ExtendedData><Data name="type"><value>linepolygon</value></Data></ExtendedData><LineString><coordinates>8.53099418280472,47.38186636946318 8.531148781603338,47.3817845936972</coordinates></LineString></Placemark><Placemark id="drawing_feature_1787353503081"><name></name><description>NeugW_Stop</description><Style><LineStyle><color>ff0000ff</color><width>3</width></LineStyle></Style><ExtendedData><Data name="type"><value>linepolygon</value></Data></ExtendedData><LineString><coordinates>8.530980292390527,47.38187788857822 8.530914636495247,47.38181917299817</coordinates></LineString></Placemark><Placemark id="drawing_feature_1787353529817"><name></name><description>NeugE_Stop</description><Style><LineStyle><color>ff0000ff</color><width>3</width></LineStyle></Style><ExtendedData><Data name="type"><value>linepolygon</value></Data></ExtendedData><LineString><coordinates>8.531174196795092,47.38177536301904 8.531092381310168,47.38170361450851</coordinates></LineString></Placemark><Placemark id="drawing_feature_1787353554668"><name></name><description>NeugW_Yield</description><Style><LineStyle><color>ff008000</color><width>3</width></LineStyle></Style><ExtendedData><Data name="type"><value>linepolygon</value></Data></ExtendedData><LineString><coordinates>8.531037351084274,47.381861765790916 8.530955302374215,47.38177863161428</coordinates></LineString></Placemark><Placemark id="drawing_feature_1787353577953"><name></name><description>NeugE_Yield</description><Style><LineStyle><color>ff008000</color><width>3</width></LineStyle></Style><ExtendedData><Data name="type"><value>linepolygon</value></Data></ExtendedData><LineString><coordinates>8.531139661146874,47.38181344911817 8.531034157533245,47.381705963145706</coordinates></LineString></Placemark><Placemark id="drawing_feature_1787353662896"><name></name><description>ZollstrE_T2_Yield</description><Style><LineStyle><color>ff008000</color><width>3</width></LineStyle></Style><ExtendedData><Data name="type"><value>linepolygon</value></Data></ExtendedData><LineString><coordinates>8.532357836362587,47.381010536965505 8.532310422094941,47.38093726487886</coordinates></LineString></Placemark><Placemark id="drawing_feature_1787353735312"><name></name><description>ZollstrW_T2_Stop</description><Style><LineStyle><color>ff0000ff</color><width>3</width></LineStyle></Style><ExtendedData><Data name="type"><value>linepolygon</value></Data></ExtendedData><LineString><coordinates>8.5321388246222,47.381050969060524 8.532094181820836,47.380983664247616</coordinates></LineString></Placemark><Placemark id="drawing_feature_1787353940218"><name></name><description>NeugE_T2_Stop</description><Style><LineStyle><color>ff0000ff</color><width>3</width></LineStyle></Style><ExtendedData><Data name="type"><value>linepolygon</value></Data></ExtendedData><LineString><coordinates>8.532169888327946,47.38104998236341 8.532251495140656,47.38111154304656</coordinates></LineString></Placemark><Placemark id="drawing_feature_1787371510380"><name></name><description>Zollstr_Stop</description><Style><LineStyle><color>ff0000ff</color><width>3</width></LineStyle></Style><ExtendedData><Data name="type"><value>linepolygon</value></Data></ExtendedData><LineString><coordinates>8.52946439272353,47.38189193061292 8.52940006120529,47.38178999383148</coordinates></LineString></Placemark><Placemark id="drawing_feature_1787371528245"><name></name><description>Zollstr_Yield</description><Style><LineStyle><color>ff008000</color><width>3</width></LineStyle></Style><ExtendedData><Data name="type"><value>linepolygon</value></Data></ExtendedData><LineString><coordinates>8.529327550308839,47.38193549960668 8.529274620657171,47.38180826882142</coordinates></LineString></Placemark></Document></kml>