<kml xmlns="http://www.opengis.net/kml/2.2" xmlns:gx="http://www.google.com/kml/ext/2.2" xmlns:xsi="http://www.w3.org/2001/XMLSchema-instance" xsi:schemaLocation="http://www.opengis.net/kml/2.2 https://developers.google.com/kml/schema/kml22gx.xsd"><Document><name>Drawing</name><Placemark id="drawing_feature_1788487561491"><name></name><description>Gessnerbr_EB_CarL1</description><Style><LineStyle><color>ff0000ff</color><width>3</width></LineStyle><PolyStyle><color>660000ff</color></PolyStyle></Style><ExtendedData><Data name="type"><value>linepolygon</value></Data></ExtendedData><Polygon><outerBoundaryIs><LinearRing><coordinates>8.535025339825586,47.376408764851725 8.535065891826369,47.37639502470295 8.535124314295313,47.37636775966125 8.535194664430431,47.37633216274721 8.535330912670018,47.376265120362326 8.535480621445943,47.37619075871162 8.535571971285604,47.376146743544034 8.535545692347684,47.37612015958399 8.535498492284802,47.37614309560474 8.53536215071215,47.376210054595425 8.535228438232151,47.37627608894936 8.535161600369653,47.37631000540502 8.535097354861566,47.37634119867579 8.535046237995134,47.376366870222924 8.535023915474872,47.37637607722342 8.53500291691885,47.37638527165358 8.535025339825586,47.376408764851725</coordinates></LinearRing></outerBoundaryIs></Polygon></Placemark><Placemark id="drawing_feature_1788487638915"><name></name><description>GessnerallN_SB_CarL1</description><Style><LineStyle><color>ffffffff</color><width>3</width></LineStyle><PolyStyle><color>66ffffff</color></PolyStyle></Style><ExtendedData><Data name="type"><value>linepolygon</value></Data></ExtendedData><Polygon><outerBoundaryIs><LinearRing><coordinates>8.536536415225525,47.37662470262673 8.536508898291643,47.37657459142526 8.536447152092075,47.37646993522816 8.536419579752826,47.37641712599194 8.536393424052626,47.37636880085158 8.536367361010857,47.37632497238991 8.536349612263963,47.37629905517492 8.536321012483892,47.37626064788709 8.536292616474956,47.376232133299794 8.536234811062645,47.37619019380595 8.536165279593769,47.37615757247705 8.53602673972649,47.37611772274226 8.536003519382486,47.37614762726538 8.536063412632735,47.3761623499962 8.536139397215564,47.376186814457334 8.53620892870677,47.37621943580151 8.536246518361398,47.376244264999755 8.536288394811738,47.37628434517393 8.536319661042594,47.37632362664451 8.53634572404445,47.376367455116984 8.536375944229764,47.3764202392082 8.536395220752823,47.376456036543495 8.53643373682989,47.37652583252919 8.536474938009816,47.37659740200882 8.536496932358357,47.37663655989853 8.536536415225525,47.37662470262673</coordinates></LinearRing></outerBoundaryIs></Polygon></Placemark><Placemark id="drawing_feature_1788487779535"><name></name><description>GessnerallN_SB_CarL2</description><Style><LineStyle><color>ff0000ff</color><width>3</width></LineStyle><PolyStyle><color>660000ff</color></PolyStyle></Style><ExtendedData><Data name="type"><value>linepolygon</value></Data></ExtendedData><Polygon><outerBoundaryIs><LinearRing><coordinates>8.536044548730313,47.376082260894265 8.536120403564563,47.37610043000828 8.536175056490784,47.3761179010079 8.53624322690794,47.37614873623724 8.536318313577802,47.37619389791454 8.53635472747346,47.37622593435558 8.53639149334197,47.37627505818917 8.5364190100106,47.37632516942324 8.53644790627311,47.376377966078515 8.536507078517902,47.3764862447926 8.536581111162425,47.37660877444 8.536536415225525,47.37662470262673 8.536508898291643,47.37657459142526 8.536473425713128,47.37651446753395 8.536447152092075,47.37646993522816 8.536428581910592,47.37643436781579 8.536419579752826,47.37641712599194 8.536393424052626,47.37636880085158 8.536372039704924,47.37633389687119 8.5363579976919,47.376311299814034 8.53633933235367,47.37628525005942 8.536321012483892,47.37626064788709 8.536292616474956,47.376232133299794 8.536234811062645,47.37619019380595 8.536165279593769,47.37615757247705 8.536124566664947,47.376145861796275 8.53602673972649,47.37611772274226 8.536044548730313,47.376082260894265</coordinates></LinearRing></outerBoundaryIs></Polygon></Placemark><Placemark id="drawing_feature_1788487900235"><name></name><description>GessnerallS_SB_CarL1</description><Style><LineStyle><color>ffffffff</color><width>3</width></LineStyle><PolyStyle><color>66ffffff</color></PolyStyle></Style><ExtendedData><Data name="type"><value>linepolygon</value></Data></ExtendedData><Polygon><outerBoundaryIs><LinearRing><coordinates>8.535661418865503,47.375997059927776 8.535627764523577,47.37597039414316 8.535577963562856,47.37593128849842 8.535551481908344,47.375909870945605 8.535524098257492,47.37588772386108 8.535471729290713,47.37584586720451 8.535421774776728,47.37580594025042 8.535412462341798,47.37579823423198 8.535326126900681,47.375726791710875 8.535261658198591,47.375674406567725 8.535221082115658,47.37564143570792 8.535196818532095,47.375621515626385 8.535150549596738,47.37558352938597 8.535116019166521,47.37555518026965 8.535092811650104,47.37553629034343 8.535017705797362,47.37547515726545 8.534962443470668,47.37542800757602 8.534927048323325,47.37544543425249 8.535041489402266,47.37553699792607 8.535116870203876,47.3755965497931 8.535226090126347,47.375691760898135 8.535389045949843,47.37582424126232 8.53553039352255,47.37593623778774 8.535600405550815,47.3759922422705 8.535608663980685,47.37600745556681 8.535615487396102,47.37601728541192 8.535661418865503,47.375997059927776</coordinates></LinearRing></outerBoundaryIs></Polygon></Placemark><Placemark id="drawing_feature_1788487973742"><name></name><description>GessnerallS_SB_CarL2</description><Style><LineStyle><color>ff0000ff</color><width>3</width></LineStyle><PolyStyle><color>660000ff</color></PolyStyle></Style><ExtendedData><Data name="type"><value>linepolygon</value></Data></ExtendedData><Polygon><outerBoundaryIs><LinearRing><coordinates>8.535703304371625,47.37597327479831 8.535675149481488,47.37595645144108 8.53561341434801,47.37591655963678 8.535544744872514,47.375861441925736 8.535488194735132,47.375816103740426 8.535446411787413,47.37578051995694 8.53539122278638,47.37573696782662 8.535319813342161,47.37567737843263 8.535213481717435,47.37559383366592 8.535127250191692,47.37552179167701 8.53505990567742,47.37546666110341 8.534989839412576,47.37540795827117 8.534962443470668,47.37542800757602 8.535017705797362,47.37547515726545 8.535092811650104,47.37553629034343 8.535150549596738,47.37558352938597 8.535196818532095,47.375621515626385 8.535261658198591,47.375674406567725 8.535326126900681,47.375726791710875 8.535412462341798,47.37579823423198 8.535471729290713,47.37584586720451 8.535551481908344,47.375909870945605 8.535627764523577,47.37597039414316 8.535661418865503,47.375997059927776 8.535703304371625,47.37597327479831</coordinates></LinearRing></outerBoundaryIs></Polygon></Placemark><Placemark id="drawing_feature_1788488016506"><name></name><description>Usteristr_EB_CarL1</description><Style><LineStyle><color>ff0000ff</color><width>3</width></LineStyle><PolyStyle><color>660000ff</color></PolyStyle></Style><ExtendedData><Data name="type"><value>linepolygon</value></Data></ExtendedData><Polygon><outerBoundaryIs><LinearRing><coordinates>8.535804351237113,47.37599300388621 8.535871465997895,47.375972577113714 8.53596088437646,47.37594204378628 8.53606753264863,47.37591224621136 8.53624015652126,47.375871027501596 8.53648004263979,47.375816576103375 8.536636815459177,47.375777306467604 8.53683056615063,47.37573318750431 8.536917446855892,47.37570807463046 8.53699239336039,47.375682175653665 8.537022566307014,47.375668396050344 8.537044416767923,47.375700570758625 8.536999735903787,47.37571718685748 8.536930011049792,47.375739438138034 8.536889190800121,47.375750620406855 8.5368312146944,47.375764664304256 8.536750842468983,47.37578431815993 8.536617734213937,47.37581526739753 8.536383144077396,47.37586966875482 8.536217140119263,47.3759108247791 8.536081420350957,47.375943597231156 8.536026128776932,47.37595941424108 8.535973466577717,47.37597430673302 8.535924757720142,47.37598826213402 8.53589451025187,47.37599844410015 8.535835394782596,47.37602149344471 8.535804351237113,47.37599300388621</coordinates></LinearRing></outerBoundaryIs></Polygon></Placemark></Document></kml>