<kml xmlns="http://www.opengis.net/kml/2.2" xmlns:gx="http://www.google.com/kml/ext/2.2" xmlns:xsi="http://www.w3.org/2001/XMLSchema-instance" xsi:schemaLocation="http://www.opengis.net/kml/2.2 https://developers.google.com/kml/schema/kml22gx.xsd"><Document><name>Drawing</name><Placemark id="drawing_feature_1764778353129"><name></name><description>LangstrN_SB</description><Style><LineStyle><color>ffff0000</color><width>3</width></LineStyle></Style><ExtendedData><Data name="type"><value>linepolygon</value></Data></ExtendedData><LineString><coordinates>8.529595381079718,47.38237903719875,0 8.52952849684736,47.38229901074765,0 8.529461387187451,47.38221871429158,0 8.529287653688053,47.382010841496644,0</coordinates></LineString></Placemark><Placemark id="drawing_feature_1764778412310"><name></name><description>LangstrN_NB</description><Style><LineStyle><color>ffff0000</color><width>3</width></LineStyle></Style><ExtendedData><Data name="type"><value>linepolygon</value></Data></ExtendedData><LineString><coordinates>8.529335762835132,47.38198880468396,0 8.52938404763679,47.38204575438781,0 8.529472354664684,47.38214990809781,0 8.529647904224944,47.38235695857818,0</coordinates></LineString></Placemark><Placemark id="drawing_feature_1764778448456"><name></name><description>Zollstr_WB</description><Style><LineStyle><color>ffff0000</color><width>3</width></LineStyle></Style><ExtendedData><Data name="type"><value>linepolygon</value></Data></ExtendedData><LineString><coordinates>8.530685983842663,47.381483845464544,0 8.530249659436011,47.38160487504173,0 8.530218984633427,47.381615956198814,0 8.530183087225256,47.381630683797965,0 8.530127193552392,47.38166058821088,0 8.530077209024087,47.381677247422026,0 8.530011335202895,47.38169405671689,0 8.529905411451763,47.381709587192155,0 8.529819927927415,47.38172319718411,0 8.529427516354936,47.381833045178304,0</coordinates></LineString></Placemark><Placemark id="drawing_feature_1764778599313"><name></name><description>Zollstr_EB</description><Style><LineStyle><color>ffff0000</color><width>3</width></LineStyle></Style><ExtendedData><Data name="type"><value>linepolygon</value></Data></ExtendedData><LineString><coordinates>8.529417953685579,47.38182016381172,0 8.529980720766783,47.3816649695512,0 8.530057984149288,47.38164385603226,0 8.53067596683266,47.3814689521405,0</coordinates></LineString></Placemark><Placemark id="drawing_feature_1764778715474"><name></name><description>LangstrS_NB</description><Style><LineStyle><color>ffff0000</color><width>3</width></LineStyle></Style><ExtendedData><Data name="type"><value>linepolygon</value></Data></ExtendedData><LineString><coordinates>8.528960123648508,47.38145723721267,0 8.529190755567537,47.38176875080699,0</coordinates></LineString></Placemark><Placemark id="drawing_feature_1764778800324"><name></name><description>LangstrS_SB</description><Style><LineStyle><color>ffff0000</color><width>3</width></LineStyle></Style><ExtendedData><Data name="type"><value>linepolygon</value></Data></ExtendedData><LineString><coordinates>8.529089378733643,47.381856838674935,0 8.528847899496174,47.38148981502159,0</coordinates></LineString></Placemark><Placemark id="drawing_feature_1764778839005"><name></name><description>Roentgenstr_EB</description><Style><LineStyle><color>ffff0000</color><width>3</width></LineStyle></Style><ExtendedData><Data name="type"><value>linepolygon</value></Data></ExtendedData><LineString><coordinates>8.528590199114664,47.38214610447945,0 8.528641496496366,47.38210725140785,0 8.528796430216028,47.38204164112471,0 8.528850370773046,47.38202155860556,0 8.528957462090741,47.381981687495156,0 8.528981856253534,47.381972605295296,0 8.529012861089548,47.381961061861354,0</coordinates></LineString></Placemark><Placemark id="drawing_feature_1764778904115"><name></name><description>Roentgenstr_WB</description><Style><LineStyle><color>ffff0000</color><width>3</width></LineStyle></Style><ExtendedData><Data name="type"><value>linepolygon</value></Data></ExtendedData><LineString><coordinates>8.529058763902992,47.38200379385735,0 8.528931735099308,47.38205235464621,0 8.528905395332766,47.38205885558403,0 8.52889132517389,47.3820623282475,0 8.528729317243194,47.38212740587322,0 8.5287005299659,47.3821444639996,0 8.52866665461463,47.382171761900196,0</coordinates></LineString></Placemark><Placemark id="drawing_feature_1776367565638"><name></name><description>Roentgenstr_Stop</description><Style><LineStyle><color>ff0000ff</color><width>3</width></LineStyle></Style><ExtendedData><Data name="type"><value>linepolygon</value></Data></ExtendedData><LineString><coordinates>8.52900255351254,47.38195086303432,0 8.529063537003232,47.382018650234954,0</coordinates></LineString></Placemark><Placemark id="drawing_feature_1776367706580"><name></name><description>Zollstr_Stop</description><Style><LineStyle><color>ff0000ff</color><width>3</width></LineStyle></Style><ExtendedData><Data name="type"><value>linepolygon</value></Data></ExtendedData><LineString><coordinates>8.529451186847433,47.38187016951524,0 8.52941149920073,47.38180757850903,0</coordinates></LineString></Placemark><Placemark id="drawing_feature_1776367853618"><name></name><description>LangstrS_Stop</description><Style><LineStyle><color>ff0000ff</color><width>3</width></LineStyle></Style><ExtendedData><Data name="type"><value>linepolygon</value></Data></ExtendedData><LineString><coordinates>8.52923176912664,47.38175334591206,0 8.529023096740561,47.3818297631102,0</coordinates></LineString></Placemark><Placemark id="drawing_feature_1776367896681"><name></name><description>LangstrN_Stop</description><Style><LineStyle><color>ff0000ff</color><width>3</width></LineStyle></Style><ExtendedData><Data name="type"><value>linepolygon</value></Data></ExtendedData><LineString><coordinates>8.52926238925453,47.382020335538435,0 8.529355060646676,47.381982847130644,0 8.529355060646676,47.381982847130644,0</coordinates></LineString></Placemark><Placemark id="drawing_feature_1776368672973"><name></name><description>Roentgenstr_Yield</description><Style><LineStyle><color>ff008000</color><width>3</width></LineStyle></Style><ExtendedData><Data name="type"><value>linepolygon</value></Data></ExtendedData><LineString><coordinates>8.52914851533672,47.38199234541326,0 8.529067619691483,47.381902795648074,0</coordinates></LineString></Placemark><Placemark id="drawing_feature_1776368726314"><name></name><description>Zollstr_Yield</description><Style><LineStyle><color>ff008000</color><width>3</width></LineStyle></Style><ExtendedData><Data name="type"><value>linepolygon</value></Data></ExtendedData><LineString><coordinates>8.529312148245245,47.38182237851476,0 8.529365946152662,47.38190486125026,0</coordinates></LineString></Placemark><Placemark id="drawing_feature_1776368745128"><name></name><description>LangstrN_Yield</description><Style><LineStyle><color>ff008000</color><width>3</width></LineStyle></Style><ExtendedData><Data name="type"><value>linepolygon</value></Data></ExtendedData><LineString><coordinates>8.529202261980853,47.38198451536182,0 8.529334232638224,47.38193567192833,0</coordinates></LineString></Placemark><Placemark id="drawing_feature_1776368784289"><name></name><description>LangstrS_Yield</description><Style><LineStyle><color>ff008000</color><width>3</width></LineStyle></Style><ExtendedData><Data name="type"><value>linepolygon</value></Data></ExtendedData><LineString><coordinates>8.529045486932175,47.38187493418692,0 8.529273846513679,47.381794669743364,0</coordinates></LineString></Placemark><Placemark id="drawing_feature_1776368970229"><name></name><description>Intersection_Area</description><Style><LineStyle><color>ff00ffff</color><width>3</width></LineStyle><PolyStyle><color>6600ffff</color></PolyStyle></Style><ExtendedData><Data name="type"><value>linepolygon</value></Data></ExtendedData><Polygon><outerBoundaryIs><LinearRing><coordinates>8.52900255351254,47.38195086303432,0 8.529023096740561,47.3818297631102,0 8.52923176912664,47.38175334591206,0 8.52941149920073,47.38180757850903,0 8.529451186847433,47.38187016951524,0 8.529355060646676,47.381982847130644,0 8.52926238925453,47.382020335538435,0 8.529063537003232,47.382018650234954,0 8.52900255351254,47.38195086303432,0</coordinates></LinearRing></outerBoundaryIs></Polygon></Placemark></Document></kml>