<kml xmlns="http://www.opengis.net/kml/2.2" xmlns:gx="http://www.google.com/kml/ext/2.2" xmlns:xsi="http://www.w3.org/2001/XMLSchema-instance" xsi:schemaLocation="http://www.opengis.net/kml/2.2 https://developers.google.com/kml/schema/kml22gx.xsd"><Document><name>Drawing</name><Placemark id="drawing_feature_1779681518243"><name></name><description>KasernenstrS_Stop</description><Style><LineStyle><color>ff0000ff</color><width>3</width></LineStyle></Style><ExtendedData><Data name="type"><value>linepolygon</value></Data></ExtendedData><LineString><coordinates>8.534761557719895,47.376292471512095,0 8.534482370026272,47.37649661125588,0</coordinates></LineString></Placemark><Placemark id="drawing_feature_1779681610692"><name></name><description>KasernenstrN_Stop</description><Style><LineStyle><color>ff0000ff</color><width>3</width></LineStyle></Style><ExtendedData><Data name="type"><value>linepolygon</value></Data></ExtendedData><LineString><coordinates>8.534851771630459,47.37675126646276,0 8.5351608082879,47.37658192350421,0</coordinates></LineString></Placemark><Placemark id="drawing_feature_1779681656116"><name></name><description>Lagerstr_Stop</description><Style><LineStyle><color>ff0000ff</color><width>3</width></LineStyle></Style><ExtendedData><Data name="type"><value>linepolygon</value></Data></ExtendedData><LineString><coordinates>8.534503690421184,47.37656747050098,0 8.534756315523694,47.37674587568845,0</coordinates></LineString></Placemark><Placemark id="drawing_feature_1779681681570"><name></name><description>Gessnerbr_Stop</description><Style><LineStyle><color>ff0000ff</color><width>3</width></LineStyle></Style><ExtendedData><Data name="type"><value>linepolygon</value></Data></ExtendedData><LineString><coordinates>8.535116794425397,47.37650228465482,0 8.534934691167207,47.37634030171775,0</coordinates></LineString></Placemark><Placemark id="drawing_feature_1779681712150"><name></name><description>Lagerstr_Yield</description><Style><LineStyle><color>ff008000</color><width>3</width></LineStyle></Style><ExtendedData><Data name="type"><value>linepolygon</value></Data></ExtendedData><LineString><coordinates>8.534606775669566,47.376557497382514,0 8.534797388206695,47.376682520055624,0</coordinates></LineString></Placemark><Placemark id="drawing_feature_1779681738277"><name></name><description>KasernenstrS_Yield</description><Style><LineStyle><color>ff008000</color><width>3</width></LineStyle></Style><ExtendedData><Data name="type"><value>linepolygon</value></Data></ExtendedData><LineString><coordinates>8.53457023315509,47.376519165032235,0 8.534793322211208,47.37635603550349,0</coordinates></LineString></Placemark><Placemark id="drawing_feature_1779681762271"><name></name><description>KasernenstrN_Yield</description><Style><LineStyle><color>ff008000</color><width>3</width></LineStyle></Style><ExtendedData><Data name="type"><value>linepolygon</value></Data></ExtendedData><LineString><coordinates>8.5348462274711,47.37667486049368,0 8.53511168353656,47.37651132829592,0</coordinates></LineString></Placemark><Placemark id="drawing_feature_1779681798578"><name></name><description>Gessnerbr_Yield</description><Style><LineStyle><color>ff008000</color><width>3</width></LineStyle></Style><ExtendedData><Data name="type"><value>linepolygon</value></Data></ExtendedData><LineString><coordinates>8.53511889544967,47.37654004425019,0 8.534899054938112,47.37634603699618,0</coordinates></LineString></Placemark><Placemark id="drawing_feature_1779681922069"><name></name><description>Gessnerbr_WB</description><Style><LineStyle><color>ffff0000</color><width>3</width></LineStyle></Style><ExtendedData><Data name="type"><value>linepolygon</value></Data></ExtendedData><LineString><coordinates>8.536025601972247,47.37602066678286 8.535928319664487,47.37605515502646 8.535852158901543,47.376086445762034 8.535775127713446,47.376118344062945 8.535710391750634,47.376147128738026 8.535621536874745,47.376190758576406 8.535545487119537,47.37622746127796 8.535469474273546,47.37626596260343 8.535364630064619,47.37631912982044 8.535253202795241,47.37637415846016 8.535175847053873,47.376411772822316 8.535108990486542,47.3764447899089 8.535030366065383,47.37648511475149 8.535004182564187,47.376499755470036</coordinates></LineString></Placemark><Placemark id="drawing_feature_1779682002771"><name></name><description>KasernenstrN_NB</description><Style><LineStyle><color>ffff0000</color><width>3</width></LineStyle></Style><ExtendedData><Data name="type"><value>linepolygon</value></Data></ExtendedData><LineString><coordinates>8.535424359081551,47.37690504509666,0 8.53537843681915,47.37686140497931,0 8.535316219738688,47.376798130262856,0 8.535268918164606,47.37675180465865,0 8.535221598169837,47.376704579697275,0 8.535181138682086,47.37666898325892,0 8.535135272327011,47.37662804105309,0 8.535098840388994,47.37659510489412,0 8.535059668042342,47.376557697170526,0 8.535035392475088,47.376536339274274,0</coordinates></LineString></Placemark><Placemark id="drawing_feature_1779682081709"><name></name><description>KasernenstrN_SB</description><Style><LineStyle><color>ffff0000</color><width>3</width></LineStyle></Style><ExtendedData><Data name="type"><value>linepolygon</value></Data></ExtendedData><LineString><coordinates>8.535636508216976,47.3773042132975,0 8.535567670347065,47.37724100159126,0 8.535521766185756,47.37719826087234,0 8.535471853110385,47.377153759174746,0 8.535421921611933,47.37710835811797,0 8.535378721176777,47.37706829020981,0 8.535331474823211,47.3770246626462,0 8.535281562069546,47.37698016086394,0 8.535235676865968,47.37693831936483,0 8.535187106760302,47.376894704308974,0 8.535138536734179,47.37685108923219,0 8.535091290770048,47.376807461567196,0 8.535046785346317,47.37676830543526,0 8.534979346844498,47.376708678149974,0 8.534946979377002,47.37668020093263,0 8.534922703799062,47.37665884301344,0 8.534886327463292,47.37662860479922,0</coordinates></LineString></Placemark><Placemark id="drawing_feature_1779682165747"><name></name><description>Lagerstr_WB</description><Style><LineStyle><color>ffff0000</color><width>3</width></LineStyle></Style><ExtendedData><Data name="type"><value>linepolygon</value></Data></ExtendedData><LineString><coordinates>8.53400129863444,47.377122737160946,0 8.534087554485753,47.37706704896167,0 8.534146339143087,47.3770278124495,0 8.534201281153313,47.37699490893791,0 8.534256167635343,47.37695930738821,0 8.534314970537286,47.37692097012607,0 8.534368569859852,47.376887179754654,0 8.534427391090873,47.37684974177168,0 8.53448492523765,47.376814114992825,0 8.534548986758448,47.376773928695165,0 8.534592141876418,47.37674743340192,0 8.534637981898502,47.37672271164333,0 8.534668156043812,47.376708932659795,0 8.534706181580566,47.37669058160695,0 8.534753419460037,47.37666944458844,0 8.534791481930625,47.376652892181774,0</coordinates></LineString></Placemark><Placemark id="drawing_feature_1779682229188"><name></name><description>Lagerstr_EB</description><Style><LineStyle><color>ffff0000</color><width>3</width></LineStyle></Style><ExtendedData><Data name="type"><value>linepolygon</value></Data></ExtendedData><LineString><coordinates>8.533912732472007,47.37706600814043,0 8.533971554220967,47.37702857039182,0 8.53405518046067,47.37697380666065,0 8.534114002007668,47.376936368838365,0 8.534174110486173,47.37689711975472,0 8.534226348917628,47.37686154333096,0 8.534286494203354,47.37682409286247,0 8.53434139894055,47.37678939060763,0 8.534398914590561,47.37675286453369,0 8.534457754142004,47.37671632587106,0 8.534513964144935,47.376680711635956,0 8.534551860273076,47.376656065272996,0 8.534613347568412,47.37661950140829,0 8.534670844354812,47.37658207585967,0</coordinates></LineString></Placemark><Placemark id="drawing_feature_1779682297888"><name></name><description>KasernenstrS_NB</description><Style><LineStyle><color>ffff0000</color><width>3</width></LineStyle></Style><ExtendedData><Data name="type"><value>linepolygon</value></Data></ExtendedData><LineString><coordinates>8.534028130114338,47.37591533675982,0 8.534089937993595,47.375958826762165,0 8.5341489501715,47.37599514714326,0 8.534197278295753,47.376027071260616,0 8.534249578370037,47.376058957685544,0 8.534293860769653,47.376087322083976,0 8.53435425265901,47.37612632781307,0 8.534405247447287,47.37615912606247,0 8.53448307296032,47.376208760502344,0 8.534548816474945,47.376250413900145,0 8.534589071808403,47.376276117853834,0 8.534636021002415,47.376305356333894,0 8.534668221634263,47.37632573960579,0 8.534708477082285,47.37635144351719,0 8.534779609315216,47.37639754321771,0</coordinates></LineString></Placemark><Placemark id="drawing_feature_1779682348963"><name></name><description>KasernenstrS_SB</description><Style><LineStyle><color>ffff0000</color><width>3</width></LineStyle></Style><ExtendedData><Data name="type"><value>linepolygon</value></Data></ExtendedData><LineString><coordinates>8.533863953693348,47.37604552381434,0 8.533927067073597,47.37608810201174,0 8.534002225622961,47.37613686254662,0 8.534062580388476,47.376174069752814,0 8.534117602398585,47.376209528475535,0 8.534176670328687,47.376248546851926,0 8.534235719859147,47.376286665860285,0 8.534292066071409,47.37632211194134,0 8.534352439737514,47.37636021833126,0 8.53440744364378,47.376394777576394,0 8.534459781185026,47.37642846257713,0 8.534496027707432,47.37645240556631,0 8.534536301659427,47.3764790088741,0 8.534611442825568,47.37652686966909,0</coordinates></LineString></Placemark><Placemark id="drawing_feature_1779682440714"><name></name><description>Intersection_Area</description><Style><LineStyle><color>ffffffff</color><width>3</width></LineStyle><PolyStyle><color>66ffffff</color></PolyStyle></Style><ExtendedData><Data name="type"><value>linepolygon</value></Data></ExtendedData><Polygon><outerBoundaryIs><LinearRing><coordinates>8.534482370026272,47.37649661125588,0 8.534761557719895,47.376292471512095,0 8.534934691167207,47.37634030171775,0 8.535116794425397,47.37650228465482,0 8.5351608082879,47.37658192350421,0 8.534851771630459,47.37675126646276,0 8.534756315523694,47.37674587568845,0 8.534503690421184,47.37656747050098,0 8.534482370026272,47.37649661125588,0</coordinates></LinearRing></outerBoundaryIs></Polygon></Placemark></Document></kml>