<kml xmlns="http://www.opengis.net/kml/2.2" xmlns:gx="http://www.google.com/kml/ext/2.2" xmlns:xsi="http://www.w3.org/2001/XMLSchema-instance" xsi:schemaLocation="http://www.opengis.net/kml/2.2 https://developers.google.com/kml/schema/kml22gx.xsd"><Document><name>Drawing</name><Placemark id="drawing_feature_1764778353129"><name></name><description>Langstrasse_North_NS</description><Style><LineStyle><color>ffff0000</color><width>3</width></LineStyle></Style><ExtendedData><Data name="type"><value>linepolygon</value></Data></ExtendedData><LineString><coordinates>8.529595330810318,47.382378984061575,0 8.529287603419757,47.38201078835985,0</coordinates></LineString></Placemark><Placemark id="drawing_feature_1764778412310"><name></name><description>Langstrasse_North_SN</description><Style><LineStyle><color>ffff0000</color><width>3</width></LineStyle></Style><ExtendedData><Data name="type"><value>linepolygon</value></Data></ExtendedData><LineString><coordinates>8.529335712566517,47.381988751547304,0 8.529647853955199,47.382356905441064,0</coordinates></LineString></Placemark><Placemark id="drawing_feature_1764778448456"><name></name><description>Zollstrasse_EW</description><Style><LineStyle><color>ffff0000</color><width>3</width></LineStyle></Style><ExtendedData><Data name="type"><value>linepolygon</value></Data></ExtendedData><LineString><coordinates>8.53068593356524,47.38148379233156,0 8.530249609161354,47.38160482190769,0 8.530218934358965,47.381615903064656,0 8.530183036951026,47.38163063066364,0 8.530127143278559,47.38166053507655,0 8.530077158750576,47.38167719428748,0 8.5300112849298,47.381694003582226,0 8.529825077552418,47.38174132586059,0 8.529438783071031,47.3818480908313,0</coordinates></LineString></Placemark><Placemark id="drawing_feature_1764778599313"><name></name><description>Zollstrasse_WE</description><Style><LineStyle><color>ffff0000</color><width>3</width></LineStyle></Style><ExtendedData><Data name="type"><value>linepolygon</value></Data></ExtendedData><LineString><coordinates>8.529417903416162,47.381820110675605,0 8.5299806704938,47.38166491641652,0 8.53005793387583,47.38164380289781,0 8.530675916555266,47.38146889900749,0</coordinates></LineString></Placemark><Placemark id="drawing_feature_1764778715474"><name></name><description>Langstrasse_South_SN</description><Style><LineStyle><color>ffff0000</color><width>3</width></LineStyle></Style><ExtendedData><Data name="type"><value>linepolygon</value></Data></ExtendedData><LineString><coordinates>8.528960073381095,47.38145718407673,0 8.529190705299358,47.38176869767064,0</coordinates></LineString></Placemark><Placemark id="drawing_feature_1764778800324"><name></name><description>Langstrasse_South_NS</description><Style><LineStyle><color>ffff0000</color><width>3</width></LineStyle></Style><ExtendedData><Data name="type"><value>linepolygon</value></Data></ExtendedData><LineString><coordinates>8.52908932846621,47.38185678553818,0 8.528847849229484,47.3814897618854,0</coordinates></LineString></Placemark><Placemark id="drawing_feature_1764778839005"><name></name><description>Roentgenstrasse_WE</description><Style><LineStyle><color>ffff0000</color><width>3</width></LineStyle></Style><ExtendedData><Data name="type"><value>linepolygon</value></Data></ExtendedData><LineString><coordinates>8.528590148850684,47.38214605134114,0 8.528641446232022,47.38210719826975,0 8.528796379950663,47.38204158798699,0 8.529012810822776,47.3819610087242,0</coordinates></LineString></Placemark><Placemark id="drawing_feature_1764778904115"><name></name><description>Roentgenstrasse_EW</description><Style><LineStyle><color>ffff0000</color><width>3</width></LineStyle></Style><ExtendedData><Data name="type"><value>linepolygon</value></Data></ExtendedData><LineString><coordinates>8.529058713636026,47.38200374072013,0 8.528931684833164,47.382052301508715,0 8.528891274908,47.382062275109945,0 8.528729266978385,47.3821273527352,0 8.528700479701277,47.3821444108615,0 8.52866660435026,47.382171708762,0</coordinates></LineString></Placemark></Document></kml>