<kml xmlns="http://www.opengis.net/kml/2.2" xmlns:gx="http://www.google.com/kml/ext/2.2" xmlns:xsi="http://www.w3.org/2001/XMLSchema-instance" xsi:schemaLocation="http://www.opengis.net/kml/2.2 https://developers.google.com/kml/schema/kml22gx.xsd"><Document><name>Drawing</name><Placemark id="drawing_feature_1788392366655"><name></name><description>Bullingerstr_Yield</description><Style><LineStyle><color>ff008000</color><width>3</width></LineStyle></Style><ExtendedData><Data name="type"><value>linepolygon</value></Data></ExtendedData><LineString><coordinates>8.515752738628505,47.379522144851734,0 8.51575563952942,47.379665685927165,0</coordinates></LineString></Placemark><Placemark id="drawing_feature_1788392430213"><name></name><description>Bullingerstr_Stop</description><Style><LineStyle><color>ff0000ff</color><width>3</width></LineStyle></Style><ExtendedData><Data name="type"><value>linepolygon</value></Data></ExtendedData><LineString><coordinates>8.515708590321132,47.379673093919315,0 8.51564051276789,47.37955385620011,0</coordinates></LineString></Placemark><Placemark id="drawing_feature_1788392452815"><name></name><description>SihlfeldstrN_Yield</description><Style><LineStyle><color>ff008000</color><width>3</width></LineStyle></Style><ExtendedData><Data name="type"><value>linepolygon</value></Data></ExtendedData><LineString><coordinates>8.515798938436365,47.37976362460592,0 8.516014224589224,47.37986956671041,0</coordinates></LineString></Placemark><Placemark id="drawing_feature_1788392483566"><name></name><description>SihlfeldstrN_Stop</description><Style><LineStyle><color>ff0000ff</color><width>3</width></LineStyle></Style><ExtendedData><Data name="type"><value>linepolygon</value></Data></ExtendedData><LineString><coordinates>8.515756126809855,47.37989288141,0 8.516005092681802,47.37992540648194,0</coordinates></LineString></Placemark><Placemark id="drawing_feature_1788392499139"><name></name><description>ZypressenstrN_Stop</description><Style><LineStyle><color>ff0000ff</color><width>3</width></LineStyle></Style><ExtendedData><Data name="type"><value>linepolygon</value></Data></ExtendedData><LineString><coordinates>8.516354138397315,47.379832943417966,0 8.516541799846108,47.37977683183778,0</coordinates></LineString></Placemark><Placemark id="drawing_feature_1788392525943"><name></name><description>ZypressenstrN_Yield</description><Style><LineStyle><color>ff008000</color><width>3</width></LineStyle></Style><ExtendedData><Data name="type"><value>linepolygon</value></Data></ExtendedData><LineString><coordinates>8.516301548525682,47.37976931620815,0 8.516486678947617,47.37968953261366,0</coordinates></LineString></Placemark><Placemark id="drawing_feature_1788392545465"><name></name><description>Stauffacherstr_Stop</description><Style><LineStyle><color>ff0000ff</color><width>3</width></LineStyle></Style><ExtendedData><Data name="type"><value>linepolygon</value></Data></ExtendedData><LineString><coordinates>8.51655461187274,47.37970004969668,0 8.516471972954792,47.37957119125959,0</coordinates></LineString></Placemark><Placemark id="drawing_feature_1788392564069"><name></name><description>Stauffacherstr_Yield</description><Style><LineStyle><color>ff008000</color><width>3</width></LineStyle></Style><ExtendedData><Data name="type"><value>linepolygon</value></Data></ExtendedData><LineString><coordinates>8.516491346097693,47.379717366376696,0 8.516353930364176,47.379619683958836,0</coordinates></LineString></Placemark><Placemark id="drawing_feature_1788392594826"><name></name><description>SihlfeldstrS_Stop</description><Style><LineStyle><color>ff0000ff</color><width>3</width></LineStyle></Style><ExtendedData><Data name="type"><value>linepolygon</value></Data></ExtendedData><LineString><coordinates>8.515943029804765,47.379315472252934,0 8.51614704730959,47.37925642103282,0</coordinates></LineString></Placemark><Placemark id="drawing_feature_1788392621472"><name></name><description>SihlfeldstrS_Yield</description><Style><LineStyle><color>ff008000</color><width>3</width></LineStyle></Style><ExtendedData><Data name="type"><value>linepolygon</value></Data></ExtendedData><LineString><coordinates>8.516021479070085,47.379440188540244,0 8.516227520518266,47.37937972444278,0</coordinates></LineString></Placemark><Placemark id="drawing_feature_1788392668775"><name></name><description>ZypressenstrS_Yield</description><Style><LineStyle><color>ff008000</color><width>3</width></LineStyle></Style><ExtendedData><Data name="type"><value>linepolygon</value></Data></ExtendedData><LineString><coordinates>8.515728057502802,47.37954328294938,0 8.515886656316145,47.3794707170051,0</coordinates></LineString></Placemark><Placemark id="drawing_feature_1788392707473"><name></name><description>ZypressenstrS_Stop</description><Style><LineStyle><color>ff0000ff</color><width>3</width></LineStyle></Style><ExtendedData><Data name="type"><value>linepolygon</value></Data></ExtendedData><LineString><coordinates>8.515647247268932,47.37940325596406,0 8.51581250793549,47.379355717584865,0</coordinates></LineString></Placemark><Placemark id="drawing_feature_1788392767587"><name></name><description>Bullingerpl_RA_Rinner</description><Style><LineStyle><color>ff1d00f7</color><width>3</width></LineStyle></Style><ExtendedData><Data name="type"><value>measure</value></Data></ExtendedData><LineString><coordinates>8.516052766967029,47.37963225016241,0 8.516177079618506,47.37955823048558,0</coordinates></LineString></Placemark><Placemark id="drawing_feature_1788392825771"><name></name><description>Bullingerpl_RA_Router</description><Style><LineStyle><color>ff1d00f7</color><width>3</width></LineStyle></Style><ExtendedData><Data name="type"><value>measure</value></Data></ExtendedData><LineString><coordinates>8.516052766967029,47.37963225016241,0 8.515960728425819,47.379468498368674,0</coordinates></LineString></Placemark><Placemark id="drawing_feature_1788392893567"><name></name><description>Bullingerpl_RA_C</description><Style><IconStyle><scale>1.125</scale><Icon><href>https://map.geo.admin.ch/api/icons/sets/default/icons/001-marker@1x-255,255,0.png</href><gx:w>48</gx:w><gx:h>48</gx:h></Icon><hotSpot x="24" y="6" xunits="pixels" yunits="pixels"/></IconStyle><LabelStyle><color>ff0000ff</color><scale>1.5</scale></LabelStyle></Style><ExtendedData><Data name="showDescriptionOnMap"><value>false</value></Data><Data name="textOffset"><value>0,-44.75</value></Data><Data name="type"><value>marker</value></Data></ExtendedData><Point><coordinates>8.51605280332764,47.37963404884119,0</coordinates></Point></Placemark><Placemark id="drawing_feature_1788400456509"><name></name><description>Bullingerpl_RA_Exit_Bullingerstr</description><Style><LineStyle><color>ff00ffff</color><width>3</width></LineStyle></Style><ExtendedData><Data name="type"><value>linepolygon</value></Data></ExtendedData><LineString><coordinates>8.516052766967029,47.37963225016241,0 8.515684802335823,47.37968554092459,0</coordinates></LineString></Placemark><Placemark id="drawing_feature_1788400555882"><name></name><description>Bullingerpl_RA_Entry_Bullingerstr</description><Style><LineStyle><color>ffff0000</color><width>3</width></LineStyle></Style><ExtendedData><Data name="type"><value>linepolygon</value></Data></ExtendedData><LineString><coordinates>8.516052766967029,47.37963225016241,0 8.515733475394265,47.37947280302378,0</coordinates></LineString></Placemark><Placemark id="drawing_feature_1788400685482"><name></name><description>Bullingerpl_RA_Exit_ZypressenstrS</description><Style><LineStyle><color>ff00ffff</color><width>3</width></LineStyle></Style><ExtendedData><Data name="type"><value>linepolygon</value></Data></ExtendedData><LineString><coordinates>8.516052766967029,47.37963225016241,0 8.515684181766005,47.3795892992586,0</coordinates></LineString></Placemark><Placemark id="drawing_feature_1788400741194"><name></name><description>Bullingerpl_RA_Entry_ZypressenstrS</description><Style><LineStyle><color>ffff0000</color><width>3</width></LineStyle></Style><ExtendedData><Data name="type"><value>linepolygon</value></Data></ExtendedData><LineString><coordinates>8.516052766967029,47.37963225016241,0 8.515897239907972,47.3794505873258,0</coordinates></LineString></Placemark><Placemark id="drawing_feature_1788400785794"><name></name><description>Bullingerpl_RA_Exit_SihlfeldstrS</description><Style><LineStyle><color>ff00ffff</color><width>3</width></LineStyle></Style><ExtendedData><Data name="type"><value>linepolygon</value></Data></ExtendedData><LineString><coordinates>8.516052766967029,47.37963225016241,0 8.51600896630476,47.37940906751508,0</coordinates></LineString></Placemark><Placemark id="drawing_feature_1788400820830"><name></name><description>Bullingerpl_RA_Entry_SihlfeldstrS</description><Style><LineStyle><color>ffff0000</color><width>3</width></LineStyle></Style><ExtendedData><Data name="type"><value>linepolygon</value></Data></ExtendedData><LineString><coordinates>8.516052766967029,47.37963225016241,0 8.516287580838549,47.37943435359961,0</coordinates></LineString></Placemark><Placemark id="drawing_feature_1788400852053"><name></name><description>Bullingerpl_RA_Exit_Stauffacherstr</description><Style><LineStyle><color>ff00ffff</color><width>3</width></LineStyle></Style><ExtendedData><Data name="type"><value>linepolygon</value></Data></ExtendedData><LineString><coordinates>8.516052766967029,47.37963225016241,0 8.516380653408671,47.379583703352374,0</coordinates></LineString></Placemark><Placemark id="drawing_feature_1788400911738"><name></name><description>Bullingerpl_RA_Entry_Stauffacherstr</description><Style><LineStyle><color>ffff0000</color><width>3</width></LineStyle></Style><ExtendedData><Data name="type"><value>linepolygon</value></Data></ExtendedData><LineString><coordinates>8.516052766967029,47.37963225016241,0 8.516367405143233,47.3797799199067,0</coordinates></LineString></Placemark><Placemark id="drawing_feature_1788400954366"><name></name><description>Bullingerpl_RA_Exit_ZypressenstrN</description><Style><LineStyle><color>ff00ffff</color><width>3</width></LineStyle></Style><ExtendedData><Data name="type"><value>linepolygon</value></Data></ExtendedData><LineString><coordinates>8.516052766967029,47.37963225016241,0 8.516387601034904,47.3795998296987,0</coordinates></LineString></Placemark><Placemark id="drawing_feature_1788401002413"><name></name><description>Bullingerpl_RA_Entry_ZypressenstrN</description><Style><LineStyle><color>ffff0000</color><width>3</width></LineStyle></Style><ExtendedData><Data name="type"><value>linepolygon</value></Data></ExtendedData><LineString><coordinates>8.516052766967029,47.37963225016241,0 8.516321517639152,47.37980283570778,0</coordinates></LineString></Placemark><Placemark id="drawing_feature_1788401041661"><name></name><description>Bullingerpl_RA_Exit_SihlfeldstrN</description><Style><LineStyle><color>ff00ffff</color><width>3</width></LineStyle></Style><ExtendedData><Data name="type"><value>linepolygon</value></Data></ExtendedData><LineString><coordinates>8.516052766967029,47.37963225016241,0 8.51604352238182,47.37987379136651,0</coordinates></LineString></Placemark><Placemark id="drawing_feature_1788401068943"><name></name><description>Bullingerpl_RA_Entry_SihlfeldstrN</description><Style><LineStyle><color>ffff0000</color><width>3</width></LineStyle></Style><ExtendedData><Data name="type"><value>linepolygon</value></Data></ExtendedData><LineString><coordinates>8.516052766967029,47.37963225016241,0 8.515704956681457,47.379765409310664,0</coordinates></LineString></Placemark></Document></kml>