<kml xmlns="http://www.opengis.net/kml/2.2" xmlns:gx="http://www.google.com/kml/ext/2.2" xmlns:xsi="http://www.w3.org/2001/XMLSchema-instance" xsi:schemaLocation="http://www.opengis.net/kml/2.2 https://developers.google.com/kml/schema/kml22gx.xsd"><Document><name>Drawing</name><Placemark id="drawing_feature_1780025746353"><name></name><description>BaslerstrE_WB</description><Style><LineStyle><color>ffff0000</color><width>3</width></LineStyle></Style><ExtendedData><Data name="type"><value>linepolygon</value></Data></ExtendedData><LineString><coordinates>8.498329745763005,47.385935177400206 8.498306052901455,47.385942590736846 8.498254694502952,47.38595745382887 8.498229695283777,47.38596577863467 8.498182309498983,47.385980605261835 8.498157328137872,47.38598982939234 8.49811128441075,47.386005543187366 8.498081059782532,47.386017513893734 8.49803632235121,47.386032316175815 8.498008692499177,47.38604156455788 8.497965261371569,47.3860554553302 8.497879723270119,47.386083224685564 8.497844237407516,47.386097042571066 8.497806138830306,47.38611268340514 8.4977825351867,47.38612459333627 8.497728581639318,47.386142178492875 8.497640376955607,47.386169072606485 8.497566631431631,47.386190437108404 8.497486300461262,47.38621366092235 8.497446805996656,47.386225716411005 8.497419158074004,47.38623406531093 8.497390185916862,47.38624242633878 8.497330899482638,47.38625826116589 8.497274261466423,47.38627407169611 8.497242640811066,47.386282456953175 8.497191263923856,47.38629642023009 8.497113563222749,47.38631872017895 8.497046402698565,47.38633822500956 8.496980566353963,47.38635771767116 8.496914729961158,47.38637721029515 8.496834416282722,47.38640133299476 8.49677779582399,47.386418042621315 8.496729085001714,47.386432880777456</coordinates></LineString></Placemark><Placemark id="drawing_feature_1780025878032"><name></name><description>BaslerstrE_EB</description><Style><LineStyle><color>ffff0000</color><width>3</width></LineStyle></Style><ExtendedData><Data name="type"><value>linepolygon</value></Data></ExtendedData><LineString><coordinates>8.496684331912046,47.38638021986512 8.496801545457862,47.386346764292256 8.497057016842774,47.38627246397466 8.497323045580133,47.386196267339415 8.497542646487053,47.3861321891508 8.497745450808553,47.38607366153312 8.497841564856403,47.38604489581951 8.497950240108642,47.3860133163463 8.49804635393692,47.38598455046164 8.498150377212227,47.385953912956616 8.498243842389677,47.38592517119348 8.498314956723068,47.385904729888054</coordinates></LineString></Placemark><Placemark id="drawing_feature_1780025961459"><name></name><description>BaslerstrE_Stop</description><Style><LineStyle><color>ff0000ff</color><width>3</width></LineStyle></Style><ExtendedData><Data name="type"><value>linepolygon</value></Data></ExtendedData><LineString><coordinates>8.4967797293294,47.38649307070782 8.49665821236551,47.386309785180856</coordinates></LineString></Placemark><Placemark id="drawing_feature_1780025988733"><name></name><description>BaslerstrE_Yield</description><Style><LineStyle><color>ff008000</color><width>3</width></LineStyle></Style><ExtendedData><Data name="type"><value>linepolygon</value></Data></ExtendedData><LineString><coordinates>8.496742594408909,47.386557275576834 8.496577845111458,47.38633120968074</coordinates></LineString></Placemark><Placemark id="drawing_feature_1780026012104"><name></name><description>FlurstrS_Stop</description><Style><LineStyle><color>ff0000ff</color><width>3</width></LineStyle></Style><ExtendedData><Data name="type"><value>linepolygon</value></Data></ExtendedData><LineString><coordinates>8.496270574954353,47.38631840832953 8.496528137670246,47.38622912134748</coordinates></LineString></Placemark><Placemark id="drawing_feature_1780026043059"><name></name><description>FlurstrS_Yield</description><Style><LineStyle><color>ff008000</color><width>3</width></LineStyle></Style><ExtendedData><Data name="type"><value>linepolygon</value></Data></ExtendedData><LineString><coordinates>8.496389351854305,47.38644357444965 8.49663270981562,47.38635949143313</coordinates></LineString></Placemark><Placemark id="drawing_feature_1780026076314"><name></name><description>FlurstrN_Stop</description><Style><LineStyle><color>ff0000ff</color><width>3</width></LineStyle></Style><ExtendedData><Data name="type"><value>linepolygon</value></Data></ExtendedData><LineString><coordinates>8.49651229954988,47.386632244170805 8.496785990550283,47.38654158658558</coordinates></LineString></Placemark><Placemark id="drawing_feature_1780026091471"><name></name><description>FlurstrN_Yield</description><Style><LineStyle><color>ff008000</color><width>3</width></LineStyle></Style><ExtendedData><Data name="type"><value>linepolygon</value></Data></ExtendedData><LineString><coordinates>8.496427051871377,47.3865412752451 8.496716579755038,47.38644777431723</coordinates></LineString></Placemark><Placemark id="drawing_feature_1780026111479"><name></name><description>BaslerstrW_Stop</description><Style><LineStyle><color>ff0000ff</color><width>3</width></LineStyle></Style><ExtendedData><Data name="type"><value>linepolygon</value></Data></ExtendedData><LineString><coordinates>8.496423793217325,47.386577285238026 8.496298090408937,47.386383243619655</coordinates></LineString></Placemark><Placemark id="drawing_feature_1780026139680"><name></name><description>BaslerstrW_Yield</description><Style><LineStyle><color>ff008000</color><width>3</width></LineStyle></Style><ExtendedData><Data name="type"><value>linepolygon</value></Data></ExtendedData><LineString><coordinates>8.496507166423834,47.38657382340915 8.496376095000743,47.38637623301064</coordinates></LineString></Placemark><Placemark id="drawing_feature_1780026244293"><name></name><description>Intersection_Area</description><Style><LineStyle><color>ffffffff</color><width>3</width></LineStyle><PolyStyle><color>66ffffff</color></PolyStyle></Style><ExtendedData><Data name="type"><value>linepolygon</value></Data></ExtendedData><Polygon><outerBoundaryIs><LinearRing><coordinates>8.496423793217325,47.386577285238026 8.49651229954988,47.386632244170805 8.496785990550283,47.38654158658558 8.4967797293294,47.38649307070782 8.49665821236551,47.386309785180856 8.496528137670246,47.38622912134748 8.496270574954353,47.38631840832953 8.496298090408937,47.386383243619655 8.496423793217325,47.386577285238026</coordinates></LinearRing></outerBoundaryIs></Polygon></Placemark></Document></kml>