<kml xmlns="http://www.opengis.net/kml/2.2" xmlns:gx="http://www.google.com/kml/ext/2.2" xmlns:xsi="http://www.w3.org/2001/XMLSchema-instance" xsi:schemaLocation="http://www.opengis.net/kml/2.2 https://developers.google.com/kml/schema/kml22gx.xsd"><Document><name>Drawing</name><Placemark id="drawing_feature_1780025746353"><name></name><description>BaslerstrE_WB</description><Style><LineStyle><color>ffff0000</color><width>3</width></LineStyle></Style><ExtendedData><Data name="type"><value>linepolygon</value></Data></ExtendedData><LineString><coordinates>8.498329754109726,47.385935186266934,0 8.49830606124815,47.38594259960356,0 8.498254702849586,47.3859574626956,0 8.498229703630386,47.38596578750147,0 8.498182317845544,47.38598061412862,0 8.49815733648441,47.385989838259135,0 8.49811129275723,47.3860055520542,0 8.498081068128984,47.386017522760596,0 8.49803633069761,47.38603232504271,0 8.49800870084555,47.38604157342472,0 8.497965269717891,47.386055464197085,0 8.497879731616356,47.38608323355248,0 8.497844245753715,47.386097051438014,0 8.497806147176457,47.38611269227209,0 8.497782543532825,47.38612460220321,0 8.497728589985385,47.386142187359845,0 8.497640385301581,47.38616908147353,0 8.497566639777528,47.386190445975465,0 8.497486308807071,47.386213669789434,0 8.497446814342428,47.38622572527813,0 8.497419166419743,47.38623407417805,0 8.497390194262568,47.386242435205915,0 8.497330907828282,47.38625827003303,0 8.49727426981201,47.386274080563275,0 8.497242649156618,47.386282465820365,0 8.49719127226935,47.38629642909729,0 8.497113571568162,47.38631872904621,0 8.497046411043907,47.386338233876835,0 8.496980574699238,47.386357726538435,0 8.496914738306357,47.386377219162455,0 8.49683442462784,47.386401341862104,0 8.496777804169044,47.38641805148868,0 8.49672909334672,47.38643288964486,0</coordinates></LineString></Placemark><Placemark id="drawing_feature_1780025878032"><name></name><description>BaslerstrE_EB</description><Style><LineStyle><color>ffff0000</color><width>3</width></LineStyle></Style><ExtendedData><Data name="type"><value>linepolygon</value></Data></ExtendedData><LineString><coordinates>8.496684340257024,47.386380228732484,0 8.49680155380296,47.38634677315961,0 8.497057025188154,47.386272472841895,0 8.49732305392579,47.38619627620653,0 8.497542654832944,47.38613219801783,0 8.49774545915466,47.386073670400094,0 8.497841573202612,47.3860449046864,0 8.497950248454968,47.386013325213185,0 8.498046362283345,47.38598455932848,0 8.498150385558764,47.38595392182343,0 8.498243850736314,47.385925180060184,0 8.49831496506978,47.38590473875477,0</coordinates></LineString></Placemark><Placemark id="drawing_feature_1780025961459"><name></name><description>BaslerstrE_Stop</description><Style><LineStyle><color>ff0000ff</color><width>3</width></LineStyle></Style><ExtendedData><Data name="type"><value>linepolygon</value></Data></ExtendedData><LineString><coordinates>8.496779737674435,47.38649307957519,0 8.496658220710486,47.38630979404824,0</coordinates></LineString></Placemark><Placemark id="drawing_feature_1780025988733"><name></name><description>BaslerstrE_Yield</description><Style><LineStyle><color>ff008000</color><width>3</width></LineStyle></Style><ExtendedData><Data name="type"><value>linepolygon</value></Data></ExtendedData><LineString><coordinates>8.496742602753889,47.38655728444429,0 8.49657785345635,47.38633121854814,0</coordinates></LineString></Placemark><Placemark id="drawing_feature_1780026012104"><name></name><description>FlurstrS_Stop</description><Style><LineStyle><color>ff0000ff</color><width>3</width></LineStyle></Style><ExtendedData><Data name="type"><value>linepolygon</value></Data></ExtendedData><LineString><coordinates>8.496270583298946,47.38631841719702,0 8.496528146015121,47.38622913021487,0</coordinates></LineString></Placemark><Placemark id="drawing_feature_1780026043059"><name></name><description>FlurstrS_Yield</description><Style><LineStyle><color>ff008000</color><width>3</width></LineStyle></Style><ExtendedData><Data name="type"><value>linepolygon</value></Data></ExtendedData><LineString><coordinates>8.496389360198972,47.38644358331718,0 8.496632718160553,47.38635950030051,0</coordinates></LineString></Placemark><Placemark id="drawing_feature_1780026076314"><name></name><description>FlurstrN_Stop</description><Style><LineStyle><color>ff0000ff</color><width>3</width></LineStyle></Style><ExtendedData><Data name="type"><value>linepolygon</value></Data></ExtendedData><LineString><coordinates>8.49651230789461,47.38663225303835,0 8.49678599889531,47.386541595453004,0</coordinates></LineString></Placemark><Placemark id="drawing_feature_1780026091471"><name></name><description>FlurstrN_Yield</description><Style><LineStyle><color>ff008000</color><width>3</width></LineStyle></Style><ExtendedData><Data name="type"><value>linepolygon</value></Data></ExtendedData><LineString><coordinates>8.496427060216057,47.386541284112624,0 8.496716588100025,47.38644778318465,0</coordinates></LineString></Placemark><Placemark id="drawing_feature_1780026111479"><name></name><description>BaslerstrW_Stop</description><Style><LineStyle><color>ff0000ff</color><width>3</width></LineStyle></Style><ExtendedData><Data name="type"><value>linepolygon</value></Data></ExtendedData><LineString><coordinates>8.496423801561987,47.38657729410558,0 8.496298098753538,47.38638325248715,0</coordinates></LineString></Placemark><Placemark id="drawing_feature_1780026139680"><name></name><description>BaslerstrW_Yield</description><Style><LineStyle><color>ff008000</color><width>3</width></LineStyle></Style><ExtendedData><Data name="type"><value>linepolygon</value></Data></ExtendedData><LineString><coordinates>8.496507174768578,47.38657383227669,0 8.496376103345423,47.3863762418781,0</coordinates></LineString></Placemark><Placemark id="drawing_feature_1780026244293"><name></name><description>Intersection_Area</description><Style><LineStyle><color>ffffffff</color><width>3</width></LineStyle><PolyStyle><color>66ffffff</color></PolyStyle></Style><ExtendedData><Data name="type"><value>linepolygon</value></Data></ExtendedData><Polygon><outerBoundaryIs><LinearRing><coordinates>8.496423801561987,47.38657729410558,0 8.49651230789461,47.38663225303835,0 8.49678599889531,47.386541595453004,0 8.496779737674435,47.38649307957519,0 8.496658220710486,47.38630979404824,0 8.496528146015121,47.38622913021487,0 8.496270583298946,47.38631841719702,0 8.496298098753538,47.38638325248715,0 8.496423801561987,47.38657729410558,0</coordinates></LinearRing></outerBoundaryIs></Polygon></Placemark><Placemark id="drawing_feature_1784009444962"><name></name><description>BaslerstrW_WB</description><Style><LineStyle><color>ffff0000</color><width>3</width></LineStyle></Style><ExtendedData><Data name="type"><value>linepolygon</value></Data></ExtendedData><LineString><coordinates>8.495237393981725,47.38683833770144 8.495307186448276,47.386817910364215 8.49538225798796,47.386796535198144 8.495450743939404,47.38677701922603 8.495519212004684,47.38675660387253 8.495594265535605,47.38673432922755 8.495669319003726,47.38671205453361 8.495744372409048,47.386689779790764 8.495815488723165,47.38666934002967 8.495893154795127,47.386645242275556 8.495969532248244,47.386622955268514 8.496028783804386,47.38660532246099 8.496093314414516,47.38658674180389 8.496155214357833,47.386569084691935 8.496223699733399,47.386549568260016 8.496284275356981,47.38653192319982 8.496340896091699,47.38651521381586 8.496390931329945,47.386500363700826</coordinates></LineString></Placemark><Placemark id="drawing_feature_1784009533295"><name></name><description>BaslerstrW_EB</description><Style><LineStyle><color>ffff0000</color><width>3</width></LineStyle></Style><ExtendedData><Data name="type"><value>linepolygon</value></Data></ExtendedData><LineString><coordinates>8.495226318614666,47.38681415238139 8.495298741701546,47.38679280148898 8.495368534084871,47.38677237411442 8.49545015539117,47.38674734098431 8.49552783957834,47.38672414281718 8.495592370507294,47.38670556244075 8.495662162663622,47.38668513488812 8.495720090153975,47.38666751435404 8.49580700807878,47.386642432509284 8.49587680007001,47.38662200482647 8.495954483888427,47.38659880637139 8.496032167639155,47.386575607863925 8.496105932158097,47.38655514368528 8.496183615779136,47.38653194507557 8.49625208324828,47.386511529285904 8.49631004605298,47.38649570713611 8.496374576432114,47.386477126321175</coordinates></LineString></Placemark></Document></kml>