<kml xmlns="http://www.opengis.net/kml/2.2" xmlns:gx="http://www.google.com/kml/ext/2.2" xmlns:xsi="http://www.w3.org/2001/XMLSchema-instance" xsi:schemaLocation="http://www.opengis.net/kml/2.2 https://developers.google.com/kml/schema/kml22gx.xsd"><Document><name>Drawing</name><Placemark id="drawing_feature_1786402407623"><name></name><description>FlurstrS_NB_CarL1</description><Style><LineStyle><color>ffffffff</color><width>3</width></LineStyle><PolyStyle><color>66ffffff</color></PolyStyle></Style><ExtendedData><Data name="type"><value>linepolygon</value></Data></ExtendedData><Polygon><outerBoundaryIs><LinearRing><coordinates>8.496410682772893,47.38625353952563 8.4961865992924,47.38597404601648 8.496087379396794,47.38584632505535 8.49604931617207,47.385863763992525 8.496201429888544,47.38605396613514 8.496240950621397,47.386103458332016 8.496370203095443,47.38626368663833 8.496430364584326,47.38634279868416 8.496476391247198,47.38632618622048 8.496410682772893,47.38625353952563</coordinates></LinearRing></outerBoundaryIs></Polygon></Placemark><Placemark id="drawing_feature_1786402510036"><name></name><description>FlurstrS_SB_CarL1</description><Style><LineStyle><color>ff0000ff</color><width>3</width></LineStyle><PolyStyle><color>660000ff</color></PolyStyle></Style><ExtendedData><Data name="type"><value>linepolygon</value></Data></ExtendedData><Polygon><outerBoundaryIs><LinearRing><coordinates>8.49604931617207,47.385863763992525 8.496240950621397,47.386103458332016 8.496370203095443,47.38626368663833 8.496430364584326,47.38634279868416 8.496386932799247,47.386356688861476 8.496274844197155,47.38621610437374 8.496141590077318,47.38604192078959 8.49601118154654,47.38587760555382 8.49604931617207,47.385863763992525</coordinates></LinearRing></outerBoundaryIs></Polygon></Placemark><Placemark id="drawing_feature_1786402599240"><name></name><description>BaslerstrE_WB_CarL1</description><Style><LineStyle><color>ff0000ff</color><width>3</width></LineStyle><PolyStyle><color>660000ff</color></PolyStyle></Style><ExtendedData><Data name="type"><value>linepolygon</value></Data></ExtendedData><Polygon><outerBoundaryIs><LinearRing><coordinates>8.498300968337517,47.38591514092916 8.498224592875607,47.38593742948336 8.49815222576592,47.38596148023803 8.498082560666381,47.385988204683656 8.498010229179084,47.386014054029864 8.497965527485027,47.386030654965445 8.49787601676014,47.3860584607416 8.497741661131192,47.38609567257283 8.497346574200574,47.38620903300297 8.4970792390683,47.38628614116359 8.496764498771556,47.38637717540631 8.496715770126919,47.38639111421651 8.496741680462703,47.38642865610797 8.496883893714205,47.38638687596947 8.497037953352784,47.38634138911931 8.497184138820609,47.38629957221836 8.497331648285028,47.386257742997856 8.497446248440403,47.3862261097179 8.497494976742805,47.3862121705987 8.497516057126502,47.38620658038211 8.497538443860666,47.38620007868492 8.497564767522425,47.38619174189291 8.497587154244403,47.386185240186244 8.497637188824982,47.38617038952955 8.497675180260122,47.3861493527086 8.497748907810243,47.38612708879663 8.497772761695664,47.38612776963901 8.49787127401431,47.38608638885652 8.498034494215434,47.38603541964887 8.498093655037986,47.386013289076224 8.498172553938739,47.38598468093905 8.498240984178217,47.38596246528561 8.4983190052678,47.385940504543264 8.498300968337517,47.38591514092916</coordinates></LinearRing></outerBoundaryIs></Polygon></Placemark><Placemark id="drawing_feature_1786402895873"><name></name><description>BaslerstrW_EB_CarL1</description><Style><LineStyle><color>ff0000ff</color><width>3</width></LineStyle><PolyStyle><color>660000ff</color></PolyStyle></Style><ExtendedData><Data name="type"><value>linepolygon</value></Data></ExtendedData><Polygon><outerBoundaryIs><LinearRing><coordinates>8.495119568372324,47.3868736825617 8.495261784085287,47.38683190442692 8.49540136892925,47.386791049680596 8.495543602036756,47.38675017053835 8.495691078360627,47.386706544738374 8.495845122101723,47.386660160143755 8.49599524640013,47.386616509720426 8.496279674854874,47.38653295111137 8.496370529293884,47.38650603379466 8.496355462935293,47.386480985608344 8.496255392447532,47.386510685786185 8.496113178372138,47.386552465148945 8.495970981917111,47.38659514367659 8.495749794907228,47.386661931855166 8.495533815114864,47.38672417445251 8.495385032207642,47.38676871150353 8.495249384468124,47.3868077312192 8.49510453815608,47.38685043289631 8.495119568372324,47.3868736825617</coordinates></LinearRing></outerBoundaryIs></Polygon></Placemark><Placemark id="drawing_feature_1786402974160"><name></name><description>FlurstrN_SB_CarL1</description><Style><LineStyle><color>ff0000ff</color><width>3</width></LineStyle><PolyStyle><color>660000ff</color></PolyStyle></Style><ExtendedData><Data name="type"><value>linepolygon</value></Data></ExtendedData><Polygon><outerBoundaryIs><LinearRing><coordinates>8.496622469715609,47.3865873809775 8.496653766298515,47.386629371085924 8.496690449155915,47.38667580938191 8.496724465745187,47.38672137257894 8.496761166584568,47.3867687101916 8.496806027223029,47.386826767110364 8.496846700932537,47.38687406831073 8.496887303277845,47.38691777213447 8.496929283513133,47.38696416183526 8.496972588066587,47.38701053939036 8.497009217880985,47.387054279558555 8.497047261312133,47.38710250428552 8.497084911503,47.38715135653242 8.49711892873363,47.38719691960646 8.497078144931521,47.387210785777306 8.497025141704789,47.38714290901018 8.496963871645132,47.38705891686932 8.49695181054706,47.387051831312725 8.496933342542004,47.38705559848561 8.496846412053683,47.38694665520337 8.496760841875766,47.38683949840549 8.49664662385612,47.38669032718744 8.496581275086106,47.38660097516659 8.496622469715609,47.3865873809775</coordinates></LinearRing></outerBoundaryIs></Polygon></Placemark><Placemark id="drawing_feature_1786403063773"><name></name><description>FlurstrN_NB_CarL1</description><Style><LineStyle><color>ffffffff</color><width>3</width></LineStyle><PolyStyle><color>66ffffff</color></PolyStyle></Style><ExtendedData><Data name="type"><value>linepolygon</value></Data></ExtendedData><Polygon><outerBoundaryIs><LinearRing><coordinates>8.49666677898592,47.38657140809658 8.4966749743667,47.38658392610619 8.496701619758973,47.38659177764119 8.49675730621101,47.386661428994934 8.496889132499984,47.386830227921216 8.496954357046219,47.38691328437876 8.496967938821284,47.386930250549874 8.49716635162474,47.38718389210178 8.49711892873363,47.38719691960646 8.497009217880985,47.387054279558555 8.496972588066587,47.38701053939036 8.496929283513133,47.38696416183526 8.496887303277845,47.38691777213447 8.496846700932537,47.38687406831073 8.496806027223029,47.386826767110364 8.496761166584568,47.3867687101916 8.496690449155915,47.38667580938191 8.496653766298515,47.386629371085924 8.496622469715609,47.3865873809775 8.49666677898592,47.38657140809658</coordinates></LinearRing></outerBoundaryIs></Polygon></Placemark></Document></kml>