<kml xmlns="http://www.opengis.net/kml/2.2" xmlns:gx="http://www.google.com/kml/ext/2.2" xmlns:xsi="http://www.w3.org/2001/XMLSchema-instance" xsi:schemaLocation="http://www.opengis.net/kml/2.2 https://developers.google.com/kml/schema/kml22gx.xsd"><Document><name>Drawing</name><Placemark id="drawing_feature_1786407633268"><name></name><description>BaslerstrW_WB_CarL1</description><Style><LineStyle><color>ffffffff</color><width>3</width></LineStyle><PolyStyle><color>66ffffff</color></PolyStyle></Style><ExtendedData><Data name="type"><value>linepolygon</value></Data></ExtendedData><Polygon><outerBoundaryIs><LinearRing><coordinates>8.498227967107233,47.38593671383822 8.498301262904649,47.38591511054133 8.49844573611681,47.38587391667462 8.498664606866358,47.38581011226758 8.498883457265208,47.38574531090743 8.499167960004181,47.38566096886343 8.499535662813416,47.385553934360615 8.49981580122363,47.38547162420867 8.500250275575064,47.38534503644194 8.500619381764949,47.38523499538448 8.500655846148366,47.38522369629888 8.500666494667042,47.38524253608434 8.5006841421491,47.38524436730509 8.500701670472349,47.38524021930264 8.500715253638557,47.3852590321074 8.500665642992585,47.38527344221111 8.500579548026247,47.38529815482952 8.500529897593477,47.38531057180123 8.500500650565185,47.38531582419894 8.500443603952027,47.38532531895052 8.500420206316564,47.38532952085175 8.500357389677166,47.38534405218235 8.500335499049605,47.385350233656226 8.500271294453569,47.38536876457037 8.500198325608084,47.385389369412614 8.50012390923706,47.38541098422613 8.499983820691238,47.38545114322506 8.499769354961993,47.38551490971143 8.499547571942035,47.38557973970223 8.499401672727856,47.38562294149671 8.499260135587333,47.38566410962331 8.49911423590875,47.385707311053395 8.49889389879202,47.38577112977995 8.498677963138267,47.385834907697806 8.498389036878432,47.38591829236898 8.498244583316298,47.38596048270113 8.498227967107233,47.38593671383822</coordinates></LinearRing></outerBoundaryIs></Polygon></Placemark><Placemark id="drawing_feature_1786407882734"><name></name><description>FreihofstrN_NB_CarL1</description><Style><LineStyle><color>ffffffff</color><width>3</width></LineStyle><PolyStyle><color>66ffffff</color></PolyStyle></Style><ExtendedData><Data name="type"><value>linepolygon</value></Data></ExtendedData><Polygon><outerBoundaryIs><LinearRing><coordinates>8.501283672619627,47.385560827481875 8.501184683485157,47.385454092191075 8.501099218474268,47.38536317996082 8.501010719797652,47.3852673119654 8.501060171410801,47.385244929419926 8.501072287390816,47.38526375567523 8.501196756805824,47.38539716815609 8.50132880191334,47.385542471455864 8.501283672619627,47.385560827481875</coordinates></LinearRing></outerBoundaryIs></Polygon></Placemark><Placemark id="drawing_feature_1786407927502"><name></name><description>FreihofstrN_SB_CarL1</description><Style><LineStyle><color>ff0000ff</color><width>3</width></LineStyle><PolyStyle><color>660000ff</color></PolyStyle></Style><ExtendedData><Data name="type"><value>linepolygon</value></Data></ExtendedData><Polygon><outerBoundaryIs><LinearRing><coordinates>8.501231246421394,47.38558124403741 8.501126248998462,47.38546758692011 8.501016869940063,47.385354966716285 8.50096896228722,47.38530756469276 8.500949549489262,47.38529079895657 8.501010719797652,47.3852673119654 8.501099218474268,47.38536317996082 8.501184683485157,47.385454092191075 8.501283672619627,47.385560827481875 8.501231246421394,47.38558124403741</coordinates></LinearRing></outerBoundaryIs></Polygon></Placemark><Placemark id="drawing_feature_1786407976158"><name></name><description>FreihofstrS_NB_CarL1</description><Style><LineStyle><color>ffffffff</color><width>3</width></LineStyle><PolyStyle><color>66ffffff</color></PolyStyle></Style><ExtendedData><Data name="type"><value>linepolygon</value></Data></ExtendedData><Polygon><outerBoundaryIs><LinearRing><coordinates>8.500664994655653,47.3848745158557 8.50067990128429,47.3848914694286 8.500720487340285,47.38493427259054 8.500784086631962,47.38500205032 8.500812540001382,47.38503417092493 8.500848006459991,47.385019452782345 8.500700443125893,47.38485889841731 8.500664994655653,47.3848745158557</coordinates></LinearRing></outerBoundaryIs></Polygon></Placemark><Placemark id="drawing_feature_1786408026904"><name></name><description>FreihofstrS_SB_CarL1</description><Style><LineStyle><color>ff0000ff</color><width>3</width></LineStyle><PolyStyle><color>660000ff</color></PolyStyle></Style><ExtendedData><Data name="type"><value>linepolygon</value></Data></ExtendedData><Polygon><outerBoundaryIs><LinearRing><coordinates>8.500745507917964,47.38505997329705 8.500718325000506,47.38502514248214 8.500722994465697,47.38499361687992 8.500626879860125,47.38488925828607 8.500664994655653,47.3848745158557 8.500720487340285,47.38493427259054 8.500784086631962,47.38500205032 8.500812540001382,47.38503417092493 8.500745507917964,47.38505997329705</coordinates></LinearRing></outerBoundaryIs></Polygon></Placemark></Document></kml>