<kml xmlns="http://www.opengis.net/kml/2.2" xmlns:gx="http://www.google.com/kml/ext/2.2" xmlns:xsi="http://www.w3.org/2001/XMLSchema-instance" xsi:schemaLocation="http://www.opengis.net/kml/2.2 https://developers.google.com/kml/schema/kml22gx.xsd"><Document><name>Drawing</name><Placemark id="drawing_feature_1786415011529"><name></name><description>Herdernstr_NB_CarL1</description><Style><LineStyle><color>ffffffff</color><width>3</width></LineStyle><PolyStyle><color>66ffffff</color></PolyStyle></Style><ExtendedData><Data name="type"><value>linepolygon</value></Data></ExtendedData><Polygon><outerBoundaryIs><LinearRing><coordinates>8.507801778223318,47.384579781393896,0 8.507852909100254,47.38461978600187,0 8.507904076142848,47.38466158926526,0 8.507943054923423,47.38469001271719,0 8.507968557298971,47.3847068673047,0 8.507996762199886,47.38472639539187,0 8.508029031917884,47.38475048332524,0 8.508064038269318,47.38477894350513,0 8.508097648279584,47.384803818574625,0 8.508136645315988,47.38483314129911,0 8.508175642395358,47.384862464010176,0 8.508234827265092,47.38490779093087,0 8.508289967457726,47.38494955724266,0 8.508326719880367,47.38493302586443,0 8.508293091630486,47.3849072515235,0 8.508239293718438,47.38486637229282,0 8.508190864838626,47.38482904135984,0 8.50815183167808,47.3847979199752,0 8.508089890343005,47.384747221489555,0 8.50801320262895,47.384687664398335,0 8.50793384867502,47.38462723242672,0 8.507842342702112,47.38455521927858,0 8.507801778223318,47.384579781393896,0</coordinates></LinearRing></outerBoundaryIs></Polygon></Placemark><Placemark id="drawing_feature_1786415142977"><name></name><description>Herdernstr_SB_CarL1</description><Style><LineStyle><color>ff0000ff</color><width>3</width></LineStyle><PolyStyle><color>660000ff</color></PolyStyle></Style><ExtendedData><Data name="type"><value>linepolygon</value></Data></ExtendedData><Polygon><outerBoundaryIs><LinearRing><coordinates>8.508186349064264,47.3849999893542,0 8.508172619815161,47.38497582977973,0 8.508148170708116,47.38494547289319,0 8.508121109344579,47.38491693919484,0 8.508067257413046,47.384873361866504,0 8.50800007345669,47.38482541037939,0 8.507911215426383,47.3847533727778,0 8.507831789317462,47.38468934338013,0 8.507798143418388,47.38466266955378,0 8.507779225951982,47.384643954981414,0 8.507752386302675,47.38461092161412,0 8.507801778223318,47.384579781393896,0 8.507904076142848,47.38466158926526,0 8.50801860084507,47.38475867543047,0 8.50810784279484,47.384834307422096,0 8.50815237124818,47.38487527252069,0 8.50819285500146,47.38491267702021,0 8.50825720563748,47.38496695117079,0 8.508186349064264,47.3849999893542,0</coordinates></LinearRing></outerBoundaryIs></Polygon></Placemark><Placemark id="drawing_feature_1786415374961"><name></name><description>HohlstrE_WB_CarL3</description><Style><LineStyle><color>ffffffff</color><width>3</width></LineStyle><PolyStyle><color>66ffffff</color></PolyStyle></Style><ExtendedData><Data name="type"><value>linepolygon</value></Data></ExtendedData><Polygon><outerBoundaryIs><LinearRing><coordinates>8.508657306684091,47.3850154177642,0 8.508596791055663,47.3850357673414,0 8.508577710672858,47.385008958850335,0 8.508640892719178,47.384989484094966,0 8.50880406312742,47.38493670096722,0 8.508950145185349,47.38489037245539,0 8.509026478527918,47.38486627812092,0 8.509173884386852,47.38481993705698,0 8.509285862172373,47.384790115228824,0 8.509324082909771,47.38478076597364,0 8.509350476299751,47.38477602384705,0 8.509426631669108,47.3847567240287,0 8.509500334304814,47.384733553264134,0 8.509588530618904,47.384706650078286,0 8.509688554128234,47.384675139649964,0 8.509824131620375,47.38463340492805,0 8.509841816003899,47.38465662813759,0 8.50975889856172,47.38468258307287,0 8.509661505375904,47.38471316967251,0 8.50958121805628,47.38473820059013,0 8.50950908954255,47.384760161707064,0 8.509440665550397,47.384782384047114,0 8.509362899913594,47.38480109489382,0 8.509322048861902,47.384811368043586,0 8.509278531351274,47.38482076638171,0 8.509210034918908,47.38483939122855,0 8.509137602003184,47.38485985152066,0 8.509049441335096,47.384888553038934,0 8.508969153463202,47.38491358352958,0 8.508899404857887,47.3849358178152,0 8.508830980385575,47.38495803979273,0 8.508749386173136,47.38498398173491,0 8.508657306684091,47.3850154177642,0</coordinates></LinearRing></outerBoundaryIs></Polygon></Placemark><Placemark id="drawing_feature_1786415535908"><name></name><description>HohlstrE_WB_CarL2</description><Style><LineStyle><color>ff0000ff</color><width>3</width></LineStyle><PolyStyle><color>660000ff</color></PolyStyle></Style><ExtendedData><Data name="type"><value>linepolygon</value></Data></ExtendedData><Polygon><outerBoundaryIs><LinearRing><coordinates>8.509861151049352,47.38468245060514,0 8.509787430565106,47.384704722261446,0 8.509712403908857,47.384727905485384,0 8.509640007485352,47.38475016477141,0 8.509567611001314,47.38477242401182,0 8.509496538643779,47.3847946709333,0 8.50943070876651,47.3848141707034,0 8.50937269748429,47.38482730143118,0 8.509300174307254,47.38484326513031,0 8.5092645838304,47.38485169049687,0 8.509202690231866,47.38486935464629,0 8.509132923716763,47.38489068973424,0 8.50906188714786,47.38491473506539,0 8.508985571814637,47.38493972876202,0 8.508919795755913,47.38496192625705,0 8.508848704814302,47.38498327343942,0 8.508751346673256,47.38501565794656,0 8.50867637330054,47.38504153851222,0 8.508613227318481,47.38506281196482,0 8.508596791055663,47.3850357673414,0 8.508657306684091,47.3850154177642,0 8.508761576151924,47.384980106076505,0 8.508969153463202,47.38491358352958,0 8.509049441335096,47.384888553038934,0 8.509137602003184,47.38485985152066,0 8.509196304324359,47.384843269745886,0 8.509278531351274,47.38482076638171,0 8.509322048861902,47.384811368043586,0 8.509362899913594,47.38480109489382,0 8.509440665550397,47.384782384047114,0 8.50950908954255,47.384760161707064,0 8.509584138657987,47.38473808956364,0 8.509734173970227,47.38469082389469,0 8.509842088233825,47.38465654165914,0 8.509861151049352,47.38468245060514,0</coordinates></LinearRing></outerBoundaryIs></Polygon></Placemark><Placemark id="drawing_feature_1786415694879"><name></name><description>HohlstrE_WB_CarL1</description><Style><LineStyle><color>ff008000</color><width>3</width></LineStyle><PolyStyle><color>66008000</color></PolyStyle></Style><ExtendedData><Data name="type"><value>linepolygon</value></Data></ExtendedData><Polygon><outerBoundaryIs><LinearRing><coordinates>8.509416558313804,47.38483499049876,0 8.509361123105867,47.38484449931967,0 8.509291248279366,47.384860438469325,0 8.509208239918799,47.384881896312514,0 8.509143752083306,47.3849022829874,0 8.509072697439594,47.3849254289861,0 8.509002984988138,47.38494946201222,0 8.508930606028683,47.384972620190894,0 8.508855596682515,47.38499670219522,0 8.508802954068617,47.38501338092783,0 8.50877937143156,47.38502619245009,0 8.508751852321053,47.38504083944021,0 8.50872177509978,47.38506000764799,0 8.508695742671419,47.38508273641157,0 8.508674988943056,47.38510451677419,0 8.508657046104236,47.38513436665694,0 8.508723454529607,47.385143646178975,0 8.50873740669026,47.385112933741176,0 8.508758142337395,47.38509025402831,0 8.508784210861613,47.385069323928874,0 8.508812981932024,47.38505106730944,0 8.508851058455482,47.385034523499215,0 8.508907619468918,47.385015109927785,0 8.509012886538327,47.38498085300397,0 8.509165444962132,47.38492726816857,0 8.509274648125325,47.38489117551823,0 8.509337703296122,47.384865405007695,0 8.509416558313804,47.38483499049876,0</coordinates></LinearRing></outerBoundaryIs></Polygon></Placemark><Placemark id="drawing_feature_1786415804090"><name></name><description>HohlstrE_EB_CarL1</description><Style><LineStyle><color>ff008000</color><width>3</width></LineStyle><PolyStyle><color>66008000</color></PolyStyle></Style><ExtendedData><Data name="type"><value>linepolygon</value></Data></ExtendedData><Polygon><outerBoundaryIs><LinearRing><coordinates>8.508577710672858,47.385008958850335,0 8.508535473308324,47.38495019421979,0 8.508650136220242,47.384922147162946,0 8.508709363625481,47.38490360849966,0 8.508769861001593,47.3848823595236,0 8.509021173523637,47.3847999754428,0 8.509115973057943,47.38477211193948,0 8.509190073305717,47.38476872683271,0 8.509269235411962,47.384753601187704,0 8.509360279006156,47.384736566364374,0 8.509424947259204,47.38472517295788,0 8.509477679748347,47.38471299063536,0 8.509523773218145,47.38469997031838,0 8.509592178996792,47.38467684858947,0 8.509661926973605,47.38465461388357,0 8.509808025587812,47.38460918362133,0 8.509825709956269,47.38463240683352,0 8.509800713168586,47.384640734148036,0 8.509707238410376,47.384668585939025,0 8.509624338957368,47.3846954401166,0 8.50956113954722,47.38471401607288,0 8.50947689769311,47.38473998307938,0 8.509422931341522,47.384756674369164,0 8.509324082909771,47.38478076597364,0 8.509217766489805,47.38480755647755,0 8.509174923446956,47.38481896208106,0 8.509131440415727,47.38483328050794,0 8.509010756176774,47.38487124082823,0 8.508950145185349,47.38489037245539,0 8.508640892719178,47.384989484094966,0 8.508577710672858,47.385008958850335,0</coordinates></LinearRing></outerBoundaryIs></Polygon></Placemark><Placemark id="drawing_feature_1786416007140"><name></name><description>HohlstrW_EB_CarL1</description><Style><LineStyle><color>ff0000ff</color><width>3</width></LineStyle><PolyStyle><color>660000ff</color></PolyStyle></Style><ExtendedData><Data name="type"><value>linepolygon</value></Data></ExtendedData><Polygon><outerBoundaryIs><LinearRing><coordinates>8.506961215113098,47.3854823849627,0 8.50694616209131,47.38545823749035,0 8.507046224636621,47.38542852803688,0 8.507283210633464,47.38535797386044,0 8.507485947184412,47.38529673110163,0 8.507625482542563,47.38525406287925,0 8.507692619782139,47.38523365254928,0 8.507732399857925,47.38523598297878,0 8.507825858601887,47.385207233452476,0 8.507970654148044,47.385162717116415,0 8.508112801061303,47.38511822511321,0 8.50812921480873,47.38514415885654,0 8.508098920730486,47.38515253483206,0 8.508047551698082,47.385168716638304,0 8.507998895383585,47.38518404387859,0 8.507969168685378,47.385192835664306,0 8.507917264329787,47.38520818655259,0 8.50789979315741,47.38521355793646,0 8.507844866502836,47.38523044470958,0 8.507802543967438,47.38524350679932,0 8.50774842073463,47.385260210930156,0 8.50770665558172,47.38527310094456,0 8.507678190206077,47.38528061119787,0 8.507628924698855,47.38529360929878,0 8.507555130279814,47.38531228216882,0 8.507477399281392,47.38533279042078,0 8.507404928956277,47.3853514509444,0 8.507386061453863,47.385356687556936,0 8.50733117044847,47.3853719223494,0 8.507252169175253,47.38539514071539,0 8.507178446613029,47.385417410700875,0 8.507042847020754,47.38545824296673,0 8.506961215113098,47.3854823849627,0</coordinates></LinearRing></outerBoundaryIs></Polygon></Placemark><Placemark id="drawing_feature_1786416106543"><name></name><description>HohlstrW_EB_CarL2</description><Style><LineStyle><color>ffffffff</color><width>3</width></LineStyle><PolyStyle><color>66ffffff</color></PolyStyle></Style><ExtendedData><Data name="type"><value>linepolygon</value></Data></ExtendedData><Polygon><outerBoundaryIs><LinearRing><coordinates>8.50812921480873,47.38514415885654,0 8.508146916671446,47.38516828166117,0 8.50809294946887,47.385184972327124,0 8.507973169364009,47.385222061243454,0 8.507867865060813,47.38525451853852,0 8.50780335821793,47.3852740051232,0 8.507717790420639,47.385299983095635,0 8.507642762024561,47.38532316497037,0 8.507583443585167,47.385337206388385,0 8.507538619175158,47.38534751565965,0 8.507485867576385,47.385358797754996,0 8.507441079202977,47.385370905666775,0 8.507355493037823,47.38539598403075,0 8.507202751121303,47.385440573074895,0 8.507060548495774,47.38548236593564,0 8.50697759235383,47.385506520188486,0 8.506961215113098,47.3854823849627,0 8.507042847020754,47.38545824296673,0 8.507178446613029,47.385417410700875,0 8.507252169175253,47.38539514071539,0 8.50733117044847,47.3853719223494,0 8.507386061453863,47.385356687556936,0 8.507477399281392,47.38533279042078,0 8.507555130279814,47.38531228216882,0 8.507628924698855,47.38529360929878,0 8.507678190206077,47.38528061119787,0 8.50770665558172,47.38527310094456,0 8.50774842073463,47.385260210930156,0 8.507802543967438,47.38524350679932,0 8.50789979315741,47.38521355793646,0 8.507969168685378,47.385192835664306,0 8.508047551698082,47.385168716638304,0 8.50812921480873,47.38514415885654,0</coordinates></LinearRing></outerBoundaryIs></Polygon></Placemark><Placemark id="drawing_feature_1786416221027"><name></name><description>HohlstrW_WB_CarL1</description><Style><LineStyle><color>ff008000</color><width>3</width></LineStyle><PolyStyle><color>66008000</color></PolyStyle></Style><ExtendedData><Data name="type"><value>linepolygon</value></Data></ExtendedData><Polygon><outerBoundaryIs><LinearRing><coordinates>8.50819191472003,47.385232629556896,0 8.5081313264731,47.38524938153239,0 8.508069432036358,47.38526704507216,0 8.507940418420574,47.385306018430555,0 8.507814034975025,47.38534406779708,0 8.507758454613393,47.38534638113393,0 8.5077333850002,47.38535111064258,0 8.507660806496613,47.38536437529198,0 8.507589498040806,47.38537492962675,0 8.507516865354544,47.38538549616811,0 8.50747857171586,47.38539124746662,0 8.507440332179392,47.38539969676992,0 8.507395525725144,47.38541090532466,0 8.507356034099972,47.38542296420587,0 8.507286266119573,47.38544429817427,0 8.50720463434368,47.38546844034251,0 8.507136154384472,47.38548796329443,0 8.507065062025465,47.385509309375095,0 8.506992663432838,47.38553156699562,0 8.50697759235383,47.385506520188486,0 8.507060548495774,47.38548236593564,0 8.507151984529102,47.385455493228754,0 8.507280052519112,47.38541800696976,0 8.507355493037823,47.38539598403075,0 8.507441079202977,47.385370905666775,0 8.50749929745797,47.38535592548069,0 8.507538619175158,47.38534751565965,0 8.507583443585167,47.385337206388385,0 8.507642762024561,47.38532316497037,0 8.507717790420639,47.385299983095635,0 8.50780335821793,47.3852740051232,0 8.507867865060813,47.38525451853852,0 8.507973169364009,47.385222061243454,0 8.50809294946887,47.385184972327124,0 8.508146916671446,47.38516828166117,0 8.50819191472003,47.385232629556896,0</coordinates></LinearRing></outerBoundaryIs></Polygon></Placemark><Placemark id="drawing_feature_1786416371025"><name></name><description>Duttweilerbr_NB_CarL1</description><Style><LineStyle><color>ff0000ff</color><width>3</width></LineStyle><PolyStyle><color>660000ff</color></PolyStyle></Style><ExtendedData><Data name="type"><value>linepolygon</value></Data></ExtendedData><Polygon><outerBoundaryIs><LinearRing><coordinates>8.508651575399124,47.385186096654635,0 8.508714956269655,47.385176514589126,0 8.508714227995831,47.38520620504117,0 8.508717689015915,47.38524665076774,0 8.50872352756322,47.38527358187973,0 8.508736384406447,47.38532023712565,0 8.508751961910944,47.385370465195656,0 8.508760503070924,47.38540006979191,0 8.508762152337967,47.385416245628065,0 8.508763909961191,47.3854378174978,0 8.508764451737381,47.385464797665996,0 8.508763121650762,47.38553047393762,0 8.508740778597067,47.38547311248393,0 8.508724238040681,47.38544088345753,0 8.50870711964102,47.38537987558167,0 8.508695677299686,47.385337704764005,0 8.508674441907251,47.385269538961886,0 8.508671522645495,47.38525607340466,0 8.508658828390702,47.385217512201805,0 8.508651575399124,47.385186096654635,0</coordinates></LinearRing></outerBoundaryIs></Polygon></Placemark><Placemark id="drawing_feature_1786416453173"><name></name><description>Duttweilerbr_NB_CarL2</description><Style><LineStyle><color>ffffffff</color><width>3</width></LineStyle><PolyStyle><color>66ffffff</color></PolyStyle></Style><ExtendedData><Data name="type"><value>linepolygon</value></Data></ExtendedData><Polygon><outerBoundaryIs><LinearRing><coordinates>8.508620209975659,47.385207075776904,0 8.508630728427446,47.38522344505241,0 8.508641935950756,47.3852539244708,0 8.508651945688282,47.38529071152452,0 8.508666036386092,47.385332857819506,0 8.508681541596788,47.38537948854287,0 8.508688632111149,47.38540281003559,0 8.508702560344203,47.38543686227395,0 8.508715128274268,47.38546912809682,0 8.508742966767892,47.38553633322479,0 8.508762769791737,47.38559911524037,0 8.508777041253788,47.38565025490648,0 8.508792709192095,47.38570497966022,0 8.508807034891392,47.38575881733755,0 8.508821396740244,47.38581445368988,0 8.50883434410252,47.385865605611144,0 8.508849976041473,47.38591853167591,0 8.5088656621948,47.38597415575394,0 8.508881384503677,47.38603157850649,0 8.50889435003801,47.38608362975635,0 8.508905648202427,47.38611860583475,0 8.508867408370145,47.386127055608846,0 8.508845155692974,47.3860522866866,0 8.508831900804964,47.38600775020376,0 8.508825767713166,47.3859876061463,0 8.50880500388124,47.385919407503394,0 8.508795033064777,47.38588665837108,0 8.508762241009505,47.38577065323344,0 8.508738917558,47.38569837929519,0 8.508726932562794,47.38566124051061,0 8.508711633346314,47.38561491217489,0 8.508697318363842,47.385571564172785,0 8.508683869930659,47.38553233373935,0 8.508660740151154,47.385464861704044,0 8.508654247533253,47.38544775305215,0 8.508635568260138,47.385398531366725,0 8.508622800794994,47.38536851821603,0 8.508611937311581,47.38534298082723,0 8.508585856630875,47.38529734753707,0 8.50857491996973,47.385280358198855,0 8.50859991724937,47.38527203115136,0 8.50858216097876,47.38524521039988,0 8.508558963489609,47.385211243983825,0 8.508612948629281,47.3851954524392,0 8.508620209975659,47.385207075776904,0</coordinates></LinearRing></outerBoundaryIs></Polygon></Placemark><Placemark id="drawing_feature_1786416600191"><name></name><description>Duttweilerbr_SB_CarL1</description><Style><LineStyle><color>ff008000</color><width>3</width></LineStyle><PolyStyle><color>66008000</color></PolyStyle></Style><ExtendedData><Data name="type"><value>linepolygon</value></Data></ExtendedData><Polygon><outerBoundaryIs><LinearRing><coordinates>8.508577218912597,47.38552680160568,0 8.50856438021477,47.3854810456839,0 8.508546082226626,47.385427244759455,0 8.508522505523976,47.385374392219134,0 8.508495028485495,47.38532517381502,0 8.508478632558445,47.38530013946418,0 8.508460804123459,47.38526972133811,0 8.508444444337044,47.385246485660105,0 8.508403664978669,47.38526035583971,0 8.508422582883531,47.38527907030611,0 8.508444456115077,47.38531304901016,0 8.508466401591102,47.38535062506584,0 8.508493860561634,47.38539894413734,0 8.508521283471795,47.38544546452368,0 8.508539021723127,47.38547138594394,0 8.508554021303908,47.38549283519163,0 8.508577218912597,47.38552680160568,0</coordinates></LinearRing></outerBoundaryIs></Polygon></Placemark><Placemark id="drawing_feature_1786416664982"><name></name><description>Duttweilerbr_SB_CarL3</description><Style><LineStyle><color>ff0000ff</color><width>3</width></LineStyle><PolyStyle><color>660000ff</color></PolyStyle></Style><ExtendedData><Data name="type"><value>linepolygon</value></Data></ExtendedData><Polygon><outerBoundaryIs><LinearRing><coordinates>8.508510690371487,47.385247671252785,0 8.508551698270868,47.38531115645381,0 8.508576526951865,47.38536039937037,0 8.508600121758361,47.385414151238805,0 8.508621068204548,47.38546792762835,0 8.508639294053955,47.385518131184554,0 8.508657646339854,47.38557463010955,0 8.50866185370748,47.385586284724084,0 8.508711633346314,47.38561491217489,0 8.508683869930659,47.38553233373935,0 8.508654247533253,47.38544775305215,0 8.508622800794994,47.38536851821603,0 8.508611937311581,47.38534298082723,0 8.508585856630875,47.38529734753707,0 8.50857491996973,47.385280358198855,0 8.508546209010488,47.38523564876346,0 8.508535290429919,47.38521955876028,0 8.508499771799189,47.38523158124627,0 8.508510690371487,47.385247671252785,0</coordinates></LinearRing></outerBoundaryIs></Polygon></Placemark><Placemark id="drawing_feature_1786416737121"><name></name><description>Duttweilerbr_SB_CarL2</description><Style><LineStyle><color>ff00ffff</color><width>3</width></LineStyle><PolyStyle><color>6600ffff</color></PolyStyle></Style><ExtendedData><Data name="type"><value>linepolygon</value></Data></ExtendedData><Polygon><outerBoundaryIs><LinearRing><coordinates>8.508818731831905,47.38614342501741,0 8.508794901702247,47.386077981801854,0 8.50876695450316,47.386005380665004,0 8.508740367713726,47.385934565932594,0 8.508719294553282,47.38587449420073,0 8.50869763312033,47.385811810548674,0 8.508662613700302,47.385716787229676,0 8.508641535846886,47.38565647308349,0 8.508623328004893,47.38560716886869,0 8.508613426567823,47.385575777849596,0 8.50859929973445,47.38553183287365,0 8.50858234681431,47.38547906150108,0 8.508564048808696,47.38542526057934,0 8.508541850456977,47.385375093797265,0 8.508529445150948,47.38535092200561,0 8.508515697600723,47.38532586313558,0 8.508477320076434,47.385261454059645,0 8.508464968988418,47.38523998027741,0 8.508499771799189,47.38523158124627,0 8.508510690371487,47.385247671252785,0 8.508551698270868,47.38531115645381,0 8.508576526951865,47.38536039937037,0 8.508600121758361,47.385414151238805,0 8.508621068204548,47.38546792762835,0 8.508639294053955,47.385518131184554,0 8.50866185370748,47.385586284724084,0 8.508711633346314,47.38561491217489,0 8.508738917558,47.38569837929519,0 8.508762241009505,47.38577065323344,0 8.50880500388124,47.385919407503394,0 8.508825767713166,47.3859876061463,0 8.508845155692974,47.3860522866866,0 8.508867408370145,47.386127055608846,0 8.508818731831905,47.38614342501741,0</coordinates></LinearRing></outerBoundaryIs></Polygon></Placemark></Document></kml>