<kml xmlns="http://www.opengis.net/kml/2.2" xmlns:gx="http://www.google.com/kml/ext/2.2" xmlns:xsi="http://www.w3.org/2001/XMLSchema-instance" xsi:schemaLocation="http://www.opengis.net/kml/2.2 https://developers.google.com/kml/schema/kml22gx.xsd"><Document><name>Drawing</name><Placemark id="drawing_feature_1786493637511"><name></name><description>Gutstr_SB_CarL2</description><Style><LineStyle><color>ffffffff</color><width>3</width></LineStyle><PolyStyle><color>66ffffff</color></PolyStyle></Style><ExtendedData><Data name="type"><value>linepolygon</value></Data></ExtendedData><Polygon><outerBoundaryIs><LinearRing><coordinates>8.50923802432986,47.370431010790725 8.509293137488287,47.37040621315703 8.509353455590317,47.37037686969475 8.509424237792611,47.37034113261946 8.50951206704862,47.370297141857804 8.509588108205518,47.37025955690059 8.509645742191331,47.37022843914726 8.509707257232433,47.3701927878224 8.509775282880215,47.370151679023515 8.509834168173928,47.37011695152641 8.509886434284908,47.37008228538863 8.509938718401646,47.370048518569824 8.509914492021178,47.370028954034424 8.509859542194413,47.370061846054696 8.509774560038311,47.37011570530368 8.509709200152042,47.37015768889393 8.509645055573614,47.370194264113465 8.509579587082154,47.370230851571336 8.509514064300689,47.370264740962725 8.509449811065675,47.37029592001463 8.50938296429414,47.37032982160377 8.50932001666868,47.37036008896766 8.509254457438388,47.37039217952435 8.509217733397874,47.37040961061385 8.50923802432986,47.370431010790725</coordinates></LinearRing></outerBoundaryIs></Polygon></Placemark><Placemark id="drawing_feature_1786493770635"><name></name><description>Gutstr_SB_CarL1</description><Style><LineStyle><color>ff0000ff</color><width>3</width></LineStyle><PolyStyle><color>660000ff</color></PolyStyle></Style><ExtendedData><Data name="type"><value>linepolygon</value></Data></ExtendedData><Polygon><outerBoundaryIs><LinearRing><coordinates>8.5097626368714,47.36998358781571 8.509775057228248,47.370008658931695 8.509775509003616,47.37003114250732 8.509764082536469,47.370055535257976 8.509748558101284,47.37007366943525 8.509722354560004,47.370093372220644 8.509691050830346,47.37011108264251 8.509654274738795,47.37013178296005 8.509630698894712,47.37014459471412 8.509615138251437,47.370160930186955 8.509601134494552,47.37018297772554 8.50956052957637,47.37020494246405 8.509496294507066,47.370237020885405 8.509441235814633,47.37026451664647 8.509346859674745,47.37031216608542 8.509258994132692,47.37035435803515 8.509192111043776,47.37038646082715 8.509217733397874,47.37040961061385 8.509254457438388,47.37039217952435 8.50932001666868,47.37036008896766 8.50938296429414,47.37032982160377 8.509449811065675,47.37029592001463 8.509514064300689,47.370264740962725 8.509579587082154,47.370230851571336 8.509645055573614,47.370194264113465 8.509709200152042,47.37015768889393 8.509774560038311,47.37011570530368 8.509824373762639,47.37008413481724 8.509859542194413,47.370061846054696 8.509914492021178,47.370028954034424 8.509886258054598,47.370007627641556 8.509859962392165,47.370016866626756 8.509855683703142,47.370001614628165 8.509851332727417,47.369982765257255 8.5097626368714,47.36998358781571</coordinates></LinearRing></outerBoundaryIs></Polygon></Placemark><Placemark id="drawing_feature_1786493936397"><name></name><description>Gutstr_SB_CarL3</description><Style><LineStyle><color>ff008000</color><width>3</width></LineStyle><PolyStyle><color>66008000</color></PolyStyle></Style><ExtendedData><Data name="type"><value>linepolygon</value></Data></ExtendedData><Polygon><outerBoundaryIs><LinearRing><coordinates>8.509262198232669,47.370453844552834 8.50931598757352,47.37042905917913 8.509364499611271,47.37040522221095 8.509424781542426,47.370374080025414 8.509504776286994,47.37033555896308 8.509574252573904,47.37030073341187 8.509658092093536,47.37025588001847 8.50971962522821,47.3702211280303 8.509783733645335,47.37018275408367 8.509842582823502,47.37014622789663 8.509890967856974,47.3701160953042 8.509926277285249,47.37009417956238 8.509965485850262,47.370068629601334 8.509938718401646,47.370048518569824 8.509886434284908,47.37008228538863 8.509834168173928,47.37011695152641 8.509775282880215,47.370151679023515 8.509707257232433,47.3701927878224 8.509645742191331,47.37022843914726 8.509588108205518,47.37025955690059 8.50955188646386,47.37027746027879 8.50951206704862,47.370297141857804 8.509424237792611,47.37034113261946 8.509353455590317,47.37037686969475 8.509293137488287,47.37040621315703 8.50923802432986,47.370431010790725 8.509262198232669,47.370453844552834</coordinates></LinearRing></outerBoundaryIs></Polygon></Placemark><Placemark id="drawing_feature_1786494040995"><name></name><description>Gutstr_NB_CarL1</description><Style><LineStyle><color>ffffffff</color><width>3</width></LineStyle><PolyStyle><color>66ffffff</color></PolyStyle></Style><ExtendedData><Data name="type"><value>linepolygon</value></Data></ExtendedData><Polygon><outerBoundaryIs><LinearRing><coordinates>8.510025726571776,47.37010135272938 8.509956286988327,47.3701379772404 8.509893376061507,47.37017004360465 8.50982518783412,47.37020305838624 8.50976753590966,47.370233276886474 8.509701995174941,47.37026626704151 8.509637778185677,47.37029924488395 8.509572201154015,47.37033043627873 8.50951484161505,47.37036052185219 8.509465023922406,47.37038527049994 8.509414931581109,47.370411051268015 8.509355937304461,47.370440382490266 8.509287784523755,47.37047519563755 8.509262198232669,47.370453844552834 8.509364499611271,47.37040522221095 8.509424781542426,47.370374080025414 8.509504776286994,47.37033555896308 8.509574252573904,47.37030073341187 8.509658092093536,47.37025588001847 8.50971962522821,47.3702211280303 8.509783733645335,47.37018275408367 8.509842582823502,47.37014622789663 8.509890967856974,47.3701160953042 8.509926277285249,47.37009417956238 8.509945698960752,47.37008152358104 8.509960390826395,47.37009414535581 8.509995736361066,47.370074028278566 8.510025726571776,47.37010135272938</coordinates></LinearRing></outerBoundaryIs></Polygon></Placemark><Placemark id="drawing_feature_1786494221733"><name></name><description>Talwiesenstr_SB_CarL1</description><Style><LineStyle><color>ff0000ff</color><width>3</width></LineStyle><PolyStyle><color>660000ff</color></PolyStyle></Style><ExtendedData><Data name="type"><value>linepolygon</value></Data></ExtendedData><Polygon><outerBoundaryIs><LinearRing><coordinates>8.510628196439141,47.36937999501711 8.510569999678372,47.36944889796337 8.510500250165535,47.36953589830483 8.510442089233202,47.369606599869364 8.510378886037682,47.36968994133974 8.51034265102246,47.36973165505222 8.510320580135014,47.36975344809574 8.510286594908301,47.36977535167792 8.51036257661967,47.369800732498085 8.510415623437503,47.36973907354379 8.510459493867808,47.36968199727071 8.51054086857812,47.36958049690126 8.510591321610077,47.36952156046204 8.510628008418347,47.36950233024472 8.510670663136555,47.369450662232026 8.510704232008747,47.36940807364456 8.510628196439141,47.36937999501711</coordinates></LinearRing></outerBoundaryIs></Polygon></Placemark><Placemark id="drawing_feature_1786494325809"><name></name><description>BirmensdorferstrW_EB_CarL1</description><Style><LineStyle><color>ff0000ff</color><width>3</width></LineStyle><PolyStyle><color>660000ff</color></PolyStyle></Style><ExtendedData><Data name="type"><value>linepolygon</value></Data></ExtendedData><Polygon><outerBoundaryIs><LinearRing><coordinates>8.509884066307398,47.36981074546154 8.509930544401055,47.369817510471016 8.509970367284232,47.36982253817021 8.509982129109776,47.36979224449712 8.509951996720295,47.3697886272807 8.509731591914303,47.369762168723454 8.5095298492613,47.36973795007745 8.50942616838188,47.36972550332961 8.509305412440435,47.3697122305846 8.509220453662873,47.36970132445123 8.508984219239789,47.369673829990795 8.508832925598705,47.36965634218471 8.508679625587122,47.36963796968393 8.508625739512961,47.369631799305026 8.508558192776407,47.369623806494594 8.508526349134545,47.36962050342095 8.508455432352358,47.36961665916663 8.508457202777699,47.36964701848537 8.50850888554324,47.36964923830491 8.508573860572776,47.36965403350352 8.508649516361064,47.3696632272728 8.508745101558516,47.36967583439519 8.508955030567497,47.36970152229201 8.509110313873697,47.36971987247405 8.509270892537986,47.36973817336382 8.509496518820805,47.369764866081695 8.509654450125735,47.369783190984364 8.509807068210904,47.369800665435854 8.509884066307398,47.36981074546154</coordinates></LinearRing></outerBoundaryIs></Polygon></Placemark><Placemark id="drawing_feature_1786494563627"><name></name><description>BirmensdorferstrW_WB_CarL1</description><Style><LineStyle><color>ff0000ff</color><width>3</width></LineStyle><PolyStyle><color>660000ff</color></PolyStyle></Style><ExtendedData><Data name="type"><value>linepolygon</value></Data></ExtendedData><Polygon><outerBoundaryIs><LinearRing><coordinates>8.508422725477093,47.369765821407626 8.508435061198725,47.36972073163008 8.50848416860615,47.36972657335638 8.508537265512789,47.36973327761788 8.508531061596553,47.369754023825685 8.508561617605965,47.36975913784717 8.508659832530151,47.36977082117106 8.508836369183458,47.36979257287102 8.509007574605999,47.36981257468587 8.509178780157088,47.36983257624659 8.509360612489472,47.369854278064984 8.509574252692394,47.36987748370365 8.50977202535189,47.36990173560985 8.509948490597397,47.369919888235636 8.5099385145673,47.36995056412688 8.509767326422681,47.369931463036934 8.5096691109595,47.369919780656154 8.509524453545831,47.36990313172375 8.509208572361375,47.369865582004614 8.508978974350105,47.369838925527255 8.508900652568965,47.3698288571644 8.50882367268719,47.36981967582593 8.508741397573141,47.36981054349526 8.508669713003238,47.36980131299483 8.508598064560298,47.36979388113639 8.508505108764371,47.36978035002535 8.508462602325661,47.36977354765707 8.508422725477093,47.369765821407626</coordinates></LinearRing></outerBoundaryIs></Polygon></Placemark><Placemark id="drawing_feature_1786494698859"><name></name><description>BirmensdorferE_EB_CarL2</description><Style><LineStyle><color>ffffffff</color><width>3</width></LineStyle><PolyStyle><color>66ffffff</color></PolyStyle></Style><ExtendedData><Data name="type"><value>linepolygon</value></Data></ExtendedData><Polygon><outerBoundaryIs><LinearRing><coordinates>8.510380210879276,47.36989969196028 8.51043191205206,47.36990281026144 8.510520734348088,47.36990828258922 8.510628198610268,47.36991897889794 8.510697685849484,47.36992689730511 8.510730385733895,47.36993062359987 8.510830629436834,47.36994284859275 8.51103429706781,47.369967686129996 8.511148491874009,47.369981612170314 8.5112346776513,47.36999208350096 8.511299805295513,47.36999999628193 8.511315913168252,47.37000188727093 8.51141577241666,47.370013610227076 8.51144181588845,47.3700166675801 8.511476278250699,47.37002101802289 8.511514825047714,47.37002588406153 8.511593129510729,47.37003505130696 8.511601853192275,47.3700079849421 8.511530185961863,47.36999965556168 8.511454511099448,47.36998956433892 8.511370893355945,47.36997954683642 8.51128729374042,47.36997042861606 8.511212960878641,47.36996122428363 8.511147930954511,47.36995373254276 8.511066960959838,47.36994369023515 8.510610410267155,47.36989035964634 8.510469742169631,47.36987457438292 8.510427271568876,47.36986957142432 8.510388808585732,47.369866330285156 8.510380210879276,47.36989969196028</coordinates></LinearRing></outerBoundaryIs></Polygon></Placemark><Placemark id="drawing_feature_1786494809761"><name></name><description>BirmensdorferstrE_EB_CarL1</description><Style><LineStyle><color>ff0000ff</color><width>3</width></LineStyle><PolyStyle><color>660000ff</color></PolyStyle></Style><ExtendedData><Data name="type"><value>linepolygon</value></Data></ExtendedData><Polygon><outerBoundaryIs><LinearRing><coordinates>8.511607638868254,47.36998076482967 8.511447030736772,47.369961958720914 8.511238966747625,47.369937595505085 8.511082939883794,47.36991808040907 8.510931008958806,47.369899077397 8.510686829881607,47.3698716601624 8.51039751477018,47.36983836466694 8.510388808585732,47.369866330285156 8.510427271568876,47.36986957142432 8.510610410267155,47.36989035964634 8.510687198068036,47.36989932951503 8.511066960959838,47.36994369023515 8.511147930954511,47.36995373254276 8.511212960878641,47.36996122428363 8.51128729374042,47.36997042861606 8.511370893355945,47.36997954683642 8.511454511099448,47.36998956433892 8.511530185961863,47.36999965556168 8.511601853192275,47.3700079849421 8.511607638868254,47.36998076482967 8.511607638868254,47.36998076482967</coordinates></LinearRing></outerBoundaryIs></Polygon></Placemark><Placemark id="drawing_feature_1786494949438"><name></name><description>BirmensdorferstrE_WB_CarL3</description><Style><LineStyle><color>ff008000</color><width>3</width></LineStyle><PolyStyle><color>66008000</color></PolyStyle></Style><ExtendedData><Data name="type"><value>linepolygon</value></Data></ExtendedData><Polygon><outerBoundaryIs><LinearRing><coordinates>8.51158172197667,47.37006034358019 8.511523329080628,47.370053689906875 8.511435721664851,47.37004280999873 8.511364054413551,47.370034480515265 8.511288415726243,47.37002618786927 8.511203474137233,47.3700161825395 8.511130483139006,47.37000786520394 8.511045541608867,47.369997859757866 8.510969884931948,47.36998866756017 8.510899541644733,47.36998032549778 8.510826532654331,47.36997110862702 8.510753541776696,47.36996279105291 8.510679227104024,47.369954485719646 8.510610207725081,47.36994613119374 8.510562459868266,47.36994207677271 8.51049880812594,47.369937270409146 8.510418001015129,47.36993532173261 8.510367695952903,47.36993578851362 8.510380210879276,47.36989969196028 8.51043191205206,47.36990281026144 8.510520734348088,47.36990828258922 8.510628198610268,47.36991897889794 8.510697685849484,47.36992689730511 8.510830629436834,47.36994284859275 8.51103429706781,47.369967686129996 8.511148491874009,47.369981612170314 8.5112346776513,47.36999208350096 8.511315913168252,47.37000188727093 8.51141577241666,47.370013610227076 8.511476278250699,47.37002101802289 8.511593129510729,47.37003505130696 8.51158172197667,47.37006034358019</coordinates></LinearRing></outerBoundaryIs></Polygon></Placemark><Placemark id="drawing_feature_1786495049500"><name></name><description>BirmensdorferstrE_WB_CarL1</description><Style><LineStyle><color>ff0000ff</color><width>3</width></LineStyle><PolyStyle><color>660000ff</color></PolyStyle></Style><ExtendedData><Data name="type"><value>linepolygon</value></Data></ExtendedData><Polygon><outerBoundaryIs><LinearRing><coordinates>8.510415132552016,47.36999021850393 8.510461466208957,47.36998978855577 8.51054221915212,47.36998903917313 8.510607086268745,47.369988437169084 8.51064946655233,47.36998894334677 8.51068131054602,47.369992245834275 8.510656230332815,47.36999607665649 8.510629934809657,47.37000531581707 8.510603639277376,47.37001455497167 8.510577235228633,47.37001839806277 8.510528253908817,47.370018852627986 8.510479272588157,47.37001930717237 8.510419700710553,47.37001985996862 8.510369395568503,47.37002032675042 8.510333634360272,47.370019759054856 8.510338332981211,47.36999003160557 8.510415132552016,47.36999021850393</coordinates></LinearRing></outerBoundaryIs></Polygon></Placemark><Placemark id="drawing_feature_1786495127735"><name></name><description>BirmensdorferstrE_WB_CarL2</description><Style><LineStyle><color>ffffffff</color><width>3</width></LineStyle><PolyStyle><color>66ffffff</color></PolyStyle></Style><ExtendedData><Data name="type"><value>linepolygon</value></Data></ExtendedData><Polygon><outerBoundaryIs><LinearRing><coordinates>8.511566542083203,47.37009556551369 8.511541280876454,47.37009040310087 8.511518649215903,47.37008431674658 8.511488056536246,47.37007740482298 8.510702328866333,47.369983955154 8.510662505793421,47.369978927707585 8.51063067989429,47.369976524557856 8.510580320541251,47.36997429340286 8.510482376064884,47.36997610185798 8.51039766976664,47.369977787393104 8.510342051309554,47.36997740395497 8.510344192689558,47.36995219778604 8.510410383581391,47.36995158360934 8.510469937300014,47.369950131474965 8.510536128187821,47.369949517226196 8.510644914328761,47.36995033229786 8.510716154787671,47.36995861272678 8.510790679532384,47.36996702304038 8.510950975183961,47.36998642504368 8.511021564949969,47.36999494662759 8.511152905971231,47.37001042029435 8.511314388996325,47.3700290354541 8.511406636544248,47.370039429603644 8.511513397011582,47.370052456453244 8.51158172197667,47.37006034358019 8.511566542083203,47.37009556551369</coordinates></LinearRing></outerBoundaryIs></Polygon></Placemark></Document></kml>