<kml xmlns="http://www.opengis.net/kml/2.2" xmlns:gx="http://www.google.com/kml/ext/2.2" xmlns:xsi="http://www.w3.org/2001/XMLSchema-instance" xsi:schemaLocation="http://www.opengis.net/kml/2.2 https://developers.google.com/kml/schema/kml22gx.xsd"><Document><name>Drawing</name><Placemark id="drawing_feature_1788383439380"><name></name><description>Burklipl_Quaibr_WB_CarL1</description><Style><LineStyle><color>ff0000ff</color><width>3</width></LineStyle><PolyStyle><color>660000ff</color></PolyStyle></Style><ExtendedData><Data name="type"><value>linepolygon</value></Data></ExtendedData><Polygon><outerBoundaryIs><LinearRing><coordinates>8.540729567616944,47.366582524029084 8.540772001252066,47.36658571716345 8.540834420958177,47.36659501616358 8.541101475854521,47.36664014161074 8.541367207473876,47.36668527907825 8.541579878684999,47.366725525569926 8.54171271694034,47.366746744820645 8.541675336133611,47.366731810057686 8.541622070586767,47.36671702698664 8.541551540763768,47.36669971021016 8.541485000779641,47.3666832548084 8.541429143689122,47.366671194945354 8.541372000101788,47.36666094637216 8.54130290577548,47.36664901283773 8.541231164023714,47.36663710453681 8.541081024781429,47.36661155230192 8.540994647741456,47.36659618548997 8.540897680936263,47.36658091968266 8.540823273319543,47.366568137056106 8.540760853646871,47.366558838049876 8.540735591290606,47.366553682021824 8.540729567616944,47.366582524029084</coordinates></LinearRing></outerBoundaryIs></Polygon></Placemark><Placemark id="drawing_feature_1788383534252"><name></name><description>Burklipl_Quaibr_WB_CarL2</description><Style><LineStyle><color>ffffffff</color><width>3</width></LineStyle><PolyStyle><color>66ffffff</color></PolyStyle></Style><ExtendedData><Data name="type"><value>linepolygon</value></Data></ExtendedData><Polygon><outerBoundaryIs><LinearRing><coordinates>8.540770829884735,47.36652905880535 8.540816134057666,47.36654301872744 8.540868056885811,47.366556915465516 8.540919923954123,47.366568114163215 8.541002329746258,47.36658351893573 8.541159106109104,47.36660990742929 8.541325411420049,47.366638651484955 8.541476893189797,47.36666509010032 8.541575332897308,47.36668753749 8.541685723474135,47.366711669689934 8.541768278589908,47.3667342686254 8.541803011962722,47.36674922864632 8.541885436902344,47.36676553212621 8.54196118739441,47.36677920076009 8.542051387287021,47.36678733419731 8.542184095564757,47.366802257533855 8.542322971959651,47.36682188252896 8.542532885233198,47.366856756530495 8.542923389331076,47.366924947791716 8.543418968942989,47.36700836090222 8.543752476008228,47.367065437801564 8.543914194790075,47.36709419825549 8.544027104209809,47.36711200750787 8.544039838093425,47.36708759867685 8.54398936819264,47.36707998606751 8.543641281031507,47.36702214983139 8.543363576269119,47.36697443354711 8.542986219267755,47.366909679183316 8.542675291964546,47.366855982305474 8.542449400703306,47.36681676368761 8.542308545112066,47.36679202382954 8.542234174097851,47.36678104079096 8.542117387865149,47.36676776441928 8.542039082960464,47.366758617875085 8.541936783411963,47.36674160485082 8.541848970515753,47.366720855291746 8.541705281908316,47.3666871465976 8.541628133453248,47.366669893081955 8.541553932218074,47.36665476802574 8.541471526156254,47.36663936364742 8.541394452260766,47.36662570733092 8.54131512817911,47.36661076545131 8.5411743108591,47.36658782288517 8.54109058128396,47.36657243087128 8.541004241498797,47.36655886274423 8.540931139017509,47.366545168213335 8.540880595694905,47.36653395688721 8.540835291512797,47.36651999699035 8.540793939936078,47.36650509983948 8.540770829884735,47.36652905880535</coordinates></LinearRing></outerBoundaryIs></Polygon></Placemark><Placemark id="drawing_feature_1788383669034"><name></name><description>Burklipl_Quaibr_WB_CarL3</description><Style><LineStyle><color>ff0000ff</color><width>3</width></LineStyle><PolyStyle><color>660000ff</color></PolyStyle></Style><ExtendedData><Data name="type"><value>linepolygon</value></Data></ExtendedData><Polygon><outerBoundaryIs><LinearRing><coordinates>8.540822657704839,47.36647985548997 8.540877276572738,47.366501496938824 8.54093057888902,47.36651807903256 8.540987722238196,47.36652832782486 8.541128539320594,47.366551270619105 8.541335821894904,47.36658707141238 8.54148730352314,47.36661351001448 8.541549779205527,47.366625506644304 8.54162700906453,47.36664128560503 8.541730662215512,47.36666515690182 8.541797127810934,47.36667801480679 8.541947509553424,47.366715257513725 8.542026026161938,47.36672922488376 8.54209105648511,47.366736699233144 8.54214007174467,47.36673802995011 8.542166602204622,47.36674047500605 8.542294183044524,47.36676354285739 8.542514723169848,47.36680011437246 8.542805738104239,47.36685130350219 8.543187084310782,47.36691691981627 8.543656096317887,47.36699608841056 8.543932459070769,47.36704291732069 8.544049395548022,47.36706338656124 8.544039838093425,47.36708759867685 8.543800593002826,47.3670486203728 8.54360604249061,47.36701609505359 8.543232509882523,47.36695194274693 8.542863127119784,47.366888421388445 8.542481694724682,47.366822370517205 8.542353864864443,47.36679998380637 8.542308545112066,47.36679202382954 8.542234174097851,47.36678104079096 8.542117387865149,47.36676776441928 8.542039082960464,47.366758617875085 8.541936783411963,47.36674160485082 8.541848970515753,47.366720855291746 8.541705281908316,47.3666871465976 8.541655565238335,47.366676027946056 8.541594815372278,47.36666310158679 8.541553932218074,47.36665476802574 8.54149333939796,47.366643441259754 8.541394452260766,47.36662570733092 8.54131512817911,47.36661076545131 8.541233514797453,47.36659746866992 8.5411743108591,47.36658782288517 8.54109058128396,47.36657243087128 8.541004241498797,47.36655886274423 8.540931139017509,47.366545168213335 8.540880595694905,47.36653395688721 8.540835291512797,47.36651999699035 8.540793939936078,47.36650509983948 8.540822657704839,47.36647985548997</coordinates></LinearRing></outerBoundaryIs></Polygon></Placemark><Placemark id="drawing_feature_1788383900485"><name></name><description>Burklipl_Quaibr_EB_CarL3</description><Style><LineStyle><color>ff0000ff</color><width>3</width></LineStyle><PolyStyle><color>660000ff</color></PolyStyle></Style><ExtendedData><Data name="type"><value>linepolygon</value></Data></ExtendedData><Polygon><outerBoundaryIs><LinearRing><coordinates>8.541840317742658,47.3665843777367 8.541849918834142,47.366600477324305 8.541957717739033,47.36662733257024 8.541960758260597,47.36658232769227 8.541883274860302,47.36654888624778 8.541852624440319,47.36653928434958 8.541796674365404,47.36652272796968 8.541719507509747,47.36650457517542 8.541646349095505,47.3664881830807 8.541617078299456,47.366481266494226 8.541523270036977,47.366465064670486 8.541478890034133,47.36645739967612 8.541501635207057,47.36646887619518 8.541535007395629,47.36648205026069 8.541564352607429,47.36649256422356 8.541613646739153,47.366507385247786 8.541670883249745,47.366522130396305 8.541734812857532,47.366540409655904 8.541786810363837,47.36655790333607 8.541829523207618,47.36657458616433 8.541840317742658,47.3665843777367</coordinates></LinearRing></outerBoundaryIs></Polygon></Placemark><Placemark id="drawing_feature_1788383988407"><name></name><description>Burklipl_Quaibr_EB_CarL1</description><Style><LineStyle><color>ff0000ff</color><width>3</width></LineStyle><PolyStyle><color>660000ff</color></PolyStyle></Style><ExtendedData><Data name="type"><value>linepolygon</value></Data></ExtendedData><Polygon><outerBoundaryIs><LinearRing><coordinates>8.540868831196947,47.36627972216529 8.54095270901675,47.36630230905391 8.5410179432375,47.36631967673857 8.541129600723186,47.36634109882111 8.541261132720548,47.366363230569426 8.54142984066543,47.366390404295316 8.541606584154257,47.36642199861878 8.541716843931576,47.366439835418525 8.541831075322545,47.36646593227793 8.541927016263488,47.36649559936849 8.542024745994318,47.36653943910527 8.542091565196776,47.36656938427861 8.542149081152242,47.366597619271566 8.542225166591649,47.36662747583089 8.542342380796356,47.36666143688504 8.542533719611582,47.366694477701316 8.542818096706775,47.366744830724556 8.543113045560192,47.366794182435974 8.543505018880515,47.366861495105056 8.543822603013968,47.36691692508853 8.543932845910792,47.36693386042996 8.543971346107197,47.366938889069594 8.544040180328675,47.36693823026795 8.544144550240308,47.36692733659559 8.544155736930776,47.366956014055916 8.544117441851954,47.36696087819987 8.544076499294771,47.366965767671246 8.54400632265455,47.36696553982547 8.543983819147586,47.366965755200816 8.543957269845023,47.36696241122444 8.543908179748787,47.36695748392579 8.543823162357372,47.36694390524118 8.543746106062086,47.366931149834905 8.543692468255989,47.36692210677593 8.543443176184768,47.36688007704368 8.543339440251941,47.366862132236406 8.543206657125184,47.3668391625333 8.542899719835066,47.36678632761724 8.542594579497589,47.366733435383246 8.542521022377203,47.36672068504646 8.542394783891762,47.36669850413349 8.542357570507285,47.366691663639735 8.542288401445274,47.366676133340576 8.54221513091515,47.3666543455748 8.542168388871849,47.3666379781906 8.542155116340142,47.366633330621546 8.542116411761466,47.366618408648954 8.542021477778478,47.36657344031069 8.541998769676642,47.366563762572056 8.54195065020715,47.36654173435627 8.541926599793639,47.36653116991022 8.541871936205878,47.36651280224366 8.541802655854557,47.36649187561935 8.541733449995018,47.36647454630886 8.541655033939145,47.366460003469946 8.541577941649443,47.366445447936286 8.541502210335718,47.36643267838833 8.541419804632433,47.366417273972026 8.541341425951872,47.366404529597716 8.541264352429502,47.36639087319326 8.541192592433838,47.36637806552842 8.541042453940152,47.36635251324129 8.540964019656197,47.366337070593275 8.540893471955041,47.36631885407355 8.540848205141181,47.366306692859 8.540868831196947,47.36627972216529</coordinates></LinearRing></outerBoundaryIs></Polygon></Placemark><Placemark id="drawing_feature_1788384148347"><name></name><description>Burklipl_Quaibr_EB_CarL2</description><Style><LineStyle><color>ffffffff</color><width>3</width></LineStyle><PolyStyle><color>66ffffff</color></PolyStyle></Style><ExtendedData><Data name="type"><value>linepolygon</value></Data></ExtendedData><Polygon><outerBoundaryIs><LinearRing><coordinates>8.540828888566308,47.366332963186096 8.540906166441943,47.366356512611176 8.54097792633973,47.366369320454204 8.54107492997913,47.36638638487311 8.541214441601864,47.366410239538176 8.541359266845042,47.36643494281789 8.541441672558179,47.36645034727738 8.541523270036977,47.366465064670486 8.541617078299456,47.366481266494226 8.541719507509747,47.36650457517542 8.541796674365404,47.36652272796968 8.541883274860302,47.36654888624778 8.541960758260597,47.36658232769227 8.542051660800649,47.366624424395475 8.542117081932886,47.366650784844964 8.542186455699706,47.36667620797327 8.54225842113699,47.36669890774502 8.54235413929654,47.366717782413616 8.542588028324683,47.366759623317456 8.543096706310644,47.366847779174584 8.543652095892433,47.36694231302387 8.543947095277646,47.366990807723795 8.543981624307182,47.366995874365614 8.544031963588813,47.36699719160994 8.544091494431056,47.36699482278753 8.544140398076998,47.36699075662463 8.544169427022041,47.3669859811715 8.544155736930776,47.366956014055916 8.544076499294771,47.366965767671246 8.543983819147586,47.366965755200816 8.543908179748787,47.36695748392579 8.543692468255989,47.36692210677593 8.543339440251941,47.366862132236406 8.542899719835066,47.36678632761724 8.542594579497589,47.366733435383246 8.542394783891762,47.36669850413349 8.542288401445274,47.366676133340576 8.54221513091515,47.3666543455748 8.542168388871849,47.3666379781906 8.542116411761466,47.366618408648954 8.542021477778478,47.36657344031069 8.541926599793639,47.36653116991022 8.541871936205878,47.36651280224366 8.541802655854557,47.36649187561935 8.541733449995018,47.36647454630886 8.541655033939145,47.366460003469946 8.541577941649443,47.366445447936286 8.541502210335718,47.36643267838833 8.541419804632433,47.366417273972026 8.541341425951872,47.366404529597716 8.541264352429502,47.36639087319326 8.541192592433838,47.36637806552842 8.54103533508644,47.36635111163803 8.540964019656197,47.366337070593275 8.540848205141181,47.366306692859 8.540828888566308,47.366332963186096</coordinates></LinearRing></outerBoundaryIs></Polygon></Placemark><Placemark id="drawing_feature_1788384348979"><name></name><description>Stadthausquai_NB_CarL1</description><Style><LineStyle><color>ffffffff</color><width>3</width></LineStyle><PolyStyle><color>66ffffff</color></PolyStyle></Style><ExtendedData><Data name="type"><value>linepolygon</value></Data></ExtendedData><Polygon><outerBoundaryIs><LinearRing><coordinates>8.541723437552292,47.36679168587898 8.541843038705554,47.36681303140933 8.541834107579499,47.36682930801812 8.54182407604679,47.366856389335524 8.541789733417092,47.36686031543566 8.541774890783755,47.36691083013159 8.541762528104478,47.36695322548905 8.541752608171134,47.36698570283169 8.541749548840919,47.36702980835998 8.541753201249744,47.367078347364256 8.541759705855906,47.36713675380642 8.54176065496776,47.36718262007979 8.5417643073972,47.367231159081435 8.541770328167624,47.36726618271517 8.541706769859935,47.36726589025281 8.541696950392277,47.36711126721145 8.541692051239345,47.367002472510364 8.541702829724048,47.366947499061325 8.541713924542272,47.36690781436944 8.541694927033669,47.36688550790022 8.541723437552292,47.36679168587898</coordinates></LinearRing></outerBoundaryIs></Polygon></Placemark><Placemark id="drawing_feature_1788384432807"><name></name><description>Fraumunsterstr_SB_CarL1</description><Style><LineStyle><color>ffffffff</color><width>3</width></LineStyle><PolyStyle><color>66ffffff</color></PolyStyle></Style><ExtendedData><Data name="type"><value>linepolygon</value></Data></ExtendedData><Polygon><outerBoundaryIs><LinearRing><coordinates>8.54156097471252,47.366746462603025 8.541535074186072,47.366838460625964 8.541470742481499,47.36705675792266 8.541416218822512,47.36723718182665 8.541408778675635,47.36726153980938 8.541327751268708,47.36724882070796 8.541345074477062,47.36719018674849 8.541374928117966,47.36709725152197 8.541427157785678,47.36693394034663 8.541469225196238,47.36679141505479 8.541477747114515,47.366755353019435 8.541478587111941,47.36673195756902 8.54156097471252,47.366746462603025</coordinates></LinearRing></outerBoundaryIs></Polygon></Placemark></Document></kml>