<kml xmlns="http://www.opengis.net/kml/2.2" xmlns:gx="http://www.google.com/kml/ext/2.2" xmlns:xsi="http://www.w3.org/2001/XMLSchema-instance" xsi:schemaLocation="http://www.opengis.net/kml/2.2 https://developers.google.com/kml/schema/kml22gx.xsd"><Document><name>Drawing</name><Placemark id="drawing_feature_1780020048709"><name></name><description>BaslerstrW_Stop</description><Style><LineStyle><color>ff0000ff</color><width>3</width></LineStyle></Style><ExtendedData><Data name="type"><value>linepolygon</value></Data></ExtendedData><LineString><coordinates>8.500591968903914,47.38515119594091 8.500718721879322,47.38533083134031</coordinates></LineString></Placemark><Placemark id="drawing_feature_1780020099812"><name></name><description>BaslerstrW_Yield</description><Style><LineStyle><color>ff008000</color><width>3</width></LineStyle></Style><ExtendedData><Data name="type"><value>linepolygon</value></Data></ExtendedData><LineString><coordinates>8.500690029156663,47.385087329233016 8.500840154139164,47.38530992590177</coordinates></LineString></Placemark><Placemark id="drawing_feature_1780020130781"><name></name><description>FreihofstrN_Stop</description><Style><LineStyle><color>ff0000ff</color><width>3</width></LineStyle></Style><ExtendedData><Data name="type"><value>linepolygon</value></Data></ExtendedData><LineString><coordinates>8.50110765822162,47.3852418024118 8.500901336318709,47.385322855980036</coordinates></LineString></Placemark><Placemark id="drawing_feature_1780020163129"><name></name><description>FreihofstrN_Yield</description><Style><LineStyle><color>ff008000</color><width>3</width></LineStyle></Style><ExtendedData><Data name="type"><value>linepolygon</value></Data></ExtendedData><LineString><coordinates>8.50077694874167,47.38526193369509 8.501115098767153,47.38514998446988 8.501116422964945,47.38514997229258</coordinates></LineString></Placemark><Placemark id="drawing_feature_1780020208532"><name></name><description>BaslerstrE_Stop</description><Style><LineStyle><color>ff0000ff</color><width>3</width></LineStyle></Style><ExtendedData><Data name="type"><value>linepolygon</value></Data></ExtendedData><LineString><coordinates>8.501150012033547,47.38517395004178 8.501050441077943,47.38502914585066</coordinates></LineString></Placemark><Placemark id="drawing_feature_1780020228747"><name></name><description>BaslerstrE_Yield</description><Style><LineStyle><color>ff008000</color><width>3</width></LineStyle></Style><ExtendedData><Data name="type"><value>linepolygon</value></Data></ExtendedData><LineString><coordinates>8.500958123911476,47.38504888431547 8.501082032255647,47.38521865093003</coordinates></LineString></Placemark><Placemark id="drawing_feature_1780020251630"><name></name><description>FreihofstrS_Stop</description><Style><LineStyle><color>ff0000ff</color><width>3</width></LineStyle></Style><ExtendedData><Data name="type"><value>linepolygon</value></Data></ExtendedData><LineString><coordinates>8.500894721529908,47.38499099942624 8.500892126920418,47.38499372179659 8.50066222103337,47.38508758484971</coordinates></LineString></Placemark><Placemark id="drawing_feature_1780020278963"><name></name><description>FreihofstrS_Yield</description><Style><LineStyle><color>ff008000</color><width>3</width></LineStyle></Style><ExtendedData><Data name="type"><value>linepolygon</value></Data></ExtendedData><LineString><coordinates>8.500704776649489,47.38516275209308 8.50102639293609,47.385085136297995</coordinates></LineString></Placemark><Placemark id="drawing_feature_1780020324132"><name></name><description>BaslerstrE_WB</description><Style><LineStyle><color>ffff0000</color><width>3</width></LineStyle></Style><ExtendedData><Data name="type"><value>linepolygon</value></Data></ExtendedData><LineString><coordinates>8.501967939073035,47.38487948310023 8.501898151702811,47.3848999144759 8.501824391703254,47.384920382365465 8.50175986511267,47.38493896623524 8.501696680609612,47.38495843722507 8.501644017852364,47.38497421335339 8.501601876861246,47.38498629463455 8.501516270627404,47.38501046933245 8.501441222003915,47.385032747838764 8.501405648091676,47.38504207012233 8.50136878584004,47.38505320325548 8.50133322983503,47.385063424856824 8.501297691749352,47.38507454578741 8.501258181060319,47.38508570324381 8.501221318747639,47.385096836329716 8.501154179200013,47.38511724289732 8.501100191927588,47.385133030954464</coordinates></LineString></Placemark><Placemark id="drawing_feature_1780020393935"><name></name><description>BaslerstrE_EB</description><Style><LineStyle><color>ffff0000</color><width>3</width></LineStyle></Style><ExtendedData><Data name="type"><value>linepolygon</value></Data></ExtendedData><LineString><coordinates>8.501941918144178,47.38483654632294 8.501868176191751,47.38485791358109 8.50179575837106,47.38487926860691 8.50172201630082,47.38490063577137 8.501646967918209,47.38492291441222 8.50157322572781,47.38494428148138 8.50148896167787,47.38496934331705 8.50143629884829,47.38498511935055 8.501373114172138,47.385004590163035 8.501312559905811,47.38502313724163 8.501236151120189,47.38504362911362 8.501171624174944,47.38506221265388 8.501112358109282,47.38507894876872 8.501075495770786,47.38509008180812</coordinates></LineString></Placemark><Placemark id="drawing_feature_1780020449905"><name></name><description>BaslerstrW_WB</description><Style><LineStyle><color>ffff0000</color><width>3</width></LineStyle></Style><ExtendedData><Data name="type"><value>linepolygon</value></Data></ExtendedData><LineString><coordinates>8.500690893620122,47.38526362427296 8.500650094306843,47.385276592373465 8.500630338821585,47.38528217099223 8.500592169961276,47.38529421538854 8.500552658961402,47.38530537260273 8.500517048871703,47.38531289593114 8.500484051337672,47.38531859622803 8.50044842331072,47.38532522019499 8.500422046774009,47.38533085962583 8.500391715541655,47.385337434897885 8.500362708504607,47.385343997993395 8.50032974676823,47.38535149692668 8.500287569348284,47.385361779046136 8.500253337133179,47.385371988146176 8.500213843919376,47.38538404458444 8.500180917965688,47.38539334215574 8.500124281715795,47.385409154088265 8.500054492943933,47.38542958434614 8.499982055707473,47.38545003889031 8.499905699526028,47.38547322790005 8.499835928494756,47.385494557365725 8.499766121593053,47.38551408810848 8.499697656753932,47.38553450598822 8.499614697190786,47.38555865495006 8.499544578545418,47.38557818841959 8.499472158813237,47.38559954198325 8.499394477985375,47.38562274281222 8.499323364443075,47.385643184784385 8.499252268744799,47.385664526052956 8.499181155092096,47.3856849679372 8.499106104540921,47.385707244920994 8.499039056250117,47.38572758547684 8.498958708726562,47.38574991097819 8.498884982204569,47.38577217566531 8.498821777770127,47.3857907457364</coordinates></LineString></Placemark><Placemark id="drawing_feature_1780020653164"><name></name><description>BaslerstrW_EB</description><Style><LineStyle><color>ffff0000</color><width>3</width></LineStyle></Style><ExtendedData><Data name="type"><value>linepolygon</value></Data></ExtendedData><LineString><coordinates>8.49879393087536,47.38577201359737 8.498862414258504,47.38575249559542 8.49894403235872,47.38572745998755 8.49904016302916,47.38569959261347 8.499150752540947,47.38566619541572 8.499250837725114,47.38563739206108 8.499323257597538,47.38561603863651 8.499394371103646,47.38559559666432 8.499465466652934,47.38557425530778 8.499539210561593,47.385552889589 8.499611630203438,47.38553153598302 8.49968274348596,47.38551109383261 8.499759117725946,47.38548880431097 8.499828888780456,47.38546747489163 8.499902632395399,47.38544610894005 8.499975051746267,47.38542475510537 8.500047471039048,47.38540340122516 8.50011858398311,47.38538295880551 8.500192327364761,47.38536159266833 8.50026211599462,47.385341162326704 8.500337147629313,47.385317985248626 8.500410890833273,47.38529661897142 8.50048594025977,47.38527434113663 8.500550449780972,47.38525485864049 8.50060969829763,47.38523722347472 8.500659731144351,47.385222371503886</coordinates></LineString></Placemark><Placemark id="drawing_feature_1780022236555"><name></name><description>Intersection_Area</description><Style><LineStyle><color>ffffffff</color><width>3</width></LineStyle><PolyStyle><color>66ffffff</color></PolyStyle></Style><ExtendedData><Data name="type"><value>linepolygon</value></Data></ExtendedData><Polygon><outerBoundaryIs><LinearRing><coordinates>8.500718721879322,47.38533083134031 8.500901336318709,47.385322855980036 8.50110765822162,47.3852418024118 8.501150012033547,47.38517395004178 8.501050441077943,47.38502914585066 8.500894721529908,47.38499099942624 8.50066222103337,47.38508758484971 8.500591968903914,47.38515119594091 8.500718721879322,47.38533083134031</coordinates></LinearRing></outerBoundaryIs></Polygon></Placemark></Document></kml>