<kml xmlns="http://www.opengis.net/kml/2.2" xmlns:gx="http://www.google.com/kml/ext/2.2" xmlns:xsi="http://www.w3.org/2001/XMLSchema-instance" xsi:schemaLocation="http://www.opengis.net/kml/2.2 https://developers.google.com/kml/schema/kml22gx.xsd"><Document><name>Drawing</name><Placemark id="drawing_feature_1786408842392"><name></name><description>Schweighofstr_NB_CarL1</description><Style><LineStyle><color>ffffffff</color><width>3</width></LineStyle><PolyStyle><color>66ffffff</color></PolyStyle></Style><ExtendedData><Data name="type"><value>linepolygon</value></Data></ExtendedData><Polygon><outerBoundaryIs><LinearRing><coordinates>8.501425028980352,47.36822319862845 8.501466244686032,47.36823051664709 8.501417049848508,47.36836645354243 8.501400815466951,47.36840332338424 8.501386988953673,47.36844033050557 8.5013642724364,47.368496309126286 8.501345473442237,47.36854955316763 8.501340644432728,47.36857298485069 8.501335887131145,47.368600013912335 8.501331291176507,47.368635137076176 8.501292883420064,47.3686345909386 8.501293830733008,47.36861569251973 8.501296083904167,47.36859588257668 8.50129960707712,47.36857336241979 8.501308281967063,47.368543598786665 8.501324523068169,47.3684948758346 8.50134584413166,47.36843531202247 8.50136467894206,47.36838386666882 8.501383477858576,47.36833062262175 8.501403636373958,47.368279165079734 8.501425028980352,47.36822319862845</coordinates></LinearRing></outerBoundaryIs></Polygon></Placemark><Placemark id="drawing_feature_1786408987857"><name></name><description>Schweighofstr_SB_CarL1</description><Style><LineStyle><color>ff0000ff</color><width>3</width></LineStyle><PolyStyle><color>660000ff</color></PolyStyle></Style><ExtendedData><Data name="type"><value>linepolygon</value></Data></ExtendedData><Polygon><outerBoundaryIs><LinearRing><coordinates>8.501425028980352,47.36822319862845 8.501383812607559,47.36821458277925 8.50136995027445,47.368249791210985 8.50134478347151,47.36831568698445 8.501319742100195,47.36838787816473 8.501285774796845,47.36847724214395 8.501268120246795,47.368521480546086 8.501258103626167,47.368550357010584 8.501248033215028,47.36857653543966 8.501237801456481,47.3685946197649 8.50121447523227,47.36862002063229 8.501198894527526,47.368635455633225 8.501262525948453,47.36863936778298 8.50128046737591,47.36860951889927 8.50129960707712,47.36857336241979 8.501308281967063,47.368543598786665 8.50134584413166,47.36843531202247 8.501383477858576,47.36833062262175 8.501425028980352,47.36822319862845</coordinates></LinearRing></outerBoundaryIs></Polygon></Placemark><Placemark id="drawing_feature_1786409067037"><name></name><description>BirmensdorferstrE_EB_CarL1</description><Style><LineStyle><color>ff0000ff</color><width>3</width></LineStyle><PolyStyle><color>660000ff</color></PolyStyle></Style><ExtendedData><Data name="type"><value>linepolygon</value></Data></ExtendedData><Polygon><outerBoundaryIs><LinearRing><coordinates>8.502760297515152,47.36892804542104 8.502640850885783,47.368913854159004 8.50256402372469,47.36890353603873 8.502485704531196,47.36889346331965 8.502412698486122,47.36888424112329 8.502177794992427,47.368856720531774 8.501948186908933,47.36882915071467 8.501726539745265,47.36880240667952 8.501584535429892,47.36878572342088 8.501578436509304,47.36881186532885 8.501704519520695,47.3688268961154 8.501908921597119,47.368851999928005 8.502143806989373,47.36887862172224 8.502308387994258,47.36889869442576 8.502462342876894,47.368917065747965 8.502605707510725,47.36893553442034 8.502697114417888,47.36894661770821 8.502697114417888,47.36894661770821 8.502751533613639,47.36895331243769 8.502766615973469,47.368979259268066 8.502839640163584,47.36898938058467 8.502949766577066,47.36900095899629 8.502966275651438,47.368965725985774 8.502905075849647,47.3689509982474 8.502833321633855,47.36893816674181 8.502760297515152,47.36892804542104</coordinates></LinearRing></outerBoundaryIs></Polygon></Placemark><Placemark id="drawing_feature_1786409152677"><name></name><description>BirmensdorferstrW_EB_CarL2</description><Style><LineStyle><color>ff0000ff</color><width>3</width></LineStyle><PolyStyle><color>660000ff</color></PolyStyle></Style><ExtendedData><Data name="type"><value>linepolygon</value></Data></ExtendedData><Polygon><outerBoundaryIs><LinearRing><coordinates>8.499925160262059,47.36863457326249 8.50000084892091,47.36864557139404 8.500083138644202,47.36865560930386 8.50013623342609,47.36866231743257 8.50016013324559,47.368665695820475 8.500231725265703,47.368670434885125 8.50029938175439,47.36867700909904 8.50038957849054,47.3686851750926 8.500458540892964,47.36869083769929 8.500542118732062,47.36869906442225 8.500615106283693,47.368707388457636 8.500693389015531,47.36871566375712 8.500770347982153,47.36872395117684 8.500906037352935,47.368736535359 8.500988229103802,47.36874508467371 8.500993058283933,47.36872165300661 8.500918415275212,47.36871269487472 8.500841456301835,47.36870440755372 8.500781742444808,47.36869776061711 8.500704801431677,47.36869037254976 8.500626500819136,47.368681197913105 8.50054424678337,47.368672959080456 8.500464640349316,47.36866469584956 8.500391670791807,47.36865727106376 8.50031873707641,47.368651644921606 8.500235195165141,47.36864521672654 8.500157208371247,47.36863578893905 8.500084185175405,47.36862566592402 8.500004525166645,47.36861470434082 8.499931519933048,47.36860548057411 8.499925160262059,47.36863457326249</coordinates></LinearRing></outerBoundaryIs></Polygon></Placemark><Placemark id="drawing_feature_1786409271141"><name></name><description>BirmensdorferstrW_EB_CarL1</description><Style><LineStyle><color>ffffffff</color><width>3</width></LineStyle><PolyStyle><color>66ffffff</color></PolyStyle></Style><ExtendedData><Data name="type"><value>linepolygon</value></Data></ExtendedData><Polygon><outerBoundaryIs><LinearRing><coordinates>8.500371769407025,47.36863921386685 8.50047525770789,47.368649956139706 8.500549551054952,47.36865736870184 8.500625186126861,47.368665668389326 8.500703468798948,47.36867394368208 8.500787046649348,47.3686821702277 8.500938316961108,47.3686987692416 8.501004667706399,47.36870625456202 8.501009407262977,47.368678326170084 8.500931771500369,47.36867014954303 8.500813038599562,47.36865764444434 8.500720176352086,47.36864860378242 8.500652519847575,47.36864202981517 8.500608745279866,47.36863793475842 8.500554398334964,47.36863483639731 8.500498817178679,47.36863624690512 8.500371769407025,47.36863921386685</coordinates></LinearRing></outerBoundaryIs></Polygon></Placemark><Placemark id="drawing_feature_1786409420366"><name></name><description>BirmensdorferstrW_WB_CarL1</description><Style><LineStyle><color>ffffffff</color><width>3</width></LineStyle><PolyStyle><color>66ffffff</color></PolyStyle></Style><ExtendedData><Data name="type"><value>linepolygon</value></Data></ExtendedData><Polygon><outerBoundaryIs><LinearRing><coordinates>8.500981991411667,47.36889715916416 8.500923583193487,47.36888960078082 8.50084394053718,47.36887953912261 8.500764297910957,47.368869477409476 8.500688626693588,47.36885937912416 8.500614279297587,47.36884926861766 8.50054127363697,47.36884004523732 8.500476192841592,47.368829849446406 8.500414993884265,47.36881512038695 8.500355082929213,47.3687985804367 8.500317766014401,47.368786330323175 8.50061903698758,47.36882223958774 8.500702668809911,47.368833164228455 8.500778339992708,47.368843262504626 8.50085266949148,47.36885247356074 8.500929646601795,47.36886166021859 8.500988054790207,47.36886921859894 8.500981991411667,47.36889715916416</coordinates></LinearRing></outerBoundaryIs></Polygon></Placemark><Placemark id="drawing_feature_1786409495562"><name></name><description>BirmensdorferstrW_WB_CarL2</description><Style><LineStyle><color>ff0000ff</color><width>3</width></LineStyle><PolyStyle><color>660000ff</color></PolyStyle></Style><ExtendedData><Data name="type"><value>linepolygon</value></Data></ExtendedData><Polygon><outerBoundaryIs><LinearRing><coordinates>8.500998161229278,47.368844838884286 8.500945066156962,47.36883813115247 8.500936890424894,47.36882651272269 8.500939322951886,47.3688156962353 8.500904796840391,47.36881061671897 8.500825190144706,47.3688023537371 8.500675207531184,47.368783943713616 8.500525242935735,47.36876643283991 8.500367299873867,47.36874719609417 8.5002916468159,47.368737996893024 8.5001336681071,47.36871696113765 8.499983650162427,47.36869675152513 8.499909303127188,47.36868664056396 8.499899267835056,47.368714617564194 8.499974956602303,47.368725615712414 8.5000519512844,47.36873570230102 8.500126298415196,47.36874581317013 8.500205994463121,47.36875857335855 8.500277783624721,47.36877320518803 8.500317766014401,47.368786330323175 8.50061903698758,47.36882223958774 8.500778339992708,47.368843262504626 8.500929646601795,47.36886166021859 8.500988054790207,47.36886921859894 8.500998161229278,47.368844838884286</coordinates></LinearRing></outerBoundaryIs></Polygon></Placemark><Placemark id="drawing_feature_1786409630138"><name></name><description>BirmensdorferstrE_WB_CarL2</description><Style><LineStyle><color>ff0000ff</color><width>3</width></LineStyle><PolyStyle><color>660000ff</color></PolyStyle></Style><ExtendedData><Data name="type"><value>linepolygon</value></Data></ExtendedData><Polygon><outerBoundaryIs><LinearRing><coordinates>8.502722329613457,47.36908221138918 8.502619416224569,47.36906943047744 8.502546151434435,47.36906172741096 8.502466526161717,47.369052566217476 8.50238956645657,47.36904427992971 8.502312588830684,47.36903509424608 8.502264860365816,47.36903193573549 8.502158615716464,47.369015823380266 8.502076342986458,47.36900668629597 8.501998023733474,47.368996613246246 8.501922387977867,47.368988314459344 8.501846734309014,47.368979116278304 8.501765767549172,47.368969067442215 8.501682153229535,47.36895904291694 8.50157732235775,47.36894741456537 8.501586068882897,47.36892124829319 8.501639146185472,47.36892705638531 8.501770506730065,47.36894113902129 8.50197356754175,47.36896535555871 8.502175304742199,47.36898958392811 8.502374394533389,47.36901383632825 8.502513734162562,47.36902964365609 8.502667335867777,47.36904673762526 8.50273028058963,47.369054224699134 8.502809269405649,47.36905982217273 8.502880808328076,47.36906186156034 8.502944404471062,47.36906397409353 8.502943691155354,47.36909456399991 8.502870828388389,47.36909253684872 8.50278730343063,47.36908700984635 8.502722329613457,47.36908221138918</coordinates></LinearRing></outerBoundaryIs></Polygon></Placemark><Placemark id="drawing_feature_1786409737606"><name></name><description>BirmensdorferstrE_WB_CarL1</description><Style><LineStyle><color>ffffffff</color><width>3</width></LineStyle><PolyStyle><color>66ffffff</color></PolyStyle></Style><ExtendedData><Data name="type"><value>linepolygon</value></Data></ExtendedData><Polygon><outerBoundaryIs><LinearRing><coordinates>8.501571187550836,47.368971757782454 8.501625606630817,47.36897845304278 8.50175702110445,47.36899523372764 8.501837969965752,47.369004383225224 8.501914965403412,47.36901446857003 8.50199194293095,47.3690236545189 8.502068866663341,47.369030142382854 8.502158938673919,47.36903201158114 8.502264860365816,47.36903193573549 8.502076342986458,47.36900668629597 8.501922387977867,47.368988314459344 8.501846734309014,47.368979116278304 8.501765767549172,47.368969067442215 8.501682153229535,47.36895904291694 8.50157732235775,47.36894741456537 8.501571187550836,47.368971757782454</coordinates></LinearRing></outerBoundaryIs></Polygon></Placemark><Placemark id="drawing_feature_1786410096526"><name></name><description>Schaufelbergerstr_SB_CarL1</description><Style><LineStyle><color>ff0000ff</color><width>3</width></LineStyle><PolyStyle><color>660000ff</color></PolyStyle></Style><ExtendedData><Data name="type"><value>linepolygon</value></Data></ExtendedData><Polygon><outerBoundaryIs><LinearRing><coordinates>8.501356381989675,47.369039017752534 8.501361808753458,47.36905120130426 8.501382717449882,47.36909814307237 8.501410484345671,47.36916265227188 8.501352416417303,47.369172181653084 8.501324380666547,47.36909418227072 8.5012969366063,47.3690458612524 8.501283340085946,47.36902799615292 8.501346631342928,47.3690148207079 8.501356381989675,47.369039017752534</coordinates></LinearRing></outerBoundaryIs></Polygon></Placemark><Placemark id="drawing_feature_1786410140262"><name></name><description>Schaufelbergerstr_NB_CarL1</description><Style><LineStyle><color>ffffffff</color><width>3</width></LineStyle><PolyStyle><color>66ffffff</color></PolyStyle></Style><ExtendedData><Data name="type"><value>linepolygon</value></Data></ExtendedData><Polygon><outerBoundaryIs><LinearRing><coordinates>8.501410484345671,47.36916265227188 8.501469840192325,47.36915131199095 8.501453004291287,47.369103792903715 8.501449908440161,47.3690813336514 8.501453323999074,47.36905341742556 8.501467419581427,47.369029900472206 8.501489547583569,47.3690108071507 8.501373071417875,47.36901277841655 8.501381534137003,47.36903878632858 8.501361808753458,47.36905120130426 8.501382717449882,47.36909814307237 8.501410484345671,47.36916265227188</coordinates></LinearRing></outerBoundaryIs></Polygon></Placemark></Document></kml>