<kml xmlns="http://www.opengis.net/kml/2.2" xmlns:gx="http://www.google.com/kml/ext/2.2" xmlns:xsi="http://www.w3.org/2001/XMLSchema-instance" xsi:schemaLocation="http://www.opengis.net/kml/2.2 https://developers.google.com/kml/schema/kml22gx.xsd"><Document><name>Drawing</name><Placemark id="drawing_feature_1784663256894"><name></name><description>Bullingerstr_Stop</description><Style><LineStyle><color>ff0000ff</color><width>3</width></LineStyle></Style><ExtendedData><Data name="type"><value>linepolygon</value></Data></ExtendedData><LineString><coordinates>8.506336313693252,47.38318102304093,0 8.506246884148934,47.38308020524245,0</coordinates></LineString></Placemark><Placemark id="drawing_feature_1784663294796"><name></name><description>Bullingerstr_Yield</description><Style><LineStyle><color>ff008000</color><width>3</width></LineStyle></Style><ExtendedData><Data name="type"><value>linepolygon</value></Data></ExtendedData><LineString><coordinates>8.506288392872198,47.38323542733892,0 8.50615574396334,47.38309273205578,0</coordinates></LineString></Placemark><Placemark id="drawing_feature_1784663334903"><name></name><description>Baslerstr_Stop</description><Style><LineStyle><color>ff0000ff</color><width>3</width></LineStyle></Style><ExtendedData><Data name="type"><value>linepolygon</value></Data></ExtendedData><LineString><coordinates>8.505966722407411,47.38337513338977,0 8.505855674611393,47.38325292685915,0</coordinates></LineString></Placemark><Placemark id="drawing_feature_1784663355713"><name></name><description>Baslerstr_Yield</description><Style><LineStyle><color>ff008000</color><width>3</width></LineStyle></Style><ExtendedData><Data name="type"><value>linepolygon</value></Data></ExtendedData><LineString><coordinates>8.506055162080607,47.38336081478808,0 8.505876420204057,47.383164583597654,0</coordinates></LineString></Placemark><Placemark id="drawing_feature_1784663386979"><name></name><description>HerdernstrS_Stop</description><Style><LineStyle><color>ff0000ff</color><width>3</width></LineStyle></Style><ExtendedData><Data name="type"><value>linepolygon</value></Data></ExtendedData><LineString><coordinates>8.505849757165171,47.38315583483184,0 8.50599789081469,47.383079807345645,0</coordinates></LineString></Placemark><Placemark id="drawing_feature_1784663413042"><name></name><description>HerdernstrS_Yield</description><Style><LineStyle><color>ff008000</color><width>3</width></LineStyle></Style><ExtendedData><Data name="type"><value>linepolygon</value></Data></ExtendedData><LineString><coordinates>8.506206213968122,47.38309947069496,0 8.505829659851898,47.38327655432902,0</coordinates></LineString></Placemark><Placemark id="drawing_feature_1784663442062"><name></name><description>HerdernstrN_Stop</description><Style><LineStyle><color>ff0000ff</color><width>3</width></LineStyle></Style><ExtendedData><Data name="type"><value>linepolygon</value></Data></ExtendedData><LineString><coordinates>8.506161336796504,47.38337153630774,0 8.506284268177199,47.38329796639424,0</coordinates></LineString></Placemark><Placemark id="drawing_feature_1784663467069"><name></name><description>HerdernstrN_Yield</description><Style><LineStyle><color>ff008000</color><width>3</width></LineStyle></Style><ExtendedData><Data name="type"><value>linepolygon</value></Data></ExtendedData><LineString><coordinates>8.50600198820609,47.38335052091694,0 8.506282059672637,47.383183323431325,0</coordinates></LineString></Placemark><Placemark id="drawing_feature_1784664486023"><name></name><description>Bullingerstr_WB</description><Style><LineStyle><color>ffff0000</color><width>3</width></LineStyle></Style><ExtendedData><Data name="type"><value>linepolygon</value></Data></ExtendedData><LineString><coordinates>8.506278538232083,47.38314017072286 8.506323180856203,47.38312086853417 8.506377038413238,47.38309878264527 8.506475520421533,47.38305649514312 8.506570083907084,47.383016942295896 8.506641028957194,47.38298840178431 8.506711955907555,47.3829589618889 8.506810473442,47.38291847277913 8.506870897215318,47.382893627425474 8.506932609017204,47.382866971116165 8.50697726920334,47.38284856801289</coordinates></LineString></Placemark><Placemark id="drawing_feature_1784664558647"><name></name><description>Bullingerstr_EB</description><Style><LineStyle><color>ffff0000</color><width>3</width></LineStyle></Style><ExtendedData><Data name="type"><value>linepolygon</value></Data></ExtendedData><LineString><coordinates>8.506268980945178,47.38312586693833 8.506309705174258,47.38310929948377 8.506371453542986,47.383084442156104 8.506420050502106,47.383064203876934 8.506500156582597,47.383030181745305 8.50657895643921,47.38299707113761 8.506702380513238,47.38294375879951 8.506802204142252,47.38290235811533 8.506892830746096,47.38286464040922 8.506963757392406,47.38283520035797</coordinates></LineString></Placemark><Placemark id="drawing_feature_1784664615738"><name></name><description>Baslerstr_WB</description><Style><LineStyle><color>ffff0000</color><width>3</width></LineStyle></Style><ExtendedData><Data name="type"><value>linepolygon</value></Data></ExtendedData><LineString><coordinates>8.505956814596606,47.383343733257774 8.505912595411049,47.38336278641182 8.505825903706992,47.38339866796893 8.50577070345638,47.38341986648941 8.50570233364658,47.383444784642826 8.5056273429979,47.383469763900834 8.505558955052553,47.38349378262894 8.505489206882821,47.38351601486388 8.505415630200664,47.383545478456284 8.505351304539765,47.383573957080976 8.505283024334766,47.383603371684785 8.505218680534313,47.3836309508951 8.505152994509817,47.38365764295285 8.505084732084443,47.38368795677866 8.505019063917853,47.383715548099765 8.504949477180022,47.38374587406712 8.504885133034628,47.38377345309027 8.504822112985995,47.383801019857586 8.504751201860117,47.38383135792444 8.504682903003857,47.38385987283101 8.504625250957567,47.38388553472447 8.504554339606994,47.38391587266959 8.504486058523353,47.383945286799054 8.504420407714568,47.383973777117454</coordinates></LineString></Placemark><Placemark id="drawing_feature_1784664805867"><name></name><description>Baslerstr_EB</description><Style><LineStyle><color>ffff0000</color><width>3</width></LineStyle></Style><ExtendedData><Data name="type"><value>linepolygon</value></Data></ExtendedData><LineString><coordinates>8.505895567887501,47.38327149155766 8.505846447067043,47.38330022036751 8.505780851805673,47.38333140948513 8.505716526598691,47.38335988831513 8.505650877169959,47.38338837933839 8.505598510922725,47.38341224115985 8.505524952448246,47.3834426041629 8.505461933122374,47.383470171282255 8.50538180771525,47.38350329334893 8.505316157930633,47.38353178418059 8.505247877760308,47.383561198764006 8.5051835339926,47.383588777955055 8.505109993034509,47.38362004003204 8.505048297443352,47.38364759470101 8.504985277628121,47.38367516155846 8.504914348769208,47.383704600386636 8.504844743993605,47.383734026950904 8.504780399808281,47.383761605915836 8.504712101057109,47.38379012084028 8.504651729226875,47.383817663077416 8.504578125466514,47.38384928218673 8.504517735512957,47.38387592501321 8.5044494364745,47.383904439781304 8.504378524998577,47.38393477761825</coordinates></LineString></Placemark><Placemark id="drawing_feature_1784665235073"><name></name><description>HerdernstrN_NB</description><Style><LineStyle><color>ffff0000</color><width>3</width></LineStyle></Style><ExtendedData><Data name="type"><value>linepolygon</value></Data></ExtendedData><LineString><coordinates>8.50632002581374,47.383391447785435 8.506377865296859,47.38343588857589 8.5064370470508,47.383481216438284 8.506489536043993,47.383523008105136 8.50653932274234,47.383562126207124 8.506586407132389,47.38359857074784 8.506638878335771,47.38363946300544 8.506652354223403,47.38365103201552</coordinates></LineString></Placemark><Placemark id="drawing_feature_1784665293949"><name></name><description>HerdernstrN_SB</description><Style><LineStyle><color>ffff0000</color><width>3</width></LineStyle></Style><ExtendedData><Data name="type"><value>linepolygon</value></Data></ExtendedData><LineString><coordinates>8.506610665971579,47.38368559862388 8.506591839379174,47.383671380550204 8.506542052540105,47.38363226247221 8.506490905575962,47.383591357931536 8.506434408005564,47.38354780430142 8.506384657434387,47.38351048483375 8.50633084438105,47.38346870535614 8.506289092929741,47.38343401044317 8.50626486179995,47.38341444522202</coordinates></LineString></Placemark><Placemark id="drawing_feature_1784665494170"><name></name><description>HerdernstrS_SB</description><Style><LineStyle><color>ffff0000</color><width>3</width></LineStyle></Style><ExtendedData><Data name="type"><value>linepolygon</value></Data></ExtendedData><LineString><coordinates>8.505339227890836,47.38269261401728 8.505394399521423,47.38273618042129 8.505448211099829,47.382777960344896 8.505504707046883,47.382821514468006 8.50555585251409,47.38286241945536 8.505604295763144,47.382900650856655 8.505660791968024,47.38294420490177 8.505713261815867,47.38298509758839 8.505768416047694,47.38302776446961 8.505811468740246,47.38306133639462 8.50585320157894,47.38309513214433 8.505909734214143,47.38314048474506</coordinates></LineString></Placemark><Placemark id="drawing_feature_1784665579152"><name></name><description>HerdernstrS_NB</description><Style><LineStyle><color>ffff0000</color><width>3</width></LineStyle></Style><ExtendedData><Data name="type"><value>linepolygon</value></Data></ExtendedData><LineString><coordinates>8.505391667045647,47.38266583250017 8.50545220724519,47.38271294733241 8.505504676704994,47.38275384011676 8.505553119818536,47.38279207154083 8.505606913572942,47.382832952049576 8.505659401275683,47.38287474410223 8.505714573356897,47.382918310350775 8.505760296455858,47.38295296878548 8.505811442245637,47.38299387365793 8.505869298882,47.38303921404867 8.50596210571656,47.38311031722175</coordinates></LineString></Placemark><Placemark id="drawing_feature_1784665643628"><name></name><description>Intersection_Area</description><Style><LineStyle><color>ffffffff</color><width>3</width></LineStyle><PolyStyle><color>66ffffff</color></PolyStyle></Style><ExtendedData><Data name="type"><value>linepolygon</value></Data></ExtendedData><Polygon><outerBoundaryIs><LinearRing><coordinates>8.505966722407411,47.38337513338977 8.505855674611393,47.38325292685915 8.505849757165171,47.38315583483184 8.50599789081469,47.383079807345645 8.506246884148934,47.38308020524245 8.506336313693252,47.38318102304093 8.506284268177199,47.38329796639424 8.506161336796504,47.38337153630774 8.505966722407411,47.38337513338977</coordinates></LinearRing></outerBoundaryIs></Polygon></Placemark></Document></kml>