<?xml version="1.0" encoding="UTF-8"?>
<kml xmlns="http://www.opengis.net/kml/2.2">
  <Document id="root_doc">
    <Document id="gb3">
      <name>gb3</name>
      <Placemark id="gb3.1">
        <Style>
          <LineStyle>
            <color>ffff0000</color>
            <width>2</width>
          </LineStyle>
        </Style>
        <LineString>
          <coordinates>
            8.51055963966818,47.3694655530193,0
            8.51045748606048,47.3695954183948,0
            8.51038224480282,47.3696874330548,0
            8.51033403766063,47.3697476389296,0
            8.51019392461015,47.3699067283685,0
          </coordinates>
        </LineString>
      </Placemark>
      <Placemark id="gb3.2">
        <Style>
          <LineStyle>
            <color>ff00ffff</color>
            <width>2</width>
          </LineStyle>
        </Style>
        <LineString>
          <coordinates>
            8.51142768711178,47.3700687771143,0
            8.51139855377035,47.3700650190316,0
            8.51134149722319,47.3700587002058,0
            8.51122916287997,47.370046045952,0
            8.51104965223808,47.37002515225,0
            8.51085644825427,47.3700015653188,0
            8.51071556569944,47.3699847440425,0
            8.51069654420439,47.3699825033939,0
            8.51066802006507,47.3699795452067,0
            8.51063415170374,47.369976233746,0
            8.51061693322308,47.3699751849508,0
            8.51056236186821,47.3699744828112,0
            8.51048943482539,47.3699751595853,0
            8.5103613759168,47.3699767507469,0
          </coordinates>
        </LineString>
      </Placemark>
      <Placemark id="gb3.3">
        <Style>
          <LineStyle>
            <color>ff0000ff</color>
            <width>2</width>
          </LineStyle>
        </Style>
        <LineString>
          <coordinates>
            8.50836786872291,47.3696815319169,0
            8.50844574067412,47.3696908823457,0
            8.50851588878555,47.3696994985333,0
            8.5086008917585,47.3697095885378,0
            8.50870908255227,47.3697226865932,0
            8.50888741354308,47.3697439977171,0
            8.5090604085711,47.3697653580176,0
            8.50915909700151,47.3697777379822,0
            8.50926787288211,47.3697904272266,0
            8.50941825706418,47.3698079679102,0
            8.50962095422213,47.3698318720813,0
            8.50979153775541,47.3698512393172,0
            8.50988545092456,47.3698620514813,0
            8.5099538045994,47.369869877708,0
            8.51001560399367,47.3698761532234,0
            8.5100862969296,47.3698823462065,0
            8.51015103657427,47.3698873857746,0
            8.51024662332407,47.3698929448524,0
            8.51033090446808,47.3698965944168,0
            8.51040868799686,47.3699015128126,0
            8.51045025592427,47.3699043500242,0
            8.51052449826139,47.3699101069362,0
            8.51058866127843,47.3699159573441,0
            8.51065997153655,47.369923352848,0
            8.51073665033805,47.3699323099445,0
            8.51082462671638,47.3699427735855,0
            8.51090012787056,47.3699521443725,0
            8.51096788890745,47.3699599755025,0
            8.51106180250696,47.369970786709,0
            8.51113848144429,47.3699797435384,0
            8.51121873403348,47.3699894728653,0
            8.51129838564397,47.369998804851,0
            8.51137387885526,47.3700077725363,0
            8.51150916406844,47.3700234364029,0
          </coordinates>
        </LineString>
      </Placemark>
      <Placemark id="gb3.4">
        <Style>
          <LineStyle>
            <color>ffff00ff</color>
            <width>2</width>
          </LineStyle>
        </Style>
        <LineString>
          <coordinates>
            8.51145130341824,47.3699610087358,0
            8.51127084109019,47.3699399630718,0
            8.51099764309211,47.3699076921412,0
            8.51085213124584,47.3698906722924,0
            8.51071875356905,47.3698754733946,0
            8.51043411422144,47.3698404066912,0
          </coordinates>
        </LineString>
      </Placemark>
      <Placemark id="gb3.5">
        <Style>
          <LineStyle>
            <color>ff000000</color>
            <width>2</width>
          </LineStyle>
        </Style>
        <LineString>
          <coordinates>
            8.5100005619759,47.3697960849637,0
            8.50983219595253,47.369774924858,0
            8.50968311772706,47.3697574531765,0
            8.50959681494733,47.3697476177387,0
            8.50952262678439,47.3697386367966,0
            8.50937497172218,47.3697211515239,0
            8.50929437060578,47.3697117464451,0
            8.50920877945171,47.3697019041218,0
            8.50907109501516,47.369684809486,0
            8.50898621542514,47.3696749604039,0
            8.50890275882533,47.369665098074,0
            8.50882215787707,47.3696556926652,0
            8.50874583553517,47.3696467310001,0
            8.50867593593496,47.3696386766635,0
            8.50855110695769,47.3696238795141,0
          </coordinates>
        </LineString>
      </Placemark>
      <Placemark id="gb3.6">
        <Style>
          <LineStyle>
            <color>ff00ff00</color>
            <width>2</width>
          </LineStyle>
        </Style>
        <LineString>
          <coordinates>
            8.50924882720158,47.3704267302198,0
            8.50930930614527,47.3703967603605,0
            8.50936040368027,47.3703721147007,0
            8.50941442524902,47.3703454275774,0
            8.50947725945134,47.37031463006,0
            8.50954125511827,47.3702826131388,0
            8.50960816668424,47.3702481519444,0
            8.50966798757542,47.37021496506,0
            8.50974067425358,47.3701727957687,0
            8.50981506668585,47.3701269848106,0
            8.50987656079871,47.3700885450298,0
            8.50997026787025,47.3700300659646,0
            8.50999954875815,47.3700116653685,0
            8.51005297925873,47.3699793432853,0
            8.51009961025281,47.3699529438806,0
            8.51015801870355,47.3699215794956,0
            8.5101834172493,47.369907475538,0
            8.51020791011345,47.3698907710647,0
            8.51021769449017,47.369880566971,0
          </coordinates>
        </LineString>
      </Placemark>
    </Document>
  </Document>
</kml>
