<kml xmlns="http://www.opengis.net/kml/2.2" xmlns:gx="http://www.google.com/kml/ext/2.2" xmlns:xsi="http://www.w3.org/2001/XMLSchema-instance" xsi:schemaLocation="http://www.opengis.net/kml/2.2 https://developers.google.com/kml/schema/kml22gx.xsd"><Document><name>Drawing</name><Placemark id="drawing_feature_1787523147420"><name></name><description>Burklipl_Quaibr_WB</description><Style><LineStyle><color>ffff0000</color><width>3</width></LineStyle></Style><ExtendedData><Data name="type"><value>linepolygon</value></Data></ExtendedData><LineString><coordinates>8.54390957164583,47.36709426045645,0 8.54376474342758,47.36706956038244,0 8.543584043938198,47.36703890670231,0 8.54321201842476,47.36697590109736,0 8.54279081070709,47.36690346982499,0 8.542473246348452,47.3668489363407,0 8.542347007578687,47.366826755376465,0 8.542300490745156,47.36681820473844,0 8.542231451860383,47.3668089697767,0 8.54216507908033,47.366800608816064,0 8.542082802923503,47.36679150024611,0 8.542023086075451,47.366784874644985,0 8.541946142119167,47.36677751406882,0 8.54191427949995,47.366773320865974,0 8.541846471414722,47.366759576334545,0 8.541793298844762,47.36674929003668,0 8.5417454212178,47.366738953141024,0 8.54164144659269,47.36670752757093,0 8.541576193086835,47.36668926090193,0 8.541538961207678,47.36668152080533,0 8.541508347984603,47.36667371749385,0 8.541461794209628,47.366663367839635,0 8.541401984563361,47.36665224522254,0 8.54131060531513,47.36663602689194,0 8.541237539851103,47.36662413123325,0 8.541164455819912,47.366611336189415,0 8.541008984579685,47.36658403572935,0 8.54092926342939,47.36657040437152,0 8.54088885347843,47.36656251463223,0 8.540828969688588,47.366547794361765,0 8.540775667374074,47.366531212221176,0</coordinates></LineString></Placemark><Placemark id="drawing_feature_1787523277104"><name></name><description>Burklipl_Quaibr_EB</description><Style><LineStyle><color>ffff0000</color><width>3</width></LineStyle></Style><ExtendedData><Data name="type"><value>linepolygon</value></Data></ExtendedData><LineString><coordinates>8.54396757553487,47.3669376266439,0 8.543923799046622,47.366933548014835,0 8.543687298023068,47.36689353382862,0 8.543380378580379,47.366841599530275,0 8.54309202924249,47.36679128587049,0 8.542681468864007,47.366721450939785,0 8.54245028325259,47.366682282938136,0 8.542375604524052,47.36666885088523,0 8.542324129676508,47.366657025150985,0 8.54226527121791,47.36662790355638,0 8.542213087311186,47.36660141670453,0 8.54216095930614,47.36657762784517,0 8.54211819050845,47.36655824712319,0 8.542066099817989,47.366536256898186,0 8.542020776709009,47.366521398127944,0 8.541962179151046,47.3665048671212,0 8.541911579812567,47.36649095822998,0 8.541878281972386,47.36648138162885,0 8.541823637063123,47.36646391327808,0 8.541775722466665,47.36645177771621,0 8.541717236715643,47.36644064261816,0 8.541602968553667,47.36642104506609,0 8.541511296782355,47.36640572920675,0 8.54137842225069,47.366382711044,0 8.54118310973158,47.36634949461075,0 8.541062186162597,47.36632816102892,0 8.540969098004442,47.36630836067876,0 8.540895847114689,47.36628747141194,0</coordinates></LineString></Placemark><Placemark id="drawing_feature_1787523420263"><name></name><description>Burklipl_Quaibr_WB_End2.5Width</description><Style><LineStyle><color>ff00ffff</color><width>3</width></LineStyle></Style><ExtendedData><Data name="type"><value>linepolygon</value></Data></ExtendedData><LineString><coordinates>8.542322235656522,47.36689167267223,0 8.542377388983702,47.36674182583756,0</coordinates></LineString></Placemark><Placemark id="drawing_feature_1787523452391"><name></name><description>Burklipl_Quaibr_WB_Start1.5Width</description><Style><LineStyle><color>ff00ffff</color><width>3</width></LineStyle></Style><ExtendedData><Data name="type"><value>linepolygon</value></Data></ExtendedData><LineString><coordinates>8.542342920820404,47.36673330449188,0 8.54229045211088,47.36688492468873,0</coordinates></LineString></Placemark><Placemark id="drawing_feature_1787544096223"><name></name><description>Stadthausquai_Stop</description><Style><LineStyle><color>ff0000ff</color><width>3</width></LineStyle></Style><ExtendedData><Data name="type"><value>linepolygon</value></Data></ExtendedData><LineString><coordinates>8.54168131357392,47.36681608413086,0 8.541849911499035,47.366837861206015,0</coordinates></LineString></Placemark><Placemark id="drawing_feature_1787544112886"><name></name><description>Fraumunsterstr_Stop</description><Style><LineStyle><color>ff0000ff</color><width>3</width></LineStyle></Style><ExtendedData><Data name="type"><value>linepolygon</value></Data></ExtendedData><LineString><coordinates>8.541456319034848,47.36675616613345,0 8.541573216718175,47.366774839207075,0</coordinates></LineString></Placemark><Placemark id="drawing_feature_1787544128380"><name></name><description>Stadthausquai_Yield</description><Style><LineStyle><color>ff008000</color><width>3</width></LineStyle></Style><ExtendedData><Data name="type"><value>linepolygon</value></Data></ExtendedData><LineString><coordinates>8.541714297716073,47.36674650633004,0 8.541917703311947,47.36678684069887,0</coordinates></LineString></Placemark><Placemark id="drawing_feature_1787544144210"><name></name><description>Fraumunsterstr_Yield</description><Style><LineStyle><color>ff008000</color><width>3</width></LineStyle></Style><ExtendedData><Data name="type"><value>linepolygon</value></Data></ExtendedData><LineString><coordinates>8.541436614720116,47.3666996847438,0 8.541593428854378,47.36672787132403,0</coordinates></LineString></Placemark><Placemark id="drawing_feature_1787544183920"><name></name><description>Burklipl_Quaibr_WB_Stop</description><Style><LineStyle><color>ff0000ff</color><width>3</width></LineStyle></Style><ExtendedData><Data name="type"><value>linepolygon</value></Data></ExtendedData><LineString><coordinates>8.540760828171862,47.36660898782156,0 8.540871730759568,47.366465805846396,0</coordinates></LineString></Placemark><Placemark id="drawing_feature_1787544220332"><name></name><description>Burklipl_Quaibr_EB_Stop</description><Style><LineStyle><color>ff0000ff</color><width>3</width></LineStyle></Style><ExtendedData><Data name="type"><value>linepolygon</value></Data></ExtendedData><LineString><coordinates>8.544167952132595,47.36704263700588,0 8.54413194928725,47.366902656995045,0</coordinates></LineString></Placemark><Placemark id="drawing_feature_1787544320948"><name></name><description>Burklipl_Quaibr_WB_T2_Stop</description><Style><LineStyle><color>ff0000ff</color><width>3</width></LineStyle></Style><ExtendedData><Data name="type"><value>linepolygon</value></Data></ExtendedData><LineString><coordinates>8.542031089471228,47.36683418101827,0 8.542061167163405,47.366688171970104,0</coordinates></LineString></Placemark><Placemark id="drawing_feature_1787544393494"><name></name><description>Burklipl_Quaibr_EB_T2_Stop</description><Style><LineStyle><color>ff0000ff</color><width>3</width></LineStyle></Style><ExtendedData><Data name="type"><value>linepolygon</value></Data></ExtendedData><LineString><coordinates>8.541753491739144,47.366599910979225,0 8.541991915827834,47.366477098220926,0</coordinates></LineString></Placemark><Placemark id="drawing_feature_1787544536014"><name></name><description>Burklipl_Quaibr_Crossing</description><Style><LineStyle><color>ff00a5ff</color><width>3</width></LineStyle></Style><ExtendedData><Data name="type"><value>linepolygon</value></Data></ExtendedData><LineString><coordinates>8.541999917669356,47.36679939767516,0 8.542022032327907,47.366716430874106,0 8.542043698077606,47.36667574563631,0 8.54207103100799,47.36665299658161,0 8.5420879201695,47.366638167721845,0 8.542173408763148,47.36654587543942,0</coordinates></LineString></Placemark><Placemark id="drawing_feature_1787544686059"><name></name><description>Burklipl_Quaibr_EB_B_Stop</description><Style><LineStyle><color>ff0000ff</color><width>3</width></LineStyle></Style><ExtendedData><Data name="type"><value>linepolygon</value></Data></ExtendedData><LineString><coordinates>8.54193367966858,47.36666960055463,0 8.542115818387296,47.3665140431029,0</coordinates></LineString></Placemark><Placemark id="drawing_feature_1787544825145"><name></name><description>Burklipl_Quaibr_WB_T1_Yield</description><Style><LineStyle><color>ff008000</color><width>3</width></LineStyle></Style><ExtendedData><Data name="type"><value>linepolygon</value></Data></ExtendedData><LineString><coordinates>8.541421226286745,47.366730264874775,0 8.541485164333766,47.3665569471696,0</coordinates></LineString></Placemark><Placemark id="drawing_feature_1787544860396"><name></name><description>Burklipl_Quaibr_WB_T1_Stop</description><Style><LineStyle><color>ff0000ff</color><width>3</width></LineStyle></Style><ExtendedData><Data name="type"><value>linepolygon</value></Data></ExtendedData><LineString><coordinates>8.541588611744961,47.36675745100502,0 8.541652791184257,47.36659582461384,0</coordinates></LineString></Placemark><Placemark id="drawing_feature_1787544925298"><name></name><description>Burklipl_Quaibr_WB_T2_Yield</description><Style><LineStyle><color>ff008000</color><width>3</width></LineStyle></Style><ExtendedData><Data name="type"><value>linepolygon</value></Data></ExtendedData><LineString><coordinates>8.54169240242327,47.36678254574436,0 8.541757923915355,47.366621805992104,0</coordinates></LineString></Placemark></Document></kml>