<kml xmlns="http://www.opengis.net/kml/2.2" xmlns:gx="http://www.google.com/kml/ext/2.2" xmlns:xsi="http://www.w3.org/2001/XMLSchema-instance" xsi:schemaLocation="http://www.opengis.net/kml/2.2 https://developers.google.com/kml/schema/kml22gx.xsd"><Document><name>Drawing</name><Placemark id="drawing_feature_1785965870434"><name></name><description>BirmensdorferstrE_WB</description><Style><LineStyle><color>ffff0000</color><width>3</width></LineStyle></Style><ExtendedData><Data name="type"><value>linepolygon</value></Data></ExtendedData><LineString><coordinates>8.50279074964784,47.3690882352314,0 8.502712919256815,47.369080561277556,0 8.502648338988562,47.369073364586214,0 8.50257136735962,47.36906448390409,0 8.5025386419025,47.36906118920695,0 8.502462552868453,47.3690523003503,0 8.502391770924945,47.369043961913796,0 8.502368777305449,47.369041776261916,0 8.502327190744431,47.36903676504273,0 8.50229890186172,47.36903462811486,0 8.502242348177427,47.36903155276621,0 8.502218495922964,47.369030573713346,0 8.502175251865962,47.369030971910604,0 8.50215230608078,47.36903118319208,0 8.502131125330951,47.369031378217215,0 8.502085185861546,47.36902940375473,0 8.502059568575435,47.36902844091997,0 8.502013605204693,47.369025267954484,0 8.501987081456779,47.36902311469958,0 8.501915405237552,47.36901418485756,0 8.501835774272992,47.369004728847685,0 8.501763203554853,47.36899520777073,0 8.501688009170671,47.36898690951789,0 8.50164376317593,47.368981323182666,0 8.50156501482503,47.368971858836495,0</coordinates></LineString></Placemark><Placemark id="drawing_feature_1785965989157"><name></name><description>BirmensdorferstrE_EB</description><Style><LineStyle><color>ffff0000</color><width>3</width></LineStyle></Style><ExtendedData><Data name="type"><value>linepolygon</value></Data></ExtendedData><LineString><coordinates>8.502831873557762,47.36893741784866,0 8.502754890133101,47.36892793805138,0 8.502644262924713,47.36891337395406,0 8.502567255648723,47.36890269552967,0 8.502485871662842,47.368893855463696,0 8.502406228818742,47.36888380058247,0 8.502329245547303,47.36887432050102,0 8.50225315681512,47.36886543150579,0 8.502172643457193,47.36885598382766,0 8.502098343715657,47.36884827697998,0 8.502020477995318,47.36883880481851,0 8.501940847273753,47.368829348853204,0 8.501866511747687,47.3688198441169,0 8.501791305644277,47.3688109466935,0 8.501716099565986,47.36880204922124,0 8.501655932379542,47.3687948113327,0 8.501588680959092,47.368786439886655,0</coordinates></LineString></Placemark><Placemark id="drawing_feature_1785966089230"><name></name><description>BirmensdorferstrW_WB</description><Style><LineStyle><color>ffff0000</color><width>3</width></LineStyle></Style><ExtendedData><Data name="type"><value>linepolygon</value></Data></ExtendedData><LineString><coordinates>8.499885336155861,47.36871308858857,0 8.49997474568505,47.36872605222155,0 8.500051752186108,47.368736732376306,0 8.500126969826255,47.36874623017095,0 8.50019159708925,47.36875582527884,0 8.500211966862192,47.36875923420032,0 8.500273159571451,47.368773655661904,0 8.500306015987924,47.36878354272392,0 8.500348639785111,47.36879633675704,0 8.500364632695812,47.368801583953456,0 8.50041700027006,47.36881608648988,0 8.500437405806629,47.368821293112134,0 8.500477262800766,47.36882811897885,0 8.500505611182016,47.36883325254065,0 8.500542808672215,47.36883950348785,0 8.50060299963291,47.368847940445214,0 8.500687066718529,47.36885855524707,0 8.500766697261291,47.36886801207743,0 8.500846327831766,47.36887746882518,0 8.50092801210146,47.368888317673026,0 8.500982001643772,47.36889561273333,0</coordinates></LineString></Placemark><Placemark id="drawing_feature_1785966231187"><name></name><description>BirmensdorferstrW_EB</description><Style><LineStyle><color>ffff0000</color><width>3</width></LineStyle></Style><ExtendedData><Data name="type"><value>linepolygon</value></Data></ExtendedData><LineString><coordinates>8.499921368551465,47.3686026368055,0 8.500003681982232,47.36861386757545,0 8.500078350439844,47.36862439620741,0 8.500142632061586,47.368632369410435,0 8.500162977918938,47.36863457983817,0 8.500213413106232,47.36864070922743,0 8.500238171487467,47.36864287908624,0 8.50030006244607,47.3686488615432,0 8.500330115985903,47.36865098271038,0 8.500375234156637,47.36865498514591,0 8.500400866443687,47.368656966879136,0 8.500463639826858,47.368662941109434,0 8.500494599887016,47.36866625262204,0 8.500548541316718,47.36867115090897,0 8.500621996055838,47.368679687553566,0 8.500705151133007,47.368689522454034,0 8.500777685427211,47.36869724645745,0 8.50086170446722,47.36870546414236,0 8.500913880945118,47.3687103784908,0 8.500961656294994,47.36871590880232,0 8.501005878194842,47.36872029692389,0</coordinates></LineString></Placemark><Placemark id="drawing_feature_1785966504099"><name></name><description>Schweighofstr_NB</description><Style><LineStyle><color>ffff0000</color><width>3</width></LineStyle></Style><ExtendedData><Data name="type"><value>linepolygon</value></Data></ExtendedData><LineString><coordinates>8.501470843585743,47.36821255100171,0 8.501445777781765,47.36828350569008,0 8.501417301270784,47.36836048539294,0 8.501402967371872,47.368394181232134,0 8.501387918316583,47.368436274677016,0 8.50138033400851,47.36845432515685,0 8.501366882610283,47.36848801287009,0 8.501359334125572,47.368507861088,0 8.50134601410529,47.36854814054711,0 8.501340194787467,47.36856617478397,0 8.501336236132868,47.368588986734466,0 8.50133323162013,47.368615386072,0 8.501334675619974,47.368643542549144,0</coordinates></LineString></Placemark><Placemark id="drawing_feature_1785966726918"><name></name><description>Schaufelbergerstr_Stop</description><Style><LineStyle><color>ff0000ff</color><width>3</width></LineStyle></Style><ExtendedData><Data name="type"><value>linepolygon</value></Data></ExtendedData><LineString><coordinates>8.501245697857222,47.369095077302795,0 8.501517528172393,47.36904882316674,0</coordinates></LineString></Placemark><Placemark id="drawing_feature_1785966767682"><name></name><description>Schaufelbergerstr_Yield</description><Style><LineStyle><color>ff008000</color><width>3</width></LineStyle></Style><ExtendedData><Data name="type"><value>linepolygon</value></Data></ExtendedData><LineString><coordinates>8.501168564456787,47.368934795176294,0 8.50157739245424,47.36898617431677,0</coordinates></LineString></Placemark><Placemark id="drawing_feature_1785966797113"><name></name><description>BirmensdorferstrW_Stop</description><Style><LineStyle><color>ff0000ff</color><width>3</width></LineStyle></Style><ExtendedData><Data name="type"><value>linepolygon</value></Data></ExtendedData><LineString><coordinates>8.500936054711918,47.36866134794236,0 8.50086704600275,47.36896345885662,0</coordinates></LineString></Placemark><Placemark id="drawing_feature_1785966832743"><name></name><description>BirmensdorferstrW_Yield</description><Style><LineStyle><color>ff008000</color><width>3</width></LineStyle></Style><ExtendedData><Data name="type"><value>linepolygon</value></Data></ExtendedData><LineString><coordinates>8.50111870791071,47.368669972992244,0 8.50104646872304,47.3689870976939,0</coordinates></LineString></Placemark><Placemark id="drawing_feature_1785966856389"><name></name><description>BirmensdorferstrE_Stop</description><Style><LineStyle><color>ff0000ff</color><width>3</width></LineStyle></Style><ExtendedData><Data name="type"><value>linepolygon</value></Data></ExtendedData><LineString><coordinates>8.501608331724722,47.36901069731909,0 8.50167835192477,47.36875952188297,0</coordinates></LineString></Placemark><Placemark id="drawing_feature_1785966874513"><name></name><description>BirmensdorferstrE_Yield</description><Style><LineStyle><color>ff008000</color><width>3</width></LineStyle></Style><ExtendedData><Data name="type"><value>linepolygon</value></Data></ExtendedData><LineString><coordinates>8.501454460703862,47.36899653002211,0 8.501520068924544,47.36874539531267,0</coordinates></LineString></Placemark><Placemark id="drawing_feature_1785966917302"><name></name><description>Schweighofstr_Stop</description><Style><LineStyle><color>ff0000ff</color><width>3</width></LineStyle></Style><ExtendedData><Data name="type"><value>linepolygon</value></Data></ExtendedData><LineString><coordinates>8.501467971200068,47.36861161889003,0 8.501106540949,47.36859096991841,0</coordinates></LineString></Placemark><Placemark id="drawing_feature_1785966936770"><name></name><description>Schweighofstr_Yield</description><Style><LineStyle><color>ff008000</color><width>3</width></LineStyle></Style><ExtendedData><Data name="type"><value>linepolygon</value></Data></ExtendedData><LineString><coordinates>8.50102684271151,47.36871097493663,0 8.501575335175065,47.3687724571373,0</coordinates></LineString></Placemark><Placemark id="drawing_feature_1785966982378"><name></name><description>Intersection_Area</description><Style><LineStyle><color>ffffffff</color><width>3</width></LineStyle><PolyStyle><color>66ffffff</color></PolyStyle></Style><ExtendedData><Data name="type"><value>linepolygon</value></Data></ExtendedData><Polygon><outerBoundaryIs><LinearRing><coordinates>8.501517528172393,47.36904882316674,0 8.501608331724722,47.36901069731909,0 8.50167835192477,47.36875952188297,0 8.501467971200068,47.36861161889003,0 8.501106540949,47.36859096991841,0 8.500936054711918,47.36866134794236,0 8.50086704600275,47.36896345885662,0 8.501245697857222,47.369095077302795,0 8.501517528172393,47.36904882316674,0</coordinates></LinearRing></outerBoundaryIs></Polygon></Placemark></Document></kml>