<kml xmlns="http://www.opengis.net/kml/2.2" xmlns:gx="http://www.google.com/kml/ext/2.2" xmlns:xsi="http://www.w3.org/2001/XMLSchema-instance" xsi:schemaLocation="http://www.opengis.net/kml/2.2 https://developers.google.com/kml/schema/kml22gx.xsd"><Document><name>Drawing</name><Placemark id="drawing_feature_1785882684910"><name></name><description>Duttweilerbr_SB</description><Style><LineStyle><color>ffff0000</color><width>3</width></LineStyle></Style><ExtendedData><Data name="type"><value>linepolygon</value></Data></ExtendedData><LineString><coordinates>8.508463486628319,47.38524835409825,0 8.508471413888847,47.385259559389475,0 8.508494205881025,47.38529243107314,0 8.50850924150305,47.38531567900586,0 8.508524331303558,47.385341624953504,0 8.508536718549765,47.38536489740674,0 8.508547835771392,47.38539088013801,0 8.508561673632402,47.385420435698556,0 8.50858120555748,47.38546972766301,0 8.508598125221074,47.385520842827496,0 8.508609936877829,47.38556230972358,0 8.50862263117944,47.385600870927824,0 8.508638172544508,47.38564930033096,0 8.50865503814752,47.38569771746767,0 8.50866773251408,47.38573627866523,0 8.50867757983945,47.38576497166152,0 8.508692994895487,47.38580710568285,0 8.508708500267932,47.385853736395816,0 8.50872948311409,47.38590931143602,0 8.50874912372862,47.38596399939745,0 8.5087758008424,47.38603931082106,0 8.508799612871249,47.386103854702576,0 8.50881506424259,47.38614778738078,0</coordinates></LineString></Placemark><Placemark id="drawing_feature_1785882855359"><name></name><description>Duttweilerbr_NB</description><Style><LineStyle><color>ffff0000</color><width>3</width></LineStyle></Style><ExtendedData><Data name="type"><value>linepolygon</value></Data></ExtendedData><LineString><coordinates>8.508612542201611,47.38519290425766,0 8.508624334632886,47.385211783854714,0 8.508636118913264,47.38524575678255,0 8.508646858023104,47.38527813872562,0 8.508656777481837,47.38531042908375,0 8.50866675112519,47.385345417457614,0 8.508679391242966,47.38538128064115,0 8.508693319464474,47.385415332880854,0 8.50870305839521,47.3854386298441,0 8.50871419377176,47.38546551189766,0 8.508733671678412,47.38551210581877,0 8.508743500938952,47.3855398994725,0 8.50876193938978,47.38560068346592,0 8.508776228910932,47.385652722471015,0 8.508790307811543,47.385706943481004,0 8.508803309297711,47.38576079342408,0 8.508817598902281,47.38581283242149,0 8.50883190659527,47.38586577075513,0 8.508847484349534,47.385915998803746,0 8.508861846283061,47.38597163514833,0 8.508876099878853,47.38602187545757,0 8.508889047344127,47.386073027369534,0 8.508900508058415,47.38611609749713,0</coordinates></LineString></Placemark><Placemark id="drawing_feature_1785883363246"><name></name><description>HohlstrW_EB</description><Style><LineStyle><color>ffff0000</color><width>3</width></LineStyle></Style><ExtendedData><Data name="type"><value>linepolygon</value></Data></ExtendedData><LineString><coordinates>8.508121813859248,47.38511491693359,0 8.50808760135289,47.38512602769639,0 8.50803100382921,47.385143642187195,0 8.507974406268074,47.385161256650036,0 8.507903314681313,47.38518260324899,0 8.507826980377043,47.38520669683855,0 8.507747997607135,47.38523081488415,0 8.507701921284783,47.38524473382926,0 8.50765849333632,47.38525862825119,0</coordinates></LineString></Placemark><Placemark id="drawing_feature_1785883462603"><name></name><description>HohlstrE_WB</description><Style><LineStyle><color>ffff0000</color><width>3</width></LineStyle></Style><ExtendedData><Data name="type"><value>linepolygon</value></Data></ExtendedData><LineString><coordinates>8.509931115249556,47.38465940711451,0 8.509854782612923,47.384683502048645,0 8.509781062124548,47.38470577370093,0 8.509716574721676,47.3847261606968,0 8.509644178302286,47.38474841998546,0 8.509573106008784,47.38477066695426,0 8.509503357842867,47.38479290160565,0 8.509445436954204,47.38481052906502,0 8.509413819085168,47.38481891765921,0 8.509361068407436,47.38483020061321,0 8.509314902511923,47.38483962350858,0 8.509279330107537,47.38484894821879,0 8.509208185261382,47.38486759760616,0 8.509139742940253,47.38488892042815,0 8.509069994438475,47.38491115481696,0 8.50899893975085,47.38493430077018,0 8.508925272742552,47.384959269891375,0 8.508855524059078,47.38498150415011,0 8.508777884340828,47.38500650997493,0 8.50871604457562,47.385026871879845,0 8.50866207769477,47.38504356281257,0 8.508617344023767,47.38505836919891,0</coordinates></LineString></Placemark><Placemark id="drawing_feature_1785883609945"><name></name><description>Herdernstr_Stop</description><Style><LineStyle><color>ff0000ff</color><width>3</width></LineStyle></Style><ExtendedData><Data name="type"><value>linepolygon</value></Data></ExtendedData><LineString><coordinates>8.50825639331117,47.384822024324,0 8.50805465204035,47.384932732100715,0</coordinates></LineString></Placemark><Placemark id="drawing_feature_1785883635975"><name></name><description>Duttweilerbr_Stop</description><Style><LineStyle><color>ff0000ff</color><width>3</width></LineStyle></Style><ExtendedData><Data name="type"><value>linepolygon</value></Data></ExtendedData><LineString><coordinates>8.50837507087017,47.38531857014002,0 8.50872543004865,47.385221777045686,0</coordinates></LineString></Placemark><Placemark id="drawing_feature_1785883715015"><name></name><description>HohlstrE_Stop</description><Style><LineStyle><color>ff0000ff</color><width>3</width></LineStyle></Style><ExtendedData><Data name="type"><value>linepolygon</value></Data></ExtendedData><LineString><coordinates>8.508562620472498,47.3848967640712,0 8.508730097906504,47.385129766550065,0</coordinates></LineString></Placemark><Placemark id="drawing_feature_1785883789282"><name></name><description>HohlstrW_Stop</description><Style><LineStyle><color>ff0000ff</color><width>3</width></LineStyle></Style><ExtendedData><Data name="type"><value>linepolygon</value></Data></ExtendedData><LineString><coordinates>8.508165233544647,47.385289929585845,0 8.508024347359415,47.38506725664856,0</coordinates></LineString></Placemark><Placemark id="drawing_feature_1785883820395"><name></name><description>HohlstrW_Yield</description><Style><LineStyle><color>ff008000</color><width>3</width></LineStyle></Style><ExtendedData><Data name="type"><value>linepolygon</value></Data></ExtendedData><LineString><coordinates>8.508295878026425,47.38526623248056,0 8.508140244743446,47.38503470114673,0</coordinates></LineString></Placemark><Placemark id="drawing_feature_1785883846438"><name></name><description>HohlstrE_Yield</description><Style><LineStyle><color>ff008000</color><width>3</width></LineStyle></Style><ExtendedData><Data name="type"><value>linepolygon</value></Data></ExtendedData><LineString><coordinates>8.5084575699258,47.38494181265489,0 8.508611591215715,47.38515896640613,0</coordinates></LineString></Placemark><Placemark id="drawing_feature_1785883872509"><name></name><description>Herdernstr_Yield</description><Style><LineStyle><color>ff008000</color><width>3</width></LineStyle></Style><ExtendedData><Data name="type"><value>linepolygon</value></Data></ExtendedData><LineString><coordinates>8.508125545610037,47.38509420462344,0 8.508517555724136,47.38496104633353,0</coordinates></LineString></Placemark><Placemark id="drawing_feature_1785883891356"><name></name><description>Duttweilerbr_Yield</description><Style><LineStyle><color>ff008000</color><width>3</width></LineStyle></Style><ExtendedData><Data name="type"><value>linepolygon</value></Data></ExtendedData><LineString><coordinates>8.508224937375163,47.38522910997789,0 8.508683103796178,47.385092640154525,0</coordinates></LineString></Placemark><Placemark id="drawing_feature_1785885383716"><name></name><description>Herdernstr_NB</description><Style><LineStyle><color>ffff0000</color><width>3</width></LineStyle></Style><ExtendedData><Data name="type"><value>linepolygon</value></Data></ExtendedData><LineString><coordinates>8.507833758370776,47.384612062443175 8.50787413343672,47.38464407102169 8.507910463819764,47.38467251899427 8.507966981836201,47.38471697122605 8.508035670279225,47.38477390386982 8.508084153142583,47.384813932886246 8.508119141517076,47.38484149370962 8.508147382641683,47.384862820437576 8.508183767467582,47.38489396633982 8.508221440426897,47.38492330129317 8.508268545222407,47.38496064447159 8.50829549838034,47.38498378210011 8.508327928848884,47.38501586407367</coordinates></LineString></Placemark></Document></kml>