<kml xmlns="http://www.opengis.net/kml/2.2" xmlns:gx="http://www.google.com/kml/ext/2.2" xmlns:xsi="http://www.w3.org/2001/XMLSchema-instance" xsi:schemaLocation="http://www.opengis.net/kml/2.2 https://developers.google.com/kml/schema/kml22gx.xsd"><Document><name>Drawing</name><Placemark id="drawing_feature_1786141809968"><name></name><description>Gutstr_NB</description><Style><LineStyle><color>ffff0000</color><width>3</width></LineStyle></Style><ExtendedData><Data name="type"><value>linepolygon</value></Data></ExtendedData><LineString><coordinates>8.510213138854361,47.37002149902158,0 8.51019340810673,47.37002797864536,0 8.510157881902394,47.370039102353786,0 8.510129010938915,47.370051963334014,0 8.51010144570567,47.370063912683584,0 8.510055563875333,47.3700868260614,0 8.509966465815376,47.37013352754717,0 8.509890407032291,47.3701702134121,0 8.50982881985185,47.370202267463014,0 8.509767214526338,47.37023342213768,0 8.509701691861029,47.37026731163555,0 8.509636132974821,47.37029940240994,0 8.509571933972447,47.37033327955842,0 8.509507680688573,47.37036445864191,0 8.509463086041064,47.37038556082261,0</coordinates></LineString></Placemark><Placemark id="drawing_feature_1786141896865"><name></name><description>BirmensdorferstrW_WB</description><Style><LineStyle><color>ffff0000</color><width>3</width></LineStyle></Style><ExtendedData><Data name="type"><value>linepolygon</value></Data></ExtendedData><LineString><coordinates>8.509940182962897,47.369950679803004 8.509787546333063,47.36993230618533 8.509736357500799,47.36992649896511 8.509676083465775,47.3699201303762 8.509597779501437,47.369910961829824 8.509507643181147,47.369901211062434 8.5092169867682,47.36986702553841 8.509055047800677,47.36984693815642 8.508970106916777,47.369836931182455 8.508897098456602,47.36982771309071 8.508824090021685,47.369818494952746 8.508743614448486,47.369809769249244 8.508674119836616,47.36980099467358 8.508517530679653,47.36978355551062</coordinates></LineString></Placemark><Placemark id="drawing_feature_1786142032939"><name></name><description>Talwiesenstr_NB</description><Style><LineStyle><color>ffff0000</color><width>3</width></LineStyle></Style><ExtendedData><Data name="type"><value>linepolygon</value></Data></ExtendedData><LineString><coordinates>8.510353140410801,47.36981130595194,0 8.510430634495847,47.369714339228885,0 8.510462952245325,47.36967536037116,0 8.510497863318188,47.36963365890511,0 8.510539230626767,47.36958380191397,0 8.510575393050079,47.369538490765784,0 8.510700673416505,47.36938171262628,0</coordinates></LineString></Placemark><Placemark id="drawing_feature_1786142398772"><name></name><description>BirmensdorferstrE_Stop</description><Style><LineStyle><color>ff0000ff</color><width>3</width></LineStyle></Style><ExtendedData><Data name="type"><value>linepolygon</value></Data></ExtendedData><LineString><coordinates>8.510407383291437,47.37007256025921,0 8.510407073248034,47.36979371480889,0</coordinates></LineString></Placemark><Placemark id="drawing_feature_1786142439430"><name></name><description>BirmensdorferstrW_Stop</description><Style><LineStyle><color>ff0000ff</color><width>3</width></LineStyle></Style><ExtendedData><Data name="type"><value>linepolygon</value></Data></ExtendedData><LineString><coordinates>8.50988211998602,47.36976260430994,0 8.509838565051616,47.369967197177395,0</coordinates></LineString></Placemark><Placemark id="drawing_feature_1786142462472"><name></name><description>Gutstr_Stop</description><Style><LineStyle><color>ff0000ff</color><width>3</width></LineStyle></Style><ExtendedData><Data name="type"><value>linepolygon</value></Data></ExtendedData><LineString><coordinates>8.510027183631081,47.37016856379153,0 8.509754218941621,47.36996060995464,0</coordinates></LineString></Placemark><Placemark id="drawing_feature_1786142504459"><name></name><description>Talwiesenstr_Stop</description><Style><LineStyle><color>ff0000ff</color><width>3</width></LineStyle></Style><ExtendedData><Data name="type"><value>linepolygon</value></Data></ExtendedData><LineString><coordinates>8.510445150667671,47.36977177549831,0 8.510298175214054,47.369705675954194,0</coordinates></LineString></Placemark><Placemark id="drawing_feature_1786142529595"><name></name><description>Talwiesenstr_Yield</description><Style><LineStyle><color>ff008000</color><width>3</width></LineStyle></Style><ExtendedData><Data name="type"><value>linepolygon</value></Data></ExtendedData><LineString><coordinates>8.510378504079743,47.36981557044219,0 8.510208621946905,47.369795558379465,0</coordinates></LineString></Placemark><Placemark id="drawing_feature_1786142556891"><name></name><description>BirmensdorferstrE_Yield</description><Style><LineStyle><color>ff008000</color><width>3</width></LineStyle></Style><ExtendedData><Data name="type"><value>linepolygon</value></Data></ExtendedData><LineString><coordinates>8.510288996997684,47.37003947959264,0 8.510349488645543,47.36982123673447,0</coordinates></LineString></Placemark><Placemark id="drawing_feature_1786142593328"><name></name><description>BirmensdorferstrW_Yield</description><Style><LineStyle><color>ff008000</color><width>3</width></LineStyle></Style><ExtendedData><Data name="type"><value>linepolygon</value></Data></ExtendedData><LineString><coordinates>8.509993766430437,47.36977776225207,0 8.509942052114491,47.369971636716045,0</coordinates></LineString></Placemark><Placemark id="drawing_feature_1786142615955"><name></name><description>Gutstr_Yield</description><Style><LineStyle><color>ff008000</color><width>3</width></LineStyle></Style><ExtendedData><Data name="type"><value>linepolygon</value></Data></ExtendedData><LineString><coordinates>8.5096804828879,47.36993538354237,0 8.510330672183372,47.37000491151257,0</coordinates></LineString></Placemark></Document></kml>