<?xml version="1.0" encoding="UTF-8"?>
<kml xmlns="http://www.opengis.net/kml/2.2">
  <Document id="root_doc">
    <Document id="gb3">
      <name>gb3</name>
      <Placemark id="gb3.1">
        <Style>
          <LineStyle>
            <color>ff0000ff</color>
            <width>2</width>
          </LineStyle>
        </Style>
        <LineString>
          <coordinates>
            8.4997545538532,47.3686376649238,0
            8.49983105209486,47.3686476719248,0
            8.49990946725392,47.3686589464387,0
            8.49999103476164,47.3686701919127,0
            8.50007070240902,47.368681026403,0
            8.50014783968886,47.3686914556884,0
            8.50022243818458,47.3687010514854,0
            8.50029765859484,47.3687102131321,0
            8.50037477898714,47.3687197856503,0
            8.50044872149463,47.368728102155,0
            8.50053342444987,47.3687384616712,0
            8.50060422324909,47.3687472353649,0
            8.5006800657326,47.3687559626385,0
            8.50075654725058,47.3687651123915,0
            8.50086905016687,47.3687782147388,0
            8.50095186191319,47.3687885913422,0
            8.50102833498862,47.3687973125881,0
            8.50157322354324,47.3688642693,0
            8.5018317299232,47.3688944478689,0
            8.50222110030212,47.3689414133515,0
            8.50259276729388,47.3689859702688,0
            8.50273562720797,47.3690035034481,0
            8.50281590923245,47.3690134736201,0
            8.50289113058743,47.369022633575,0
            8.50296193012363,47.3690314058218,0
            8.50303334311597,47.3690393156004,0
            8.50311741656036,47.3690496790099,0
          </coordinates>
        </LineString>
      </Placemark>
      <Placemark id="gb3.2">
        <Style>
          <LineStyle>
            <color>ffff0000</color>
            <width>2</width>
          </LineStyle>
        </Style>
        <LineString>
          <coordinates>
            8.50137071782629,47.3690459466435,0
            8.50134662951387,47.3689763403201,0
            8.50134370635562,47.3689562327904,0
            8.5012629982926,47.3687350681345,0
            8.50126762357362,47.3687140343444,0
            8.50128293837159,47.3686282149915,0
          </coordinates>
        </LineString>
      </Placemark>
    </Document>
  </Document>
</kml>
